IBA Code,Site Name,Province,Districts,Area,Status,latitude,longitude,Latitude,Longitude,,A1,A2,A3,A4i,A4ii,A4iii,A4iv,DD,Criteria Details,tropicalwetevergreen,tropicalsemievergreen,littoral,tropicalgrassland,mangrove,drydeciduoustropical,tropicaldrydeciduous,tropicalsecondaryscrub,freshwaterswamp,riverinewetland,subtropicaldryevergreen,southernmixeddeciduoustype,mixeddrydeciduous,tropicaldryevergreen,subtropicaldrydeciduous,tropicalmoistdeciduous,subtropicalsecondaryscrub,montanewettemperate,subalpinedryscrub,tropical,semievergreen,subtropicalbroadleaved,riverinevegetation,montanegrassyslopes,subtropicalpine,subtropicalevergreen,subalpine,alpinearidpasture,alpinedrypasture,subtropical,broadleaved,wetland,floodedvalleygrassland,tropicalbamboobrakes,woodedgrassland,salixswamp,tropicalevergreen,jhumland,orchards,wetland(freshwaterlakes,pools),humanhabitation,seasonalmarsh,secondaryscrub,wetsavannagrassland,tropicalmoistscrub,bamboobrakes,saltpan,tidalmudflat,tropicalaridzone,tropicalthorn,alpinemoistpasture,alpinemoistscrub,himalayanwettemperate,himalayanmoisttemperate,alpinedryscrub,himalayandrytemperate,aquatic,himalayansecondaryscrub,himalayandryscrub,tropicaldry,lowlandevergreenrain,montanegrassy,montanegrassland,tropicaldeciduous,tropicalmoist,drydeciduous,moistdeciduous,riverine,evergreen,broadleafmountane,grasslandplateau,subtropicalleaved,hillyevergreen,montanebroadleafevergreen,deciduous,montanemixedbroadleaf,subtropicalmixedbroadleafconiferous,temperatebroadleaved,temperate,colddesert,alpinegrassland,mixedbroadleafconiferous,alpinemeadows,grassland,montaneevergreenshola,evergreenshrubs,plantations,Extra
IN-AN-01,Austin Strait,Andaman & Nicobar,Andaman Islands,3100,Non Officially Protected,12.90001,92.8667,12.93,92.87,,1,1,0,0,0,0,0,0,"Globally threatened species, Restricted range species (A1, A2)",1,1,0,0,0,0,0,0,0,0,0,0,0,0,0,0,0,0,0,0,0,0,0,0,0,0,0,0,0,0,0,0,0,0,0,0,0,0,0,0,0,0,0,0,0,0,0,0,0,0,0,0,0,0,0,0,0,0,0,0,0,0,0,0,0,0,0,0,0,0,0,0,0,0,0,0,0,0,0,0,0,0,0,0,0,0,0,0,"	,	,	,	,"
IN-AN-02,Baratang - Rafters Creek,Andaman & Nicobar,Andaman Islands,Not Defined,Non Officially Protected,NA,NA,NA,NA,,1,1,0,0,0,0,0,0,"Globally threatened species, Restricted range species (A1, A2)",0,1,1,0,0,0,0,0,0,0,0,0,0,0,0,0,0,0,0,0,0,0,0,0,0,0,0,0,0,0,0,0,0,0,0,0,0,0,0,0,0,0,0,0,0,0,0,0,0,0,0,0,0,0,0,0,0,0,0,0,0,0,0,0,0,0,0,0,0,0,0,0,0,0,0,0,0,0,0,0,0,0,0,0,0,0,0,0,"	,	,	,	,"
IN-AN-03,Car Nicobar,Andaman & Nicobar,Nicobar Islands,12000,Non Officially Protected,9.156225,92.8215167,9.2,92.77,,1,1,0,0,0,0,0,0,"Globally threatened species, Restricted range species (A1, A2)",1,1,0,0,0,0,0,0,0,0,0,0,0,0,0,0,0,0,0,0,0,0,0,0,0,0,0,0,0,0,0,0,0,0,0,0,0,0,0,0,0,0,0,0,0,0,0,0,0,0,0,0,0,0,0,0,0,0,0,0,0,0,0,0,0,0,0,0,0,0,0,0,0,0,0,0,0,0,0,0,0,0,0,0,0,0,0,0,"	,	,	,	,"
IN-AN-04,Chainpur and Hanspuri,Andaman & Nicobar,Andaman Islands,3700,Non Officially Protected,NA,NA,12.77,92.8,,1,1,0,0,0,0,0,0,"Globally threatened species, Restricted range species(A1, A2)",0,1,0,0,0,0,0,0,0,0,0,0,0,0,0,0,0,0,0,0,0,0,0,0,0,0,0,0,0,0,0,0,0,0,0,0,0,0,0,0,0,0,0,0,0,0,0,0,0,0,0,0,0,0,0,0,0,0,0,0,0,0,0,0,0,0,0,0,0,0,0,0,0,0,0,0,0,0,0,0,0,0,0,0,0,0,0,0,"	,	,	,	,"
IN-AN-05,"Great Nicobar, Little Nicobar",Andaman & Nicobar,Nicobar Islands,85319,Non Officially Protected,7.0233107,93.8149758,NA,NA,,1,1,0,0,0,0,0,0,"Globally threatened species, Restricted range species (A1, A2)",1,1,1,0,0,0,0,0,0,0,0,0,0,0,0,0,0,0,0,0,0,0,0,0,0,0,0,0,0,0,0,0,0,0,0,0,0,0,0,0,0,0,0,0,0,0,0,0,0,0,0,0,0,0,0,0,0,0,0,0,0,0,0,0,0,0,0,0,0,0,0,0,0,0,0,0,0,0,0,0,0,0,0,0,0,0,0,0,"	,	,	,	,"
IN-AN-06,Interview Island,Andaman & Nicobar,Andaman,13387,Wildlife Sanctuary,12.91666,92.71667,NA,NA,,1,1,0,0,0,0,0,0,"Globally threatened species, Restricted range species (A1, A2)",1,1,0,0,0,0,0,0,0,0,0,0,0,0,0,0,0,0,0,0,0,0,0,0,0,0,0,0,0,0,0,0,0,0,0,0,0,0,0,0,0,0,0,0,0,0,0,0,0,0,0,0,0,0,0,0,0,0,0,0,0,0,0,0,0,0,0,0,0,0,0,0,0,0,0,0,0,0,0,0,0,0,0,0,0,0,0,0,"	,	,	,	,	,"
IN-AN-07,Jarawa Reserve (Middle and South),Andaman & Nicobar,Andaman Islands,91108,Non Officially Protected,NA,NA,NA,NA,,1,1,0,0,0,0,0,0,"Globally threatened species, Restricted range species (A1, A2)",1,1,1,0,0,0,0,0,0,0,0,0,0,0,0,0,0,0,0,0,0,0,0,0,0,0,0,0,0,0,0,0,0,0,0,0,0,0,0,0,0,0,0,0,0,0,0,0,0,0,0,0,0,0,0,0,0,0,0,0,0,0,0,0,0,0,0,0,0,0,0,0,0,0,0,0,0,0,0,0,0,0,0,0,0,0,0,0,"	,	,	,	,	,"
IN-AN-08,Kadakachang,Andaman & Nicobar,Andaman Islands,Not Defined,Non Officially Protected,NA,NA,NA,NA,,1,1,0,0,0,0,0,0,"Globally threatened species, Restricted range species (A1, A2)",1,1,1,0,0,0,0,0,0,0,0,0,0,0,0,0,0,0,0,0,0,0,0,0,0,0,0,0,0,0,0,0,0,0,0,0,0,0,0,0,0,0,0,0,0,0,0,0,0,0,0,0,0,0,0,0,0,0,0,0,0,0,0,0,0,0,0,0,0,0,0,0,0,0,0,0,0,0,0,0,0,0,0,0,0,0,0,0,"	,	,	,	,"
IN-AN-09,Land Fall Island,Andaman & Nicobar,Andaman Islands,2948,Wildlife Sanctuary,NA,NA,NA,NA,,1,1,0,0,0,0,0,0,"Globally threatened species, Restricted range species (A1, A2)",1,1,1,0,0,0,0,0,0,0,0,0,0,0,0,0,0,0,0,0,0,0,0,0,0,0,0,0,0,0,0,0,0,0,0,0,0,0,0,0,0,0,0,0,0,0,0,0,0,0,0,0,0,0,0,0,0,0,0,0,0,0,0,0,0,0,0,0,0,0,0,0,0,0,0,0,0,0,0,0,0,0,0,0,0,0,0,0,"	,	,	,	,"
IN-AN-10,Little Andamans,Andaman & Nicobar,Andaman Islands,52000,Non Officially Protected,NA,NA,NA,NA,,1,1,0,0,0,0,0,0,"Globally threatened species, Restricted range species (A1, A2)",1,1,1,0,0,0,0,0,0,0,0,0,0,0,0,0,0,0,0,0,0,0,0,0,0,0,0,0,0,0,0,0,0,0,0,0,0,0,0,0,0,0,0,0,0,0,0,0,0,0,0,0,0,0,0,0,0,0,0,0,0,0,0,0,0,0,0,0,0,0,0,0,0,0,0,0,0,0,0,0,0,0,0,0,0,0,0,0,"	,	,	,	,"
IN-AN-11,Mahatma Gandhi Marine,Andaman & Nicobar,Andaman islands,28150,National Park,NA,NA,NA,NA,,1,1,0,0,0,0,0,0,"Globally threatened species, Restricted range species (A1, A2)",1,1,1,0,0,0,0,0,0,0,0,0,0,0,0,0,0,0,0,0,0,0,0,0,0,0,0,0,0,0,0,0,0,0,0,0,0,0,0,0,0,0,0,0,0,0,0,0,0,0,0,0,0,0,0,0,0,0,0,0,0,0,0,0,0,0,0,0,0,0,0,0,0,0,0,0,0,0,0,0,0,0,0,0,0,0,0,0,"	,	,	,	,"
IN-AN-12,Mount Diavalo - Cuthbert Bay,Andaman & Nicobar,Andaman Islands,Not Defined,Non Officially Protected,NA,NA,NA,NA,,1,1,0,0,0,0,0,0,"Globally threatened species, Restricted range species (A1, A2)",1,1,1,0,0,0,0,0,0,0,0,0,0,0,0,0,0,0,0,0,0,0,0,0,0,0,0,0,0,0,0,0,0,0,0,0,0,0,0,0,0,0,0,0,0,0,0,0,0,0,0,0,0,0,0,0,0,0,0,0,0,0,0,0,0,0,0,0,0,0,0,0,0,0,0,0,0,0,0,0,0,0,0,0,0,0,0,0,"	,	,	,	,"
IN-AN-13,Mount Harriet - Shoal Bay,Andaman & Nicobar,Andaman Islands,4662,National Park,NA,NA,NA,NA,,1,1,0,0,0,0,0,0,"Globally threatened species, Restricted range species (A1, A2)",1,1,1,0,0,0,0,0,0,0,0,0,0,0,0,0,0,0,0,0,0,0,0,0,0,0,0,0,0,0,0,0,0,0,0,0,0,0,0,0,0,0,0,0,0,0,0,0,0,0,0,0,0,0,0,0,0,0,0,0,0,0,0,0,0,0,0,0,0,0,0,0,0,0,0,0,0,0,0,0,0,0,0,0,0,0,0,0,"	,	,	,	,"
IN-AN-14,Narcondam Island,Andaman & Nicobar,Andaman Islands,681,Wildlife Sanctuary,13.4467796,94.2644196,NA,NA,,1,1,0,0,0,0,0,0,"Globally threatened species, Restricted range species (A1, A2)",1,1,1,0,0,0,0,0,0,0,0,0,0,0,0,0,0,0,0,0,0,0,0,0,0,0,0,0,0,0,0,0,0,0,0,0,0,0,0,0,0,0,0,0,0,0,0,0,0,0,0,0,0,0,0,0,0,0,0,0,0,0,0,0,0,0,0,0,0,0,0,0,0,0,0,0,0,0,0,0,0,0,0,0,0,0,0,0,"	,	,	,	,"
IN-AN-15,North and South Sentinel,Andaman & Nicobar,Andaman Islands,4700,Wildlife Sanctuary,11.66488,92.73562,10.97,92.22,,1,1,0,0,0,0,0,0,"Globally threatened species, Restricted range species (A1, A2)",1,1,1,0,0,0,0,0,0,0,0,0,0,0,0,0,0,0,0,0,0,0,0,0,0,0,0,0,0,0,0,0,0,0,0,0,0,0,0,0,0,0,0,0,0,0,0,0,0,0,0,0,0,0,0,0,0,0,0,0,0,0,0,0,0,0,0,0,0,0,0,0,0,0,0,0,0,0,0,0,0,0,0,0,0,0,0,0,"	,	,	,	,"
IN-AN-16,North Reef Island,Andaman & Nicobar,Andaman Islands,348,Wildlife Sanctuary,13.08541,92.702101,NA,NA,,1,1,0,0,0,0,0,0,"Globally threatened species, Restricted range species (A1, A2)",1,1,1,0,0,0,0,0,0,0,0,0,0,0,0,0,0,0,0,0,0,0,0,0,0,0,0,0,0,0,0,0,0,0,0,0,0,0,0,0,0,0,0,0,0,0,0,0,0,0,0,0,0,0,0,0,0,0,0,0,0,0,0,0,0,0,0,0,0,0,0,0,0,0,0,0,0,0,0,0,0,0,0,0,0,0,0,0,"	,	,	,	,"
IN-AN-17,Rani Jhansi Marine,Andaman & Nicobar,Andaman Islands,25614,National Park,NA,NA,NA,NA,,1,1,0,0,0,0,0,0,"Globally threatened species, Restricted range species (A1, A2)",1,1,1,0,0,0,0,0,0,0,0,0,0,0,0,0,0,0,0,0,0,0,0,0,0,0,0,0,0,0,0,0,0,0,0,0,0,0,0,0,0,0,0,0,0,0,0,0,0,0,0,0,0,0,0,0,0,0,0,0,0,0,0,0,0,0,0,0,0,0,0,0,0,0,0,0,0,0,0,0,0,0,0,0,0,0,0,0,"	,	,	,	,"
IN-AN-18,Saddle Peak,Andaman & Nicobar,Andaman Islands,3254,National Park,13.15673,93.00513,NA,NA,,1,1,0,0,0,0,0,0,"Globally threatened species, Restricted range species (A1, A2)",1,1,1,0,0,0,0,0,0,0,0,0,0,0,0,0,0,0,0,0,0,0,0,0,0,0,0,0,0,0,0,0,0,0,0,0,0,0,0,0,0,0,0,0,0,0,0,0,0,0,0,0,0,0,0,0,0,0,0,0,0,0,0,0,0,0,0,0,0,0,0,0,0,0,0,0,0,0,0,0,0,0,0,0,0,0,0,0,"	,	,	,	,"
IN-AN-19,"Tilanghong, Camorta, Katchal, Nanc",Andaman & Nicobar,Nicobar Islands,1683,Wildlife Sanctuary,NA,NA,NA,NA,,1,1,0,0,0,0,0,0,"Globally threatened species, Restricted range species (A1, A2)",1,1,1,1,0,0,0,0,0,0,0,0,0,0,0,0,0,0,0,0,0,0,0,0,0,0,0,0,0,0,0,0,0,0,0,0,0,0,0,0,0,0,0,0,0,0,0,0,0,0,0,0,0,0,0,0,0,0,0,0,0,0,0,0,0,0,0,0,0,0,0,0,0,0,0,0,0,0,0,0,0,0,0,0,0,0,0,0,"	,	,	,	,	,	,"
IN-AP-01,Coringa and Godaveri Estuary,Andhra Pradesh,East Godavari,23570,Wildlife Sanctuary,NA,NA,NA,NA,,1,0,0,0,0,1,0,0,"Globally threatened species, Congregations: Site known or thought to hold, on a regular basis, > 20,000 water birds or > 10,000 pairs of seabirds of one or more species (A1, A4iii)",0,0,0,0,1,1,0,0,0,0,0,0,0,0,0,0,0,0,0,0,0,0,0,0,0,0,0,0,0,0,0,0,0,0,0,0,0,0,0,0,0,0,0,0,0,0,0,0,0,0,0,0,0,0,0,0,0,0,0,0,0,0,0,0,0,0,0,0,0,0,0,0,0,0,0,0,0,0,0,0,0,0,0,0,0,0,0,0,"	,	,	,	,"
IN-AP-02,Horsely Hills,Andhra Pradesh,Chittoor,Not Defined,Non Officially Protected,NA,NA,NA,NA,,1,1,0,0,0,0,0,0,"Globally threatened species, Restricted range species (A1, A2)",0,0,0,0,0,0,1,0,0,0,0,0,0,0,0,0,0,0,0,0,0,0,0,0,0,0,0,0,0,0,0,0,0,0,0,0,0,0,0,0,0,0,0,0,0,0,0,0,0,0,0,0,0,0,0,0,0,0,0,0,0,0,0,0,0,0,0,0,0,0,0,0,0,0,0,0,0,0,0,0,0,0,0,0,0,0,0,0,"	,	,	,	,"
IN-AP-03,Kaundinya,Andhra Pradesh,Chittoor,35670,Wildlife Sanctuary,13.1644465,78.7373012,NA,NA,,1,1,0,0,0,0,0,0,"Globally threatened species, Restricted range species (A1, A2)",0,0,0,0,0,0,1,1,0,0,0,0,0,0,0,0,0,0,0,0,0,0,0,0,0,0,0,0,0,0,0,0,0,0,0,0,0,0,0,0,0,0,0,0,0,0,0,0,0,0,0,0,0,0,0,0,0,0,0,0,0,0,0,0,0,0,0,0,0,0,0,0,0,0,0,0,0,0,0,0,0,0,0,0,0,0,0,0,"	,	,	,	,"
IN-AP-04,Kolleru,Andhra Pradesh,"West Godavari, Krishna",67300,Wildlife Sanctuary,16.5845052,81.38365353,NA,NA,,1,0,0,1,0,1,0,0,"Globally threatened species, Congregations: Site known or thought to hold, on a regular basis, > 1% of a bio-geographic population of a congregatory waterbird species, Congregations: Site known or thought to hold, on a regular basis, > 20,000 water birds or > 10,000 pairs of seabirds of one or more species (A1, A4i, A4iii)",0,0,0,0,0,0,0,1,1,0,0,0,0,0,0,0,0,0,0,0,0,0,0,0,0,0,0,0,0,0,0,0,0,0,0,0,0,0,0,0,0,0,0,0,0,0,0,0,0,0,0,0,0,0,0,0,0,0,0,0,0,0,0,0,0,0,0,0,0,0,0,0,0,0,0,0,0,0,0,0,0,0,0,0,0,0,0,0,"	,	,	,	,"
IN-AP-05,Manjira,Andhra Pradesh,Medak,2000,Wildlife Sanctuary,NA,NA,NA,NA,,1,0,0,1,0,1,0,0,"Globally threatened species, Congregations: Site known or thought to hold, on a regular basis, > 1% of a bio-geographic population of a congregatory waterbird species, Congregations: Site known or thought to hold, on a regular basis, > 20,000 water birds or > 10,000 pairs of seabirds of one or more species (A1, A4i, A4iii)",0,0,0,0,0,0,0,0,0,1,0,0,0,0,0,0,0,0,0,0,0,0,0,0,0,0,0,0,0,0,0,0,0,0,0,0,0,0,0,0,0,0,0,0,0,0,0,0,0,0,0,0,0,0,0,0,0,0,0,0,0,0,0,0,0,0,0,0,0,0,0,0,0,0,0,0,0,0,0,0,0,0,0,0,0,0,0,0,"	,	,	,	,"
IN-AP-06,Nagarjuna Sagar - Srisailam Rajeev,Andhra Pradesh,-,356809,Tiger Reserve,NA,NA,NA,NA,,1,0,0,0,0,0,0,0,Globally threatened species (A1),0,0,0,0,0,0,0,0,0,0,1,0,0,0,0,0,0,0,0,0,0,0,0,0,0,0,0,0,0,0,0,0,0,0,0,0,0,0,0,0,0,0,0,0,0,0,0,0,0,0,0,0,0,0,0,0,0,0,0,0,0,0,0,0,0,0,0,0,0,0,0,0,0,0,0,0,0,0,0,0,0,0,0,0,0,0,0,0,"	,	,	,	,"
IN-AP-07,Nelapattu,Andhra Pradesh,Nellore,440,Wildlife Sanctuary,NA,NA,NA,NA,,1,0,0,1,0,0,0,0,"Globally threatened species, Congregations: Site known or thought to hold, on a regular basis, > 1% of a bio-geographic population of a congregatory waterbird species (A1, A4i)",0,0,1,0,0,0,0,1,0,0,0,0,0,0,0,0,0,0,0,0,0,0,0,0,0,0,0,0,0,0,0,0,0,0,0,0,0,0,0,0,0,0,0,0,0,0,0,0,0,0,0,0,0,0,0,0,0,0,0,0,0,0,0,0,0,0,0,0,0,0,0,0,0,0,0,0,0,0,0,0,0,0,0,0,0,0,0,0,"	,	,	,	,"
IN-AP-08,Pakhal,Andhra Pradesh,Warangal,87930,Wildlife Sanctuary,NA,NA,NA,NA,,0,0,0,0,0,1,0,0,"Congregations: Site known or thought to hold, on a regular basis, > 20,000 water birds or > 10,000 pairs of seabirds of one or more species (A4iii)",0,0,0,0,0,0,0,0,0,0,0,1,0,0,0,0,0,0,0,0,0,0,0,0,0,0,0,0,0,0,0,0,0,0,0,0,0,0,0,0,0,0,0,0,0,0,0,0,0,0,0,0,0,0,0,0,0,0,0,0,0,0,0,0,0,0,0,0,0,0,0,0,0,0,0,0,0,0,0,0,0,0,0,0,0,0,0,0,"	,	,	,	,"
IN-AP-09,Pocharam,Andhra Pradesh,Medak and Nizamabad,13000,Wildlife Sanctuary,NA,NA,NA,NA,,1,0,1,0,0,0,0,0,"Globally threatened species, Biome-restricted assemblage (A1, A3)",0,0,0,0,0,0,0,0,0,0,0,0,1,0,0,0,0,0,0,0,0,0,0,0,0,0,0,0,0,0,0,0,0,0,0,0,0,0,0,0,0,0,0,0,0,0,0,0,0,0,0,0,0,0,0,0,0,0,0,0,0,0,0,0,0,0,0,0,0,0,0,0,0,0,0,0,0,0,0,0,0,0,0,0,0,0,0,0,"	,	,	,	,"
IN-AP-10,Pulicat Lake,Andhra Pradesh,Nellore,60000,Wildlife Sanctuary,13.63447625,80.17061641,13.67,80.18,,1,0,0,0,0,1,0,0,"Globally threatened species, Congregations: Site known or thought to hold, on a regular basis, > 20,000 water birds or > 10,000 pairs of seabirds of one or more species (A1, A4iii)",0,0,1,0,0,0,0,0,0,0,0,0,0,1,0,0,0,0,0,0,0,0,0,0,0,0,0,0,0,0,0,0,0,0,0,0,0,0,0,0,0,0,0,0,0,0,0,0,0,0,0,0,0,0,0,0,0,0,0,0,0,0,0,0,0,0,0,0,0,0,0,0,0,0,0,0,0,0,0,0,0,0,0,0,0,0,0,0,"	,	,	,	,"
IN-AP-11,Rollapadu,Andhra Pradesh,Kurnool,614,Wildlife Sanctuary,NA,NA,NA,NA,,0,0,0,0,0,0,0,0,"Globally threatened species, Congregations: Site known or thought to hold, on a regular basis, > 1% of a bio-geographic population",0,0,0,0,0,0,0,0,0,0,0,0,0,0,0,0,0,0,0,0,0,0,0,0,0,0,0,0,0,0,0,0,0,0,0,0,0,0,0,0,0,0,0,0,0,0,0,0,0,0,0,0,0,0,0,0,0,0,0,0,0,0,0,0,0,0,0,0,0,0,0,0,0,0,0,0,0,0,0,0,0,0,0,0,0,0,0,0,
IN-AP-12,Sri Lankamalleshwaram,Andhra Pradesh,Cuddapah,46400,Wildlife Sanctuary,NA,NA,NA,NA,,1,1,0,0,0,0,0,0,"Globally threatened species, Restricted range species (A1, A2)",0,0,0,0,0,0,0,0,0,0,0,0,0,0,1,0,0,0,0,0,0,0,0,0,0,0,0,0,0,0,0,0,0,0,0,0,0,0,0,0,0,0,0,0,0,0,0,0,0,0,0,0,0,0,0,0,0,0,0,0,0,0,0,0,0,0,0,0,0,0,0,0,0,0,0,0,0,0,0,0,0,0,0,0,0,0,0,0,"	,	,	,	,"
IN-AP-13,Sri Penusula Narasimha,Andhra Pradesh,Nellore and Cuddapah,103085,Wildlife Sanctuary,NA,NA,NA,NA,,1,1,0,0,0,0,0,0,"Globally threatened species, Restricted range species (A1, A2)",0,0,0,0,0,0,0,0,0,0,0,0,0,0,0,1,1,0,0,0,0,0,0,0,0,0,0,0,0,0,0,0,0,0,0,0,0,0,0,0,0,0,0,0,0,0,0,0,0,0,0,0,0,0,0,0,0,0,0,0,0,0,0,0,0,0,0,0,0,0,0,0,0,0,0,0,0,0,0,0,0,0,0,0,0,0,0,0,"	,	,	,	,"
IN-AP-14,Sri Venkateswara,Andhra Pradesh,Chittoor and Cuddapah,50694,National Park,13.6791127,79.3408572,NA,NA,,1,1,0,0,0,0,0,0,"Globally threatened species, Restricted range species (A1, A2)",0,0,0,0,0,0,1,0,0,0,0,0,0,0,0,0,0,0,0,0,0,0,0,0,0,0,0,0,0,0,0,0,0,0,0,0,0,0,0,0,0,0,0,0,0,0,0,0,0,0,0,0,0,0,0,0,0,0,0,0,0,0,0,0,0,0,0,0,0,0,0,0,0,0,0,0,0,0,0,0,0,0,0,0,0,0,0,0,"	,	,	,	,"
IN-AP-15,Telineelapuram,Andhra Pradesh,Srikakulam,460,Non Officially Protected,NA,NA,19.12,84.68,,1,0,0,1,0,0,0,0,"Globally threatened species, Congregations: Site known or thought to hold, on a regular basis, > 1% of a bio-geographic population of a congregatory waterbird species (A1, A4i)",0,0,0,0,0,0,0,0,1,0,0,0,0,0,0,0,0,0,0,0,0,0,0,0,0,0,0,0,0,0,0,0,0,0,0,0,0,0,0,0,0,0,0,0,0,0,0,0,0,0,0,0,0,0,0,0,0,0,0,0,0,0,0,0,0,0,0,0,0,0,0,0,0,0,0,0,0,0,0,0,0,0,0,0,0,0,0,0,"	,	,	,	,"
IN-AP-16,Uppalapaddu,Andhra Pradesh,Guntur,15,Non Officially Protected,NA,NA,NA,NA,,1,0,0,1,0,1,0,0,"Globally threatened species, Congregations: Site known or thought to hold, on a regular basis, > 1% of a bio-geographic population of a congregatory waterbird species, Congregations: Site known or thought to hold, on a regular basis, > 20,000 water birds or > 10,000 pairs of seabirds of one or more species (A1, A4i, A4iii)",0,0,0,0,0,0,0,0,1,0,0,0,0,0,0,0,0,0,0,0,0,0,0,0,0,0,0,0,0,0,0,0,0,0,0,0,0,0,0,0,0,0,0,0,0,0,0,0,0,0,0,0,0,0,0,0,0,0,0,0,0,0,0,0,0,0,0,0,0,0,0,0,0,0,0,0,0,0,0,0,0,0,0,0,0,0,0,0,"	,	,	,	,	,	,"
IN-AR-01,Chaglagaum - Denning - Walong,Arunachal Pradesh,Lohit,200000,Non Officially Protected,NA,NA,NA,NA,,1,1,0,0,0,0,0,0,"Globally threatened species, Restricted range species (A1, A2)",0,0,0,0,0,0,0,0,0,0,0,0,0,0,0,0,0,1,1,0,0,0,0,0,0,0,0,0,0,0,0,0,0,0,0,0,0,0,0,0,0,0,0,0,0,0,0,0,0,0,0,0,0,0,0,0,0,0,0,0,0,0,0,0,0,0,0,0,0,0,0,0,0,0,0,0,0,0,0,0,0,0,0,0,0,0,0,0,"	,	,"
IN-AR-02,Chayang Tajo - Khenewa Lada Area,Arunachal Pradesh,East Kameng,Not Defined,Non Officially Protected,NA,NA,NA,NA,,1,1,0,0,0,0,0,0,"Globally threatened species, Restricted range species (A1, A2)",1,0,0,0,0,0,0,0,0,0,0,0,0,0,0,0,0,0,0,1,1,1,0,0,0,0,0,0,0,0,0,0,0,0,0,0,0,0,0,0,0,0,0,0,0,0,0,0,0,0,0,0,0,0,0,0,0,0,0,0,0,0,0,0,0,0,0,0,0,0,0,0,0,0,0,0,0,0,0,0,0,0,0,0,0,0,0,0,
IN-AR-03,D Ering Memorial,Arunachal Pradesh,East Siang,19000,Wildlife Sanctuary,NA,NA,NA,NA,,1,1,0,1,0,0,0,0,"Globally threatened species, Restricted range species, Congregations: Site known or thought to hold, on a regular basis, > 1% of a bio-geographic population of a congregatory waterbird species (A1, A2, A4i)",0,0,0,0,0,0,0,0,0,0,0,0,0,0,0,0,0,0,0,0,0,0,1,1,0,0,0,0,0,0,0,0,0,0,0,0,0,0,0,0,0,0,0,0,0,0,0,0,0,0,0,0,0,0,0,0,0,0,0,0,0,0,0,0,0,0,0,0,0,0,0,0,0,0,0,0,0,0,0,0,0,0,0,0,0,0,0,0,
IN-AR-04,Dibang Lower,Arunachal Pradesh,Lower Dibang Valley,20200,Non Officially Protected,NA,NA,NA,NA,,1,1,0,0,0,0,0,0,"Globally threatened species, Restricted range species (A1, A2)",1,0,0,0,0,0,0,0,0,0,0,0,0,0,0,0,0,0,0,0,0,0,0,1,0,0,0,0,0,0,0,0,0,0,0,0,0,0,0,0,0,0,0,0,0,0,0,0,0,0,0,0,0,0,0,0,0,0,0,0,0,0,0,0,0,0,0,0,0,0,0,0,0,0,0,0,0,0,0,0,0,0,0,0,0,0,0,0,"	,"
IN-AR-05,Dibang Upper,Arunachal Pradesh,Upper Dibang Valley,414900,Wildlife Sanctuary,NA,NA,NA,NA,,1,1,0,0,0,0,0,0,"Globally threatened species, Restricted range species (A1, A2)",0,0,0,0,0,0,0,0,0,0,1,0,0,0,0,0,0,0,0,0,0,1,0,0,1,0,0,0,0,0,0,0,0,0,0,0,0,0,0,0,0,0,0,0,0,0,0,0,0,0,0,0,0,0,0,0,0,0,0,0,0,0,0,0,0,0,0,0,0,0,0,0,0,0,0,0,0,0,0,0,0,0,0,0,0,0,0,0,
IN-AR-06,Ditchu,Arunachal Pradesh,Lohit,179200,Non Officially Protected,NA,NA,NA,NA,,1,1,0,0,0,0,0,0,"Globally threatened species, Restricted range species (A1, A2)",0,0,0,0,0,0,0,0,0,0,1,0,0,0,0,0,0,0,0,0,0,0,0,0,0,0,0,0,0,0,0,0,0,0,0,0,0,0,0,0,0,0,0,0,0,0,0,0,0,0,0,0,0,0,0,0,0,0,0,0,0,0,0,0,0,0,0,0,0,0,0,0,0,0,0,0,0,0,0,0,0,0,0,0,0,0,0,0,
IN-AR-07,Eaglenest and Seesa,Arunachal Pradesh,West Kameng,31700,Wildlife Sanctuary,NA,NA,NA,NA,,1,1,0,0,0,0,0,0,"Globally threatened species, Restricted range species (A1, A2)",0,0,0,0,0,0,0,0,0,0,0,0,0,0,0,0,0,1,0,0,0,0,0,0,0,1,1,0,0,0,0,0,0,0,0,0,0,0,0,0,0,0,0,0,0,0,0,0,0,0,0,0,0,0,0,0,0,0,0,0,0,0,0,0,0,0,0,0,0,0,0,0,0,0,0,0,0,0,0,0,0,0,0,0,0,0,0,0,
IN-AR-08,Itanagar,Arunachal Pradesh,Papumpare,14030,Wildlife Sanctuary,27.1019788,93.6291978,NA,NA,,1,1,0,0,0,0,0,0,"Globally threatened species, Restricted range species (A1, A2)",0,1,0,0,0,0,0,0,0,0,0,0,0,0,0,0,0,0,0,0,0,0,0,0,0,0,0,0,0,0,0,0,0,0,0,0,0,0,0,0,0,0,0,0,0,0,0,0,0,0,0,0,0,0,0,0,0,0,0,0,0,0,0,0,0,0,0,0,0,0,0,0,0,0,0,0,0,0,0,0,0,0,0,0,0,0,0,0,"	,"
IN-AR-09,Kane,Arunachal Pradesh,West Siang,5500,Wildlife Sanctuary,NA,NA,NA,NA,,1,1,0,0,0,0,0,0,"Globally threatened species, Restricted range species (A1, A2)",0,0,0,0,0,0,0,0,0,0,1,0,0,0,0,0,0,0,0,0,0,1,0,0,0,0,0,0,0,0,0,0,0,0,0,0,0,0,0,0,0,0,0,0,0,0,0,0,0,0,0,0,0,0,0,0,0,0,0,0,0,0,0,0,0,0,0,0,0,0,0,0,0,0,0,0,0,0,0,0,0,0,0,0,0,0,0,0,
IN-AR-10,Kolo Riang - Sarli - Damin Areas,Arunachal Pradesh,Lower Subansiri,200000,Non Officially Protected,NA,NA,NA,NA,,1,1,0,0,0,0,0,0,"Globally threatened species, Restricted range species (A1, A2)",0,0,0,0,0,0,0,0,0,0,1,0,0,0,0,0,0,1,1,0,0,0,0,0,0,0,0,0,0,0,0,0,0,0,0,0,0,0,0,0,0,0,0,0,0,0,0,0,0,0,0,0,0,0,0,0,0,0,0,0,0,0,0,0,0,0,0,0,0,0,0,0,0,0,0,0,0,0,0,0,0,0,0,0,0,0,0,0,
IN-AR-11,Mago Thingbu and Luguthang Area,Arunachal Pradesh,Tawang,Not Defined,Non Officially Protected,NA,NA,NA,NA,,1,1,1,0,0,0,0,0,"Globally threatened species, Restricted range species, Biome-restricted assemblage (A1, A2, A3)",0,0,0,0,0,0,0,0,0,0,1,0,0,0,0,0,0,0,0,0,0,1,0,0,0,0,0,0,0,0,0,0,0,0,0,0,0,0,0,0,0,0,0,0,0,0,0,0,0,0,0,0,0,0,0,0,0,0,0,0,0,0,0,0,0,0,0,0,0,0,0,0,0,0,0,0,0,0,0,0,0,0,0,0,0,0,0,0,
IN-AR-12,Manabum and Tengapanis,Arunachal Pradesh,Lohit,58000,Non Officially Protected,NA,NA,NA,NA,,1,0,0,1,0,0,0,0,"Globally threatened species, Congregations: Site known or thought to hold, on a regular basis, > 1% of a bio-geographic population of a congregatory waterbird species (A1, A4i)",0,0,0,0,0,0,0,0,0,0,1,0,0,0,0,0,0,0,0,0,0,0,0,0,0,0,0,0,0,0,0,0,0,0,0,0,0,0,0,0,0,0,0,0,0,0,0,0,0,0,0,0,0,0,0,0,0,0,0,0,0,0,0,0,0,0,0,0,0,0,0,0,0,0,0,0,0,0,0,0,0,0,0,0,0,0,0,0,
IN-AR-13,Mechuka - Monigong - Jorgging,Arunachal Pradesh,West and Upper Siang.,250000,Non Officially Protected,NA,NA,NA,NA,,1,1,0,0,0,0,0,0,"Globally threatened species, Restricted range species (A1, A2)",0,0,0,0,0,0,0,0,0,0,0,0,0,0,0,0,0,0,0,0,0,1,0,0,1,0,1,1,0,0,0,0,0,0,0,0,0,0,0,0,0,0,0,0,0,0,0,0,0,0,0,0,0,0,0,0,0,0,0,0,0,0,0,0,0,0,0,0,0,0,0,0,0,0,0,0,0,0,0,0,0,0,0,0,0,0,0,0,"	,	,"
IN-AR-14,Mehao,Arunachal Pradesh,Dibang Valley,28150,Wildlife Sanctuary,NA,NA,NA,NA,,1,1,0,0,0,0,0,0,"Globally threatened species, Restricted range species (A1, A2)",0,0,0,0,0,0,0,0,0,0,1,0,0,0,0,0,0,1,0,0,0,1,0,0,0,0,0,0,0,0,0,0,0,0,0,0,0,0,0,0,0,0,0,0,0,0,0,0,0,0,0,0,0,0,0,0,0,0,0,0,0,0,0,0,0,0,0,0,0,0,0,0,0,0,0,0,0,0,0,0,0,0,0,0,0,0,0,0,"	,	,"
IN-AR-15,Mouling,Arunachal Pradesh,"Upper, East and West Siang",48300,National Park,NA,NA,NA,NA,,1,1,0,0,0,0,0,0,"Globally threatened species, Restricted range species (A1, A2)",0,0,0,0,0,0,0,0,0,0,0,0,0,0,0,0,0,1,0,0,0,1,0,0,0,0,0,0,0,0,0,0,0,0,0,0,0,0,0,0,0,0,0,0,0,0,0,0,0,0,0,0,0,0,0,0,0,0,0,0,0,0,0,0,0,0,0,0,0,0,0,0,0,0,0,0,0,0,0,0,0,0,0,0,0,0,0,0,"	,"
IN-AR-16,Nacho - Limeking - Taksing - Majha,Arunachal Pradesh,Upper Subansiri,200000,Non Officially Protected,NA,NA,NA,NA,,1,1,0,0,0,0,0,0,"Globally threatened species, Restricted range species (A1, A2)",0,0,0,0,0,0,0,0,0,0,0,0,0,0,0,0,0,1,0,0,0,0,0,0,0,0,1,0,0,0,0,0,0,0,0,0,0,0,0,0,0,0,0,0,0,0,0,0,0,0,0,0,0,0,0,0,0,0,0,0,0,0,0,0,0,0,0,0,0,0,0,0,0,0,0,0,0,0,0,0,0,0,0,0,0,0,0,0,
IN-AR-17,Nafra - Lada Area,Arunachal Pradesh,West Kameng & East Kameng,Not Defined,Non Officially Protected,NA,NA,NA,NA,,1,1,0,0,0,0,0,0,"Globally threatened species, Restricted range species (A1, A2)",0,0,0,0,0,0,0,0,0,0,0,0,0,0,0,0,0,0,1,0,0,1,0,0,1,0,0,0,1,0,0,0,0,0,0,0,0,0,0,0,0,0,0,0,0,0,0,0,0,0,0,0,0,0,0,0,0,0,0,0,0,0,0,0,0,0,0,0,0,0,0,0,0,0,0,0,0,0,0,0,0,0,0,0,0,0,0,0,
IN-AR-18,Namdapha and Kamlang,Arunachal Pradesh,Changlang and Lohit,259082,Tiger Reserve,NA,NA,NA,NA,,1,1,0,0,0,0,0,0,"Globally threatened species, Restricted range species (A1, A2)",0,0,0,0,0,0,0,0,0,0,1,0,0,0,0,0,0,1,1,0,0,0,0,0,0,0,0,0,0,0,0,0,0,0,0,0,0,0,0,0,0,0,0,0,0,0,0,0,0,0,0,0,0,0,0,0,0,0,0,0,0,0,0,0,0,0,0,0,0,0,0,0,0,0,0,0,0,0,0,0,0,0,0,0,0,0,0,0,
IN-AR-19,Namsang Mukh - Vodoria,Arunachal Pradesh,Tirap,Not Defined,Non Officially Protected,NA,NA,NA,NA,,1,1,0,0,0,0,0,0,"Globally threatened species, Restricted range species (A1, A2)",0,0,0,0,0,0,0,0,0,0,1,0,0,0,0,0,0,0,0,0,0,0,0,0,0,0,0,0,0,0,0,0,0,0,0,0,0,0,0,0,0,0,0,0,0,0,0,0,0,0,0,0,0,0,0,0,0,0,0,0,0,0,0,0,0,0,0,0,0,0,0,0,0,0,0,0,0,0,0,0,0,0,0,0,0,0,0,0,
IN-AR-20,Pakhui,Arunachal Pradesh,East Kameng,86195,Wildlife Sanctuary,NA,NA,NA,NA,,1,1,0,0,0,0,0,0,"Globally threatened species, Restricted range species (A1, A2)",0,0,0,0,0,0,0,0,0,0,1,0,0,0,0,0,0,0,0,0,0,0,0,0,0,0,0,0,0,0,0,0,0,0,0,0,0,0,0,0,0,0,0,0,0,0,0,0,0,0,0,0,0,0,0,0,0,0,0,0,0,0,0,0,0,0,0,0,0,0,0,0,0,0,0,0,0,0,0,0,0,0,0,0,0,0,0,0,
IN-AR-21,Papum,Arunachal Pradesh,East Kameng,106300,Non Officially Protected,27.2843145,93.61156001,NA,NA,,1,0,0,0,0,0,0,0,Globally threatened species (A1),0,0,0,0,0,0,0,0,0,0,1,0,0,0,0,0,0,0,0,0,0,1,0,0,0,0,0,0,0,0,0,0,0,0,0,0,0,0,0,0,0,0,0,0,0,0,0,0,0,0,0,0,0,0,0,0,0,0,0,0,0,0,0,0,0,0,0,0,0,0,0,0,0,0,0,0,0,0,0,0,0,0,0,0,0,0,0,0,
IN-AR-22,Sangti Valley,Arunachal Pradesh,West Kameng,500,Non Officially Protected,NA,NA,27.45,92.08,,1,0,0,0,0,0,0,0,Globally threatened species (A1),0,0,0,0,0,0,0,0,0,0,0,0,0,0,0,0,0,1,0,0,0,1,0,0,0,0,0,0,0,0,0,0,0,0,0,0,0,0,0,0,0,0,0,0,0,0,0,0,0,0,0,0,0,0,0,0,0,0,0,0,0,0,0,0,0,0,0,0,0,0,0,0,0,0,0,0,0,0,0,0,0,0,0,0,0,0,0,0,
IN-AR-23,"Shergaon, Mandla Phudung and Kalak",Arunachal Pradesh,West Kameng,50000,Non Officially Protected,NA,NA,NA,NA,,1,1,0,0,0,0,0,0,"Globally threatened species, Restricted range species (A1, A2)",0,0,0,0,0,0,0,0,0,0,0,0,0,0,0,0,0,0,0,0,0,0,0,0,1,0,0,0,0,0,0,0,0,0,0,0,0,0,0,0,0,0,0,0,0,0,0,0,0,0,0,0,0,0,0,0,0,0,0,0,0,0,0,0,0,0,0,0,0,0,0,0,0,0,0,0,0,0,0,0,0,0,0,0,0,0,0,0,"	,"
IN-AR-24,Tally Valley,Arunachal Pradesh,Lower Subansiri,51587,Wildlife Sanctuary,NA,NA,NA,NA,,1,1,0,0,0,0,0,0,"Globally threatened species, Restricted range species (A1, A2)",0,0,0,0,0,0,0,0,0,0,1,0,0,0,0,0,0,0,0,0,0,1,0,0,1,0,0,0,0,0,0,0,0,0,0,0,0,0,0,0,0,0,0,0,0,0,0,0,0,0,0,0,0,0,0,0,0,0,0,0,0,0,0,0,0,0,0,0,0,0,0,0,0,0,0,0,0,0,0,0,0,0,0,0,0,0,0,0,
IN-AR-25,The Chaporis of Lohit Reserve,Arunachal Pradesh,West Siang,Not Defined,Non Officially Protected,NA,NA,NA,NA,,1,1,0,0,0,0,0,0,"Globally threatened species, Restricted range species (A1, A2)",0,0,0,0,0,0,0,0,0,0,0,0,0,0,0,0,0,0,0,0,0,1,0,0,0,0,0,0,0,0,0,0,0,0,0,0,0,0,0,0,0,0,0,0,0,0,0,0,0,0,0,0,0,0,0,0,0,0,0,0,0,0,0,0,0,0,0,0,0,0,0,0,0,0,0,0,0,0,0,0,0,0,0,0,0,0,0,0,
IN-AR-26,"Thungri Changlang Poshingla, Maji",Arunachal Pradesh,West Kameng,50000,Non Officially Protected,NA,NA,NA,NA,,1,1,0,0,0,0,0,0,"Globally threatened species, Restricted range species (A1, A2)",0,0,0,0,0,0,0,0,0,0,0,0,0,0,0,0,0,0,0,0,0,0,0,0,1,0,0,0,0,1,1,0,0,0,0,0,0,0,0,0,0,0,0,0,0,0,0,0,0,0,0,0,0,0,0,0,0,0,0,0,0,0,0,0,0,0,0,0,0,0,0,0,0,0,0,0,0,0,0,0,0,0,0,0,0,0,0,0,
IN-AR-27,Yardi - Rabe Supse,Arunachal Pradesh,West Siang,49600,Wildlife Sanctuary,NA,NA,NA,NA,,1,0,0,0,0,0,0,0,Globally threatened species (A1),0,0,0,0,0,0,0,0,0,0,0,0,0,0,0,0,0,1,0,0,0,1,0,0,1,0,0,0,0,0,0,0,0,0,0,0,0,0,0,0,0,0,0,0,0,0,0,0,0,0,0,0,0,0,0,0,0,0,0,0,0,0,0,0,0,0,0,0,0,0,0,0,0,0,0,0,0,0,0,0,0,0,0,0,0,0,0,0,"	,"
IN-AR-28,Zamithang - Nelya - Sageshwar Lake,Arunachal Pradesh,Kameng,30000,Non Officially Protected,NA,NA,NA,NA,,1,1,0,0,0,0,0,0,"Globally threatened species, Restricted range species (A1, A2)",0,0,0,0,0,0,0,0,0,0,0,0,0,0,0,0,0,0,1,0,0,1,0,0,1,0,0,0,0,0,0,0,0,0,0,0,0,0,0,0,0,0,0,0,0,0,0,0,0,0,0,0,0,0,0,0,0,0,0,0,0,0,0,0,0,0,0,0,0,0,0,0,0,0,0,0,0,0,0,0,0,0,0,0,0,0,0,0,
IN-AS-01,Amchang Hills,Assam,Kamrup,7400,Non Officially Protected,NA,NA,NA,NA,,1,0,0,0,0,0,0,0,Globally threatened species (A1),1,0,0,0,0,0,0,0,0,0,0,0,0,0,0,1,0,0,0,0,0,0,0,0,0,0,0,0,0,0,0,1,0,0,0,0,0,0,0,0,0,0,0,0,0,0,0,0,0,0,0,0,0,0,0,0,0,0,0,0,0,0,0,0,0,0,0,0,0,0,0,0,0,0,0,0,0,0,0,0,0,0,0,0,0,0,0,0,
IN-AS-02,Barail Range,Assam,Cachar/North Cachar s,80000,Non Officially Protected,NA,NA,25,92.88,,1,1,1,0,0,0,0,0,"Globally threatened species, Restricted range species, Biome-restricted assemblage (A1, A2, A3)",1,1,0,0,0,0,0,0,0,0,0,0,0,0,0,0,0,0,0,0,0,1,0,0,0,0,0,0,0,0,0,0,0,0,0,0,0,0,0,0,0,0,0,0,0,0,0,0,0,0,0,0,0,0,0,0,0,0,0,0,0,0,0,0,0,0,0,0,0,0,0,0,0,0,0,0,0,0,0,0,0,0,0,0,0,0,0,0,"	,	,"
IN-AS-03,Barnodi,Assam,Darrang,2622,Wildlife Sanctuary,NA,NA,NA,NA,,1,0,0,0,0,0,0,0,Globally threatened species (A1),0,1,0,1,0,0,0,0,0,0,0,0,0,0,0,1,0,0,0,0,0,0,0,0,0,0,0,0,0,0,0,0,0,0,0,0,0,0,0,0,0,0,0,0,0,0,0,0,0,0,0,0,0,0,0,0,0,0,0,0,0,0,0,0,0,0,0,0,0,0,0,0,0,0,0,0,0,0,0,0,0,0,0,0,0,0,0,0,
IN-AS-04,Bauwwa Beel,Assam,Hailakandi,70,Non Officially Protected,NA,NA,24.63,92.58,,1,0,0,0,0,0,0,0,Globally threatened species (A1),0,0,0,0,0,0,0,0,1,0,0,0,0,0,0,0,0,0,0,0,0,0,0,0,0,0,0,0,0,0,0,0,0,0,0,0,0,0,0,0,0,0,0,0,0,0,0,0,0,0,0,0,0,0,0,0,0,0,0,0,0,0,0,0,0,0,0,0,0,0,0,0,0,0,0,0,0,0,0,0,0,0,0,0,0,0,0,0,
IN-AS-05,Behali,Assam,Sonitpur,14000,Non Officially Protected,26.8319919,93.3531556,NA,NA,,1,0,0,0,0,0,0,0,Globally threatened species (A1),1,0,0,0,0,0,0,0,0,0,0,0,0,0,0,0,0,0,0,0,1,0,0,0,0,0,0,0,0,0,0,0,0,0,0,0,0,0,0,0,0,0,0,0,0,0,0,0,0,0,0,0,0,0,0,0,0,0,0,0,0,0,0,0,0,0,0,0,0,0,0,0,0,0,0,0,0,0,0,0,0,0,0,0,0,0,0,0,
IN-AS-06,Bherjan - Borajan Padumoni,Assam,Tinsukia,774,Wildlife Sanctuary,NA,NA,NA,NA,,1,0,0,0,0,0,0,0,Globally threatened species (A1),1,0,0,0,0,0,0,0,0,0,0,0,0,0,0,0,0,0,0,0,0,0,0,0,0,0,0,0,0,0,0,0,0,0,0,0,0,0,0,0,0,0,0,0,0,0,0,0,0,0,0,0,0,0,0,0,0,0,0,0,0,0,0,0,0,0,0,0,0,0,0,0,0,0,0,0,0,0,0,0,0,0,0,0,0,0,0,0,"	,	,"
IN-AS-07,Bordoibum - Beelmukh,Assam,Dhemaji-Lakhimpur,1125,Wildlife Sanctuary,NA,NA,NA,NA,,1,0,0,0,0,0,0,0,Globally threatened species (A1),0,0,0,0,0,0,0,0,0,0,0,0,0,0,0,0,0,0,0,0,0,0,0,0,0,0,0,0,0,0,0,0,1,0,0,0,0,0,0,0,0,0,0,0,0,0,0,0,0,0,0,0,0,0,0,0,0,0,0,0,0,0,0,0,0,0,0,0,0,0,0,0,0,0,0,0,0,0,0,0,0,0,0,0,0,0,0,0,
IN-AS-08,Bordoloni - Sampora,Assam,Lakhimpur and Dhemaji,3000,Non Officially Protected,NA,NA,NA,NA,,1,1,0,0,0,0,0,0,"Globally threatened species, Restricted range species (A1, A2)",0,0,0,1,0,0,0,0,0,0,0,0,0,0,0,0,0,0,0,0,0,0,0,0,0,0,0,0,0,0,0,0,0,0,0,0,0,0,0,0,0,0,0,0,0,0,0,0,0,0,0,0,0,0,0,0,0,0,0,0,0,0,0,0,0,0,0,0,0,0,0,0,0,0,0,0,0,0,0,0,0,0,0,0,0,0,0,0,
IN-AS-09,Chakrasila Complex,Assam,Dhubri  /  Kokrajhar,5300,Wildlife Sanctuary,NA,NA,NA,NA,,1,0,0,1,0,1,0,0,"Globally threatened species, Congregations: Site known or thought to hold, on a regular basis, > 1% of a bio-geographic population of a congregatory waterbird species, Congregations: Site known or thought to hold, on a regular basis, > 20,000 water birds or > 10,000 pairs of seabirds of one or more species (A1, A4i, A4iii)",0,1,0,1,0,0,0,0,0,0,0,0,0,0,0,1,0,0,0,0,0,0,0,0,0,0,0,0,0,0,0,0,0,0,0,0,0,0,0,0,0,0,0,0,0,0,0,0,0,0,0,0,0,0,0,0,0,0,0,0,0,0,0,0,0,0,0,0,0,0,0,0,0,0,0,0,0,0,0,0,0,0,0,0,0,0,0,0,"	,	,	,"
IN-AS-10,Chand Dubi Beel,Assam,Kamrup,2000,Non Officially Protected,NA,NA,NA,NA,,1,0,0,0,0,0,0,0,Globally threatened species (A1),0,0,0,0,0,0,0,0,1,0,0,0,0,0,0,1,0,0,0,0,0,0,0,0,0,0,0,0,0,0,0,0,0,0,0,0,0,0,0,0,0,0,0,0,0,0,0,0,0,0,0,0,0,0,0,0,0,0,0,0,0,0,0,0,0,0,0,0,0,0,0,0,0,0,0,0,0,0,0,0,0,0,0,0,0,0,0,0,
IN-AS-11,Deobali Jalah,Assam,Nagaon,1000,Non Officially Protected,NA,NA,NA,NA,,1,0,0,1,0,0,0,0,"Globally threatened species, Congregations: Site known or thought to hold, on a regular basis, > 1% of a bio-geographic population of a congregatory waterbird species (A1, A4i)",0,0,0,1,0,0,0,0,1,0,0,0,0,0,0,0,0,0,0,0,0,0,0,0,0,0,0,0,0,0,0,0,0,0,0,0,0,0,0,0,0,0,0,0,0,0,0,0,0,0,0,0,0,0,0,0,0,0,0,0,0,0,0,0,0,0,0,0,0,0,0,0,0,0,0,0,0,0,0,0,0,0,0,0,0,0,0,0,"	,	,"
IN-AS-12,Dhansiri,Assam,Karbi Anglong,77000,Non Officially Protected,26.0988751,93.8075381,NA,NA,,1,0,0,1,0,0,0,0,"Globally threatened species, Congregations: Site known or thought to hold, on a regular basis, > 1% of a bio-geographic population of a congregatory waterbird species (A1, A4i)",0,0,0,0,0,0,0,0,0,0,0,0,0,0,0,0,0,0,0,0,0,0,0,0,0,0,0,0,0,0,0,0,0,0,0,0,0,0,0,0,0,0,0,0,0,0,0,0,0,0,0,0,0,0,0,0,0,0,0,0,0,0,0,0,0,0,0,0,0,0,0,0,0,0,0,0,0,0,0,0,0,0,0,0,0,0,0,0,
IN-AS-13,Dibru - Saikhowa,Assam,"Tinsukia, Dibrugarh and Dhemaji",80000,National Park,27.6833985,95.38636879,NA,NA,,1,1,0,0,0,0,0,0,"Globally threatened species, Restricted range species (A1, A2)",0,0,0,1,0,0,0,0,0,0,0,0,0,0,0,1,0,0,0,0,0,0,0,0,0,0,0,0,0,0,0,0,0,0,0,0,0,0,0,0,0,0,0,0,0,0,0,0,0,0,0,0,0,0,0,0,0,0,0,0,0,0,0,0,0,0,0,0,0,0,0,0,0,0,0,0,0,0,0,0,0,0,0,0,0,0,0,0,
IN-AS-14,Dipor Beel,Assam,Kamrup,414,Wildlife Sanctuary,NA,NA,NA,NA,,1,0,0,0,0,1,0,0,"Globally threatened species, Congregations: Site known or thought to hold, on a regular basis, > 20,000 water birds or > 10,000 pairs of seabirds of one or more species (A1, A4iii)",0,0,0,0,0,0,0,0,1,0,0,0,0,0,0,0,0,0,0,0,0,0,0,0,0,0,0,0,0,0,0,0,0,0,0,0,0,0,0,0,0,0,0,0,0,0,0,0,0,0,0,0,0,0,0,0,0,0,0,0,0,0,0,0,0,0,0,0,0,0,0,0,0,0,0,0,0,0,0,0,0,0,0,0,0,0,0,0,
IN-AS-16,East and North Karbi Anglong,Assam,Karbi Anglong,11818,Wildlife Sanctuary,NA,NA,NA,NA,,1,0,0,0,0,0,0,0,Globally threatened species (A1),0,1,0,0,0,0,0,0,0,0,0,0,0,0,0,1,0,0,0,0,0,0,0,0,0,0,0,0,0,0,0,0,0,1,0,0,0,0,0,0,0,0,0,0,0,0,0,0,0,0,0,0,0,0,0,0,0,0,0,0,0,0,0,0,0,0,0,0,0,0,0,0,0,0,0,0,0,0,0,0,0,0,0,0,0,0,0,0,"	,	,"
IN-AS-17,Garam Pani,Assam,Karbi Anglong,15000,Wildlife Sanctuary,NA,NA,NA,NA,,1,0,0,0,0,0,0,0,Globally threatened species (A1),0,1,0,0,0,0,0,0,0,0,0,0,0,0,0,0,0,0,0,0,0,0,0,0,0,0,0,0,0,0,0,0,0,0,0,0,0,0,0,0,0,0,0,0,0,0,0,0,0,0,0,0,0,0,0,0,0,0,0,0,0,0,0,0,0,0,0,0,0,0,0,0,0,0,0,0,0,0,0,0,0,0,0,0,0,0,0,0,
IN-AS-18,Gibbon (Hollongapar),Assam,Jorhat,2098,Wildlife Sanctuary,NA,NA,NA,NA,,1,0,0,0,0,0,0,0,Globally threatened species (A1),0,1,0,0,0,0,0,0,0,0,0,0,0,0,0,0,0,0,0,0,0,0,0,0,0,0,0,0,0,0,0,0,0,0,0,0,0,0,0,0,0,0,0,0,0,0,0,0,0,0,0,0,0,0,0,0,0,0,0,0,0,0,0,0,0,0,0,0,0,0,0,0,0,0,0,0,0,0,0,0,0,0,0,0,0,0,0,0,"	,	,	,"
IN-AS-19,Habang,Assam,Karbi Anglong,1000,Non Officially Protected,NA,NA,25.8,92.25,,0,0,0,0,1,0,0,0,"Congregations: Site known or thought to hold, on a regular basis, > 1% of a bio-geographic population of a congregatory seabird or terrestrial species (A4ii)",0,0,0,0,0,0,0,0,0,0,0,0,0,0,0,0,0,0,0,0,0,0,0,1,0,0,0,0,0,0,0,0,0,1,0,0,0,0,0,0,0,0,0,0,0,0,0,0,0,0,0,0,0,0,0,0,0,0,0,0,0,0,0,0,0,0,0,0,0,0,0,0,0,0,0,0,0,0,0,0,0,0,0,0,0,0,0,0,"	,	,"
IN-AS-20,Inner Line and Kathakal,Assam,Cachar and Hailkandi,130000,Non Officially Protected,NA,NA,NA,NA,,1,0,0,0,0,0,0,0,Globally threatened species (A1),1,0,0,0,0,0,0,0,0,0,0,0,0,0,0,0,0,0,0,0,1,0,0,0,0,0,0,0,0,0,0,0,0,0,0,0,0,0,0,0,0,0,0,0,0,0,0,0,0,0,0,0,0,0,0,0,0,0,0,0,0,0,0,0,0,0,0,0,0,0,0,0,0,0,0,0,0,0,0,0,0,0,0,0,0,0,0,0,
IN-AS-21,Jamjing - Senghjans,Assam,Dhemaji,9500,Non Officially Protected,NA,NA,NA,NA,,1,0,0,0,0,0,0,0,Globally threatened species (A1),0,0,0,0,0,0,0,0,0,0,0,0,0,0,0,0,0,0,0,0,0,0,0,0,0,0,0,0,0,0,0,1,0,0,1,1,0,0,0,0,0,0,0,0,0,0,0,0,0,0,0,0,0,0,0,0,0,0,0,0,0,0,0,0,0,0,0,0,0,0,0,0,0,0,0,0,0,0,0,0,0,0,0,0,0,0,0,0,
IN-AS-22,Jatinga,Assam,North Cachar,1000,Non Officially Protected,25.1309773,93.0217299,25.1,92.98,,1,0,0,0,0,0,1,0,"Globally threatened species, Congregations: Site known or thought to exceed thresholds set for migratory species at bottleneck sites (A1, A4iv)",0,0,0,0,0,0,0,0,0,0,0,0,0,0,0,0,0,0,0,0,1,0,0,0,0,0,0,0,0,0,0,0,0,0,0,0,1,1,1,0,0,0,0,0,0,0,0,0,0,0,0,0,0,0,0,0,0,0,0,0,0,0,0,0,0,0,0,0,0,0,0,0,0,0,0,0,0,0,0,0,0,0,0,0,0,0,0,0,
IN-AS-23,Jengdia Beel and Satgaon,Assam,Kamrup,500,Non Officially Protected,NA,NA,26.27,91.77,,1,0,0,0,0,0,0,0,Globally threatened species (A1),0,0,0,0,0,0,0,0,0,0,0,0,0,0,0,0,0,0,0,0,0,0,0,0,0,0,0,0,0,0,0,0,0,0,0,0,0,0,0,1,1,1,0,0,0,0,0,0,0,0,0,0,0,0,0,0,0,0,0,0,0,0,0,0,0,0,0,0,0,0,0,0,0,0,0,0,0,0,0,0,0,0,0,0,0,0,0,0,"	,	,"
IN-AS-24,Jhanjimukh - Kokilamukh,Assam,Jorhat,2500,Non Officially Protected,NA,NA,NA,NA,,1,0,0,1,0,0,0,0,"Globally threatened species, Congregations: Site known or thought to hold, on a regular basis, > 1% of a bio-geographic population of a congregatory waterbird species (A1, A4i)",0,0,0,0,0,0,0,0,0,0,0,0,0,0,0,0,0,0,0,0,0,0,1,0,0,0,0,0,0,0,0,0,0,0,0,0,0,0,0,0,0,0,1,0,0,0,0,0,0,0,0,0,0,0,0,0,0,0,0,0,0,0,0,0,0,0,0,0,0,0,0,0,0,0,0,0,0,0,0,0,0,0,0,0,0,0,0,0,
IN-AS-25,Kaziranga,Assam,Golaghat/Nagaon/Sonitpur,84980,National Park,26.5787,93.2415,NA,NA,,1,1,0,1,1,0,0,0,"Globally threatened species, Restricted range species, Congregations: Site known or thought to hold, on a regular basis, > 1% of a bio-geographic population of a congregatory waterbird species, Congregations: Site known or thought to hold, on a regular basis, > 1% of a bio-geographic population of a congregatory seabird or terrestrial species (A1, A2, A4i, A4ii)",0,1,0,1,0,0,1,0,0,0,0,0,0,0,0,0,0,0,0,0,0,0,0,0,0,0,0,0,0,0,0,0,0,0,0,0,0,0,0,0,0,0,0,0,0,0,0,0,0,0,0,0,0,0,0,0,0,0,0,0,0,0,0,0,0,0,0,0,0,0,0,0,0,0,0,0,0,0,0,0,0,0,0,0,0,0,0,0,"	,	,"
IN-AS-26,Kuarbari Dalani,Assam,Lakhimpur,15,Non Officially Protected,NA,NA,27.23,94.31,,1,0,0,0,0,0,0,0,Globally threatened species (A1),0,0,0,1,0,0,0,0,0,0,0,0,0,0,0,0,0,0,0,0,0,0,0,0,0,0,0,0,0,0,0,0,0,0,0,0,0,0,0,0,0,0,0,0,0,0,0,0,0,0,0,0,0,0,0,0,0,0,0,0,0,0,0,0,0,0,0,0,0,0,0,0,0,0,0,0,0,0,0,0,0,0,0,0,0,0,0,0,
IN-AS-27,Langting - Mupa,Assam,North Cachar s,49300,Non Officially Protected,NA,NA,NA,NA,,1,0,0,0,0,0,0,0,Globally threatened species (A1),0,1,0,0,0,0,0,0,0,0,0,0,0,0,0,1,0,0,0,0,0,0,0,0,0,0,0,0,0,0,0,0,0,0,0,0,0,0,0,0,0,0,0,0,0,0,0,0,0,0,0,0,0,0,0,0,0,0,0,0,0,0,0,0,0,0,0,0,0,0,0,0,0,0,0,0,0,0,0,0,0,0,0,0,0,0,0,0,
IN-AS-28,Laokhowa and Burhachapori,Assam,Sonitpur and Nagaon,11417,Wildlife Sanctuary,NA,NA,NA,NA,,1,1,0,0,0,0,0,0,"Globally threatened species, Restricted range species (A1, A2)",0,0,0,1,0,0,0,0,1,0,0,0,0,0,0,1,0,0,0,1,0,0,0,0,0,0,0,0,0,0,0,0,0,0,0,0,0,0,0,0,0,0,0,1,0,0,0,0,0,0,0,0,0,0,0,0,0,0,0,0,0,0,0,0,0,0,0,0,0,0,0,0,0,0,0,0,0,0,0,0,0,0,0,0,0,0,0,0,"	,	,"
IN-AS-29,Lumding - Marat Longri,Assam,"Nagon, Karbi, Anglong",67400,Wildlife Sanctuary,NA,NA,NA,NA,,1,0,0,0,0,0,0,0,Globally threatened species (A1),0,1,0,0,0,0,0,0,0,0,0,0,0,0,0,1,0,0,0,0,0,0,0,0,0,0,0,0,0,0,0,0,0,0,0,0,0,0,0,0,0,0,0,0,0,0,0,0,0,0,0,0,0,0,0,0,0,0,0,0,0,0,0,0,0,0,0,0,0,0,0,0,0,0,0,0,0,0,0,0,0,0,0,0,0,0,0,0,
IN-AS-30,Majuli,Assam,Jorhat,88000,Non Officially Protected,26.8539118,94.1658939,26.89,94.01,,1,0,0,0,0,1,0,0,"Globally threatened species, Congregations: Site known or thought to hold, on a regular basis, > 20,000 water birds or > 10,000 pairs of seabirds of one or more species (A1, A4iii)",0,0,0,1,0,0,0,0,1,0,0,0,0,0,0,0,1,0,0,1,0,0,1,0,0,0,0,0,0,0,0,0,0,0,0,0,0,0,0,0,0,0,0,0,0,0,0,0,0,0,0,0,0,0,0,0,0,0,0,0,0,0,0,0,0,0,0,0,0,0,0,0,0,0,0,0,0,0,0,0,0,0,0,0,0,0,0,0,
IN-AS-31,Manas,Assam,Barpeta and Bongiagaon,50000,Tiger Reserve,26.7036037,90.95722513,NA,NA,,1,1,0,0,0,0,0,0,"Globally threatened species, Restricted range species (A1, A2)",0,1,0,1,0,0,0,0,0,0,0,0,0,0,0,1,0,0,0,0,0,0,1,0,0,0,0,0,0,0,0,0,0,0,0,0,0,0,0,0,0,0,0,0,0,0,0,0,0,0,0,0,0,0,0,0,0,0,0,0,0,0,0,0,0,0,0,0,0,0,0,0,0,0,0,0,0,0,0,0,0,0,0,0,0,0,0,0,
IN-AS-32,Nameri,Assam,Sonitpur,20000,National Park,26.9490591,92.89011855,NA,NA,,1,1,0,0,0,0,0,0,"Globally threatened species, Restricted range species (A1, A2)",0,1,0,1,0,0,0,0,0,0,0,0,0,0,0,1,0,0,0,0,0,0,1,0,0,0,0,0,0,0,0,0,0,0,0,0,0,0,0,0,0,0,0,0,0,0,0,0,0,0,0,0,0,0,0,0,0,0,0,0,0,0,0,0,0,0,0,0,0,0,0,0,0,0,0,0,0,0,0,0,0,0,0,0,0,0,0,0,
IN-AS-33,Orang,Assam,Darrang And Sonitpur,7881,National Park,26.5731521,92.39569861,NA,NA,,1,0,0,0,1,0,0,0,"Globally threatened species, Congregations: Site known or thought to hold, on a regular basis, > 1% of a bio-geographic population of a congregatory seabird or terrestrial species (A1, A4ii)",0,0,0,0,0,0,0,0,0,0,0,0,0,0,0,1,0,0,0,0,0,0,0,0,0,0,0,0,0,0,0,1,0,0,0,0,0,0,0,0,0,0,0,0,1,0,0,0,0,0,0,0,0,0,0,0,0,0,0,0,0,0,0,0,0,0,0,0,0,0,0,0,0,0,0,0,0,0,0,0,0,0,0,0,0,0,0,0,
IN-AS-34,Pabho Reserve,Assam,Lakhimpur,4900,Non Officially Protected,NA,NA,NA,NA,,1,1,0,0,0,0,0,0,"Globally threatened species, Restricted range species (A1, A2)",0,0,0,0,0,0,0,0,1,0,0,0,0,0,0,0,1,0,0,0,0,0,0,0,0,0,0,0,0,0,0,0,0,0,0,0,0,0,0,0,0,0,0,0,0,0,0,0,0,0,0,0,0,0,0,0,0,0,0,0,0,0,0,0,0,0,0,0,0,0,0,0,0,0,0,0,0,0,0,0,0,0,0,0,0,0,0,0,
IN-AS-35,Pabitora,Assam,Morigaon,3883,Wildlife Sanctuary,26.2370074,92.06190896,NA,NA,,1,1,0,0,0,1,0,0,"Globally threatened species, Restricted range species, Congregations: Site known or thought to hold, on a regular basis, > 20,000 water birds or > 10,000 pairs of seabirds of one or more species (A1, A2, A4iii)",0,0,0,1,0,0,0,0,1,0,0,0,0,0,0,1,0,0,0,0,0,0,0,0,0,0,0,0,0,0,0,0,0,0,0,0,0,0,0,0,0,0,0,0,0,0,0,0,0,0,0,0,0,0,0,0,0,0,0,0,0,0,0,0,0,0,0,0,0,0,0,0,0,0,0,0,0,0,0,0,0,0,0,0,0,0,0,0,"	,	,	,"
IN-AS-36,"Panidihing, Phokolai Beel",Assam,Sibsagar,4000,Wildlife Sanctuary,NA,NA,NA,NA,,1,0,0,0,0,1,0,0,"Globally threatened species, Congregations: Site known or thought to hold, on a regular basis, > 20,000 water birds or > 10,000 pairs of seabirds of one or more species (A1, A4iii)",0,0,0,1,0,0,0,0,1,0,0,0,0,0,0,0,0,0,0,0,0,0,0,0,0,0,0,0,0,0,0,0,0,0,0,0,0,0,0,0,0,0,0,0,0,0,0,0,0,0,0,0,0,0,0,0,0,0,0,0,0,0,0,0,0,0,0,0,0,0,0,0,0,0,0,0,0,0,0,0,0,0,0,0,0,0,0,0,
IN-AS-37,Ripu Chirang,Assam,Kokrajhar,120000,Non Officially Protected,NA,NA,NA,NA,,1,1,0,0,0,0,0,0,"Globally threatened species, Restricted range species (A1, A2)",0,1,0,0,0,0,0,0,0,0,0,0,0,0,0,1,0,0,0,0,0,0,0,0,0,0,0,0,0,0,0,0,0,0,0,0,0,0,0,0,0,0,0,0,0,0,0,0,0,0,0,0,0,0,0,0,0,0,0,0,0,0,0,0,0,0,0,0,0,0,0,0,0,0,0,0,0,0,0,0,0,0,0,0,0,0,0,0,"	,	,"
IN-AS-38,Sibsagar Tanks,Assam,Sibsagar,150,Non Officially Protected,NA,NA,26.98,94.63,,1,0,0,1,0,0,0,0,"Globally threatened species, Congregations: Site known or thought to hold, on a regular basis, > 1% of a bio-geographic population of a congregatory waterbird species (A1, A4i)",0,0,0,0,0,0,0,0,1,0,0,0,0,0,0,0,0,0,0,0,0,0,0,0,0,0,0,0,0,0,0,0,0,0,0,0,0,0,0,0,0,0,0,0,0,1,0,0,0,0,0,0,0,0,0,0,0,0,0,0,0,0,0,0,0,0,0,0,0,0,0,0,0,0,0,0,0,0,0,0,0,0,0,0,0,0,0,0,"	,	,"
IN-AS-39,Son Beel,Assam,Karimganj,1500,Non Officially Protected,NA,NA,24.67,92.45,,1,0,0,0,0,0,0,0,Globally threatened species (A1),0,0,0,0,0,0,0,0,1,0,0,0,0,0,0,0,0,0,0,0,0,0,0,0,0,0,0,0,0,0,0,0,0,0,0,0,0,0,0,0,0,0,0,0,0,0,0,0,0,0,0,0,0,0,0,0,0,0,0,0,0,0,0,0,0,0,0,0,0,0,0,0,0,0,0,0,0,0,0,0,0,0,0,0,0,0,0,0,"	,	,"
IN-AS-40,Sonai - Rupa,Assam,Sonitpur,22000,Wildlife Sanctuary,NA,NA,NA,NA,,1,0,0,0,0,0,0,0,Globally threatened species (A1),0,1,0,1,0,0,0,0,0,0,0,0,0,1,0,1,0,0,0,0,0,0,0,0,0,0,0,0,0,0,0,0,0,0,0,0,0,0,0,0,0,0,0,0,0,0,0,0,0,0,0,0,0,0,0,0,0,0,0,0,0,0,0,0,0,0,0,0,0,0,0,0,0,0,0,0,0,0,0,0,0,0,0,0,0,0,0,0,
IN-AS-41,Subansiri,Assam,"Dhemaji (Subansiri Reserve ), Lakhimpur",18000,Non Officially Protected,27.2195882,94.2544063,27.56,94.29,,1,1,1,0,0,0,0,0,"Globally threatened species, Restricted range species, Biome-restricted assemblage (A1, A2, A3)",0,1,0,0,0,0,0,0,0,0,0,0,0,1,0,0,0,0,0,0,0,0,1,0,0,0,0,0,0,0,0,0,0,0,0,0,0,0,0,0,0,0,0,0,0,0,0,0,0,0,0,0,0,0,0,0,0,0,0,0,0,0,0,0,0,0,0,0,0,0,0,0,0,0,0,0,0,0,0,0,0,0,0,0,0,0,0,0,
IN-AS-42,Tamranga - Dalani - Bhairav Complex,Assam,Bongaigaon,4600,Non Officially Protected,NA,NA,NA,NA,,1,0,0,0,0,1,0,0,"Globally threatened species, Congregations: Site known or thought to hold, on a regular basis, > 20,000 water birds or > 10,000 pairs of seabirds of one or more species (A1, A4iii)",0,0,0,0,0,0,0,0,1,0,0,0,0,0,0,1,0,0,0,0,0,0,0,0,0,0,0,0,0,0,0,0,0,1,0,0,0,0,0,0,0,0,0,0,0,0,0,0,0,0,0,0,0,0,0,0,0,0,0,0,0,0,0,0,0,0,0,0,0,0,0,0,0,0,0,0,0,0,0,0,0,0,0,0,0,0,0,0,
IN-AS-43,Tirap - Patkai (Saliki - Adjacent),Assam,Tinsukia,15450,Non Officially Protected,NA,NA,NA,NA,,1,0,1,0,0,0,0,0,"Globally threatened species, Biome-restricted assemblage (A1, A3)",1,1,0,0,0,0,0,0,0,0,0,0,0,0,0,0,0,0,0,0,0,0,0,0,0,0,0,0,0,0,0,0,0,0,0,0,0,0,0,0,0,0,0,0,0,0,0,0,0,0,0,0,0,0,0,0,0,0,0,0,0,0,0,0,0,0,0,0,0,0,0,0,0,0,0,0,0,0,0,0,0,0,0,0,0,0,0,0,
IN-AS-44,Upper Dihing (East Complex),Assam,Tinsukia,19200,Non Officially Protected,NA,NA,NA,NA,,1,1,0,0,0,0,0,0,"Globally threatened species, Restricted range species (A1, A2)",1,0,0,0,0,0,0,0,0,0,0,0,0,0,0,0,0,0,0,0,0,0,0,0,0,0,0,0,0,0,0,0,0,0,0,0,0,0,0,0,0,0,0,0,0,0,0,0,0,0,0,0,0,0,0,0,0,0,0,0,0,0,0,0,0,0,0,0,0,0,0,0,0,0,0,0,0,0,0,0,0,0,0,0,0,0,0,0,
IN-AS-45,Upper Dihing (West Complex),Assam,Dibrugarh / Tinsukia,46775,Non Officially Protected,NA,NA,NA,NA,,1,1,0,0,0,0,0,0,"Globally threatened species, Restricted range species (A1, A2)",1,0,0,0,0,0,0,0,0,0,0,0,0,0,0,0,0,0,0,0,0,0,0,0,0,0,0,0,0,0,0,0,0,0,0,0,0,0,0,0,0,0,0,0,0,0,0,0,0,0,0,0,0,0,0,0,0,0,0,0,0,0,0,0,0,0,0,0,0,0,0,0,0,0,0,0,0,0,0,0,0,0,0,0,0,0,0,0,
IN-AS-46,Urpad Beel,Assam,Goalpara,1000,Non Officially Protected,NA,NA,NA,NA,,1,0,0,0,0,1,0,0,"Globally threatened species, Congregations: Site known or thought to hold, on a regular basis, > 20,000 water birds or > 10,000 pairs of seabirds of one or more species (A1, A4iii)",0,0,0,0,0,0,0,0,1,0,0,0,0,0,0,0,0,0,0,0,0,0,0,0,0,0,0,0,0,0,0,0,0,0,0,0,0,0,0,0,0,0,1,0,0,0,0,0,0,0,0,0,0,0,0,0,0,0,0,0,0,0,0,0,0,0,0,0,0,0,0,0,0,0,0,0,0,0,0,0,0,0,0,0,0,0,0,0,
IN-BR-01,Chaurs of North Bihar,Bihar,Darbhanga,2200,Non Officially Protected,NA,NA,26.13,86.17,,0,0,0,1,0,1,0,0,"Congregations: Site known or thought to hold, on a regular basis, > 1% of a bio-geographic population of a congregatory waterbird species, Congregations: Site known or thought to hold, on a regular basis, > 20,000 water birds or > 10,000 pairs of seabirds of one or more species (A4i, A4iii)",0,0,0,0,0,0,0,0,1,0,0,0,0,0,0,0,0,0,0,0,0,0,0,0,0,0,0,0,0,0,0,0,0,0,0,0,0,0,0,0,0,0,1,0,0,0,0,0,0,0,0,0,0,0,0,0,0,0,0,0,0,0,0,0,0,0,0,0,0,0,0,0,0,0,0,0,0,0,0,0,0,0,0,0,0,0,0,0,
IN-BR-02,Danapur Cantonment Area,Bihar,Patna,400,Non Officially Protected,NA,NA,25.64,85.04,,0,0,0,1,0,0,0,0,"Congregations: Site known or thought to hold, on a regular basis, > 1% of a bio-geographic population of a congregatory waterbird species (A4i)",0,0,0,0,0,0,0,0,1,0,0,0,0,0,0,0,0,0,0,0,0,0,0,0,0,0,0,0,0,0,0,0,0,0,0,0,0,0,0,0,0,0,0,0,0,0,0,0,0,0,0,0,0,0,0,0,0,0,0,0,0,0,0,0,0,0,0,0,0,0,0,0,0,0,0,0,0,0,0,0,0,0,0,0,0,0,0,0,"	,	,"
IN-BR-03,Gogabil Pakshi Vihar,Bihar,Katihar,200,Non Officially Protected,NA,NA,NA,NA,,1,0,0,0,0,1,0,0,"Globally threatened species, Congregations: Site known or thought to hold, on a regular basis, > 20,000 water birds or > 10,000 pairs of seabirds of one or more species (A1, A4iii)",0,0,0,0,0,0,0,0,1,0,0,0,0,0,0,0,0,0,0,0,0,0,0,0,0,0,0,0,0,0,0,0,0,0,0,0,0,0,0,0,0,0,0,0,0,0,0,0,0,0,0,0,0,0,0,0,0,0,0,0,0,0,0,0,0,0,0,0,0,0,0,0,0,0,0,0,0,0,0,0,0,0,0,0,0,0,0,0,"	,	,"
IN-BR-04,Kanwarjheel,Bihar,Begusarai,6311,Wildlife Sanctuary,NA,NA,NA,NA,,1,0,0,0,0,1,0,0,"Globally threatened species, Congregations: Site known or thought to hold, on a regular basis, > 20,000 water birds or > 10,000 pairs of seabirds of one or more species (A1, A4iii)",0,0,0,0,0,0,0,0,1,0,0,0,0,0,0,0,1,0,0,0,0,0,0,0,0,0,0,0,0,0,0,0,0,0,0,0,0,0,0,0,0,0,1,0,0,0,0,0,0,0,0,0,0,0,0,0,0,0,0,0,0,0,0,0,0,0,0,0,0,0,0,0,0,0,0,0,0,0,0,0,0,0,0,0,0,0,0,0,
IN-BR-05,Kurseala River Course and Diyara,Bihar,Kathiar,Not Defined,Non Officially Protected,NA,NA,NA,NA,,0,0,0,0,0,1,0,0,"Site known or thought to hold, on a regular basis, > 20,000 water birds or > 10,000 pairs of seabirds of one or more species (A4iii)",0,0,0,0,0,0,0,0,1,0,0,0,0,0,0,0,0,0,0,0,0,0,0,0,0,0,0,0,0,0,0,0,0,0,0,0,0,0,0,0,0,0,1,0,0,0,0,0,0,0,0,0,0,0,0,0,0,0,0,0,0,0,0,0,0,0,0,0,0,0,0,0,0,0,0,0,0,0,0,0,0,0,0,0,0,0,0,0,
IN-BR-06,Kusheshwarsthan,Bihar,Bihar,2932,Non Officially Protected,NA,NA,26.17,86.04,,1,0,0,0,0,0,0,1,"Globally threatened species, Data deficient (A1, DD)",0,0,0,0,0,0,0,0,1,0,0,0,0,0,0,0,0,0,0,0,0,0,0,0,0,0,0,0,0,0,0,0,0,0,0,0,0,0,0,0,0,0,0,0,0,0,0,0,0,0,0,0,0,0,0,0,0,0,0,0,0,0,0,0,0,0,0,0,0,0,0,0,0,0,0,0,0,0,0,0,0,0,0,0,0,0,0,0,
IN-BR-07,Mokama Taal (Barah) Wetlands,Bihar,"Patna, Samastipur & Begusarai",1000,Non Officially Protected,NA,NA,25.47,85.7,,1,0,0,1,0,1,0,0,"Globally threatened species, Congregations: Site known or thought to hold, on a regular basis, > 1% of a bio-geographic population of a congregatory waterbird species, Congregations: Site known or thought to hold, on a regular basis, > 20,000 water birds or > 10,000 pairs of seabirds of one or more species (A1, A4i, A4iii)",0,0,0,0,0,0,0,0,1,0,0,0,0,0,0,0,0,0,0,0,0,0,0,0,0,0,0,0,0,0,0,0,0,0,0,0,0,0,0,0,0,0,1,0,0,0,0,0,0,0,0,0,0,0,0,0,0,0,0,0,0,0,0,0,0,0,0,0,0,0,0,0,0,0,0,0,0,0,0,0,0,0,0,0,0,0,0,0,"	,	,	,"
IN-BR-08,Nagi Dam and Nakti Dam,Bihar,Jamui,523,Wildlife Sanctuary,NA,NA,NA,NA,,1,0,0,1,0,1,0,0,"Globally threatened species, Congregations: Site known or thought to hold, on a regular basis, > 1% of a bio-geographic population of a congregatory waterbird species, Congregations: Site known or thought to hold, on a regular basis, > 20,000 water birds or > 10,000 pairs of seabirds of one or more species (A1, A4i, A4iii)",0,0,0,0,0,0,0,0,1,0,0,0,0,0,0,0,0,0,0,0,0,0,0,0,0,0,0,0,0,0,0,0,0,0,0,0,0,0,0,0,0,0,0,0,0,0,0,0,0,0,0,0,0,0,0,0,0,0,0,0,0,0,0,0,0,0,0,0,0,0,0,0,0,0,0,0,0,0,0,0,0,0,0,0,0,0,0,0,
IN-BR-09,Reservoirs of Chota Nagpur,Bihar,"Dhanbad, Hazaribagh",Not Defined,Non Officially Protected,NA,NA,NA,NA,,0,0,0,1,0,1,0,0,"Congregations: Site known or thought to hold, on a regular basis, > 1% of a bio-geographic population of a congregatory waterbird species, Congregations: Site known or thought to hold, on a regular basis, > 20,000 water birds or > 10,000 pairs of seabirds of one or more species (A4i, A4iii)",0,0,0,0,0,0,0,0,1,0,0,0,0,0,0,0,0,0,0,0,0,0,0,0,0,0,0,0,0,0,0,0,0,0,0,0,0,0,0,0,0,0,1,0,0,0,0,0,0,0,0,0,0,0,0,0,0,0,0,0,0,0,0,0,0,0,0,0,0,0,0,0,0,0,0,0,0,0,0,0,0,0,0,0,0,0,0,0,"	,	,	,"
IN-BR-10,Valmiki,Bihar,West Champaran,88078,Tiger Reserve,27.4060808,84.00017065,NA,NA,,1,0,1,0,0,0,0,0,"Globally threatened species, Biome-restricted assemblage (A1, A3)",0,0,0,0,0,0,1,0,1,0,0,0,0,0,0,0,0,0,0,1,0,0,0,1,0,0,0,0,0,0,0,0,0,0,0,0,0,0,0,0,0,0,0,0,0,0,1,0,0,0,0,0,0,0,0,0,0,0,0,0,0,0,0,0,0,0,0,0,0,0,0,0,0,0,0,0,0,0,0,0,0,0,0,0,0,0,0,0,"	,	,	,"
IN-BR-11,Vikram Shila Gangetic Dolphin,Bihar,Bhagalpur,5000,Wildlife Sanctuary,NA,NA,NA,NA,,1,0,0,0,0,0,0,0,Globally threatened species (A1),0,0,0,0,0,0,0,0,0,0,0,0,0,0,0,0,0,0,0,0,0,0,1,0,0,0,0,0,0,0,0,0,0,0,0,0,0,0,0,0,0,0,0,0,0,0,0,0,0,0,0,0,0,0,0,0,0,0,0,0,0,0,0,0,0,0,0,0,0,0,0,0,0,0,0,0,0,0,0,0,0,0,0,0,0,0,0,0,"	,	,	,	,"
IN-CT-01,Barnawapara,Chattisgarh,Raipur,24466,Wildlife Sanctuary,NA,NA,NA,NA,,1,0,1,0,0,0,0,0,"Globally threatened species, Biome-restricted assemblage (A1, A3)",0,0,0,0,0,0,1,0,0,0,0,0,0,0,0,0,0,0,0,0,0,0,0,0,0,0,0,0,0,0,0,0,0,0,0,0,0,0,0,0,0,0,0,0,0,0,0,0,0,0,0,0,0,0,0,0,0,0,0,0,0,0,0,0,0,0,0,0,0,0,0,0,0,0,0,0,0,0,0,0,0,0,0,0,0,0,0,0,
IN-CT-02,Gomarda,Chattisgarh,Raipur,27791,Wildlife Sanctuary,NA,NA,NA,NA,,1,0,1,0,0,0,0,0,"Globally threatened species, Biome-restricted assemblage (A1, A3)",0,0,0,0,0,0,1,0,0,0,0,0,0,0,0,0,0,0,0,0,0,0,0,0,0,0,0,0,0,0,0,0,0,0,0,0,0,0,0,0,0,0,0,0,0,0,0,0,0,0,0,0,0,0,0,0,0,0,0,0,0,0,0,0,0,0,0,0,0,0,0,0,0,0,0,0,0,0,0,0,0,0,0,0,0,0,0,0,"	,	,	,"
IN-CT-03,Indravati,Chattisgarh,"Dantewada, Bastar",125837,Tiger Reserve,19.1867082,81.4487961,NA,NA,,1,0,1,0,0,0,0,0,"Globally threatened species, Biome-restricted assemblage (A1, A3)",0,0,0,0,0,0,1,0,0,0,0,0,0,0,0,0,0,0,0,0,0,0,0,0,0,0,0,0,0,0,0,0,0,0,0,0,0,0,0,0,0,0,0,0,0,0,0,0,0,0,0,0,0,0,0,0,0,0,0,0,0,0,0,0,0,0,0,0,0,0,0,0,0,0,0,0,0,0,0,0,0,0,0,0,0,0,0,0,
IN-CT-04,Udanti and Sitanadi,Chattisgarh,"Raipur, Dhamtari",80096,Wildlife Sanctuary,NA,NA,NA,NA,,1,0,1,0,0,0,0,0,"Globally threatened species, Biome-restricted assemblage (A1, A3)",0,0,0,0,0,0,1,0,0,0,0,0,0,0,0,0,0,0,0,0,0,0,0,0,0,0,0,0,0,0,0,0,0,0,0,0,0,0,0,0,0,0,0,0,0,0,0,0,0,0,0,0,0,0,0,0,0,0,0,0,0,0,0,0,0,0,0,0,0,0,0,0,0,0,0,0,0,0,0,0,0,0,0,0,0,0,0,0,"	,	,	,	,"
IN-DL-01,Okhla,Delhi,Gautam Buddh Nagar,400,Wildlife Sanctuary,28.5636616,77.2890546,NA,NA,,1,0,0,0,0,1,0,0,"Globally threatened species, Congregations: Site known or thought to hold, on a regular basis, > 20,000 water birds or > 10,000 pairs of seabirds of one or more species (A1, A4iii)",0,0,0,0,0,0,0,0,1,0,0,0,0,0,0,0,0,0,0,0,0,0,0,0,0,0,0,0,0,0,0,0,0,0,0,0,0,0,0,0,0,0,0,0,0,0,0,0,0,0,0,0,0,0,0,0,0,0,0,0,0,0,0,0,0,0,0,0,0,0,0,0,0,0,0,0,0,0,0,0,0,0,0,0,0,0,0,0,"	,	,	,"
IN-GA-01,Bhagwan Mahavir,Goa,South Goa,14852,Wildlife Sanctuary,NA,NA,NA,NA,,1,1,1,0,0,0,0,0,"Globally threatened species, Restricted range species, Biome-restricted assemblage (A1, A2, A3)",1,1,0,0,0,0,0,0,0,0,0,0,0,0,0,1,0,0,0,0,0,0,0,0,0,0,0,0,0,0,0,0,0,0,0,0,0,0,0,0,0,0,0,0,0,0,0,0,0,0,0,0,0,0,0,0,0,0,0,0,0,0,0,0,0,0,0,0,0,0,0,0,0,0,0,0,0,0,0,0,0,0,0,0,0,0,0,0,"	,	,"
IN-GA-02,Carambolim,Goa,Ilhas taluka,72,Non Officially Protected,15.4869618,73.9324793,NA,NA,,1,0,0,1,0,1,0,0,"Globally threatened species, Congregations: Site known or thought to hold, on a regular basis, > 1% of a bio-geographic population of a congregatory waterbird species, Congregations: Site known or thought to hold, on a regular basis, > 20,000 water birds or > 10,000 pairs of seabirds of one or more species (A1, A4i, A4iii)",0,0,0,0,0,0,0,0,1,0,0,0,0,0,0,0,0,0,0,0,0,0,0,0,0,0,0,0,0,0,0,0,0,0,0,0,0,0,0,0,0,0,0,0,0,0,0,0,0,0,0,0,0,0,0,0,0,0,0,0,0,0,0,0,0,0,0,0,0,0,0,0,0,0,0,0,0,0,0,0,0,0,0,0,0,0,0,0,"	,	,"
IN-GA-03,Cotigao,Goa,South Goa,8565,Wildlife Sanctuary,14.9846812,74.1085942,NA,NA,,1,1,1,0,0,0,0,0,"Globally threatened species, Restricted range species, Biome-restricted assemblage (A1, A2, A3)",1,0,0,0,0,0,0,0,0,0,0,0,0,0,0,0,0,0,0,0,0,0,0,0,0,0,0,0,0,0,0,0,0,0,0,0,0,0,0,0,0,0,0,0,0,0,0,0,0,0,0,0,0,0,0,0,0,0,0,0,0,0,0,0,0,0,0,0,0,0,0,0,0,0,0,0,0,0,0,0,0,0,0,0,0,0,0,0,"	,	,"
IN-GA-04,Madei,Goa,North Goa,158000,Wildlife Sanctuary,NA,NA,NA,NA,,1,1,1,0,0,0,0,0,"Globally threatened species, Restricted range species, Biome-restricted assemblage (A1, A2, A3)",0,0,1,0,0,0,0,0,0,0,0,0,0,0,0,0,0,0,0,0,0,0,1,0,0,0,0,0,0,0,0,0,0,0,0,0,0,0,0,0,0,0,0,0,0,0,0,0,0,0,0,0,0,0,0,0,0,0,0,0,0,0,0,0,0,0,0,0,0,0,0,0,0,0,0,0,0,0,0,0,0,0,0,0,0,0,0,0,"	,	,	,	,	,"
IN-GJ-01,Banni Grassland and Chhari Dhand,Gujarat,Kutch,384700,Non Officially Protected,NA,NA,23.7,69.4,,1,0,0,1,0,1,0,0,"Globally threatened species, Congregations: Site known or thought to hold, on a regular basis, > 1% of a bio-geographic population of a congregatory waterbird species, Congregations: Site known or thought to hold, on a regular basis, > 20,000 water birds or > 10,000 pairs of seabirds of one or more species (A1, A4i, A4iii)",0,0,0,1,0,0,0,1,1,0,0,0,0,0,0,0,0,0,0,0,0,0,0,0,0,0,0,0,0,0,0,0,0,0,0,0,0,0,0,0,0,0,0,0,0,0,0,0,0,0,0,0,0,0,0,0,0,0,0,0,0,0,0,0,0,0,0,0,0,0,0,0,0,0,0,0,0,0,0,0,0,0,0,0,0,0,0,0,
IN-GJ-02,Bhal Area,Gujarat,Bhavnagar,259000,Non Officially Protected,NA,NA,22.33,72,,1,0,0,0,0,0,0,0,Globally threatened species (A1),0,0,0,1,0,0,0,0,0,0,0,0,0,0,0,0,0,0,0,0,0,0,0,0,0,0,0,0,0,0,0,0,0,0,0,0,0,0,0,0,0,0,0,0,0,1,0,0,0,0,0,0,0,0,0,0,0,0,0,0,0,0,0,0,0,0,0,0,0,0,0,0,0,0,0,0,0,0,0,0,0,0,0,0,0,0,0,0,
IN-GJ-03,Charakla Salt Pans,Gujarat,Jamnagar,Not Defined,Non Officially Protected,NA,NA,NA,NA,,0,0,0,1,0,1,0,0,"Congregations: Site known or thought to hold, on a regular basis, > 1% of a bio-geographic population of a congregatory waterbird species, Congregations: Site known or thought to hold, on a regular basis, > 20,000 water birds or > 10,000 pairs of seabirds of one or more species (A4i, A4iii)",0,0,0,0,1,0,0,0,0,0,0,0,0,0,0,0,0,0,0,0,0,0,0,0,0,0,0,0,0,0,0,0,0,0,0,0,0,0,0,0,0,0,0,0,0,0,0,1,1,0,0,0,0,0,0,0,0,0,0,0,0,0,0,0,0,0,0,0,0,0,0,0,0,0,0,0,0,0,0,0,0,0,0,0,0,0,0,0,"	,	,"
IN-GJ-04,Flamingo City,Gujarat,Kutch,750722,Wildlife Sanctuary,NA,NA,24,69.87,,1,0,0,0,0,1,0,0,"Globally threatened species, Congregations: Site known or thought to hold, on a regular basis, > 20,000 water birds or > 10,000 pairs of seabirds of one or more species (A1, A4iii)",0,0,1,0,0,0,0,0,0,0,0,0,0,0,0,0,0,0,0,0,0,0,0,0,0,0,0,0,0,0,0,0,0,0,0,0,0,0,0,0,0,0,0,0,0,0,0,0,0,0,0,0,0,0,0,0,0,0,0,0,0,0,0,0,0,0,0,0,0,0,0,0,0,0,0,0,0,0,0,0,0,0,0,0,0,0,0,0,"	,	,	,"
IN-GJ-05,Gir,Gujarat,"Junagadh (NP), Junagadh & Amreli (WLS)",141213,National Park,21.1685616,70.5971896,NA,NA,,1,0,0,0,0,0,0,0,Globally threatened species (A1),0,0,0,1,0,0,1,1,0,0,0,0,0,0,0,0,0,0,0,0,0,0,0,0,0,0,0,0,0,0,0,0,0,0,0,0,0,0,0,0,0,0,0,0,0,0,0,0,0,0,0,0,0,0,0,0,0,0,0,0,0,0,0,0,0,0,0,0,0,0,0,0,0,0,0,0,0,0,0,0,0,0,0,0,0,0,0,0,
IN-GJ-06,Kaj Wetlands,Gujarat,Junagadh,Not Defined,Non Officially Protected,NA,NA,NA,NA,,1,0,0,1,0,0,0,0,"Globally threatened species, Congregations: Site known or thought to hold, on a regular basis, > 1% of a bio-geographic population of a congregatory waterbird species (A1, A4i)",0,0,0,0,0,0,0,0,1,0,0,0,0,0,0,0,0,0,0,0,0,0,0,0,0,0,0,0,0,0,0,0,0,0,0,0,0,0,0,0,0,0,0,0,0,0,0,0,0,0,0,0,0,0,0,0,0,0,0,0,0,0,0,0,0,0,0,0,0,0,0,0,0,0,0,0,0,0,0,0,0,0,0,0,0,0,0,0,
IN-GJ-07,Khijadia,Gujarat,Jamnagar,1650,Wildlife Sanctuary,NA,NA,NA,NA,,1,0,0,1,0,1,0,0,"Globally threatened species, Congregations: Site known or thought to hold, on a regular basis, > 1% of a bio-geographic population of a congregatory waterbird species, Congregations: Site known or thought to hold, on a regular basis, > 20,000 water birds or > 10,000 pairs of seabirds of one or more species (A1, A4i, A4iii)",0,0,1,0,0,0,0,0,1,0,0,0,0,0,0,0,0,0,0,0,0,0,0,0,0,0,0,0,0,0,0,0,0,0,0,0,0,0,0,0,0,0,0,0,0,0,0,0,0,0,0,0,0,0,0,0,0,0,0,0,0,0,0,0,0,0,0,0,0,0,0,0,0,0,0,0,0,0,0,0,0,0,0,0,0,0,0,0,
IN-GJ-08,Marine,Gujarat,Jamanagar,45792,National Park,22.55541585,69.94286736,NA,NA,,1,0,0,1,0,1,0,0,"Globally threatened species, Congregations: Site known or thought to hold, on a regular basis, > 1% of a bio-geographic population of a congregatory waterbird species, Congregations: Site known or thought to hold, on a regular basis, > 20,000 water birds or > 10,000 pairs of seabirds of one or more species (A1, A4i, A4iii)",0,0,1,0,0,0,0,0,0,0,0,0,0,0,0,0,0,0,0,0,0,0,1,0,0,0,0,0,0,0,0,0,0,0,0,0,0,0,0,0,0,0,0,0,0,0,0,0,0,1,0,0,0,0,0,0,0,0,0,0,0,0,0,0,0,0,0,0,0,0,0,0,0,0,0,0,0,0,0,0,0,0,0,0,0,0,0,0,"	,	,"
IN-GJ-09,Nal Sarover,Gujarat,"Ahmadabad, Surendranagar",12082,Wildlife Sanctuary,NA,NA,NA,NA,,1,0,0,1,0,1,0,0,"Globally threatened species, Congregations: Site known or thought to hold, on a regular basis, > 1% of a bio-geographic population of a congregatory waterbird species, Congregations: Site known or thought to hold, on a regular basis, > 20,000 water birds or > 10,000 pairs of seabirds of one or more species (A1, A4i, A4iii)",0,0,0,0,0,0,0,0,1,0,0,0,0,0,0,0,0,0,0,0,0,0,0,0,0,0,0,0,0,0,0,0,0,0,0,0,0,0,0,0,0,0,1,0,0,0,0,0,0,0,0,0,0,0,0,0,0,0,0,0,0,0,0,0,0,0,0,0,0,0,0,0,0,0,0,0,0,0,0,0,0,0,0,0,0,0,0,0,"	,	,"
IN-GJ-10,Naliya,Gujarat,Kutch,50000,Wildlife Sanctuary,23.2605569,68.8270602,NA,NA,,1,0,0,0,0,0,0,0,Globally threatened species (A1),0,0,0,1,0,0,0,0,0,0,0,0,0,0,0,0,0,0,0,0,0,0,0,0,0,0,0,0,0,0,0,0,0,0,0,0,0,0,0,0,0,0,0,0,0,0,0,0,0,0,0,0,0,0,0,0,0,0,0,0,0,0,0,0,0,0,0,0,0,0,0,0,0,0,0,0,0,0,0,0,0,0,0,0,0,0,0,0,"	,	,	,	,"
IN-GJ-11,Rampura Grassland,Gujarat,Dahod,2000,Non Officially Protected,NA,NA,22.88,74.32,,1,0,0,0,0,0,0,0,Globally threatened species (A1),0,0,0,0,0,0,0,0,0,0,0,0,0,0,0,0,0,0,0,0,0,0,0,1,0,0,0,0,0,0,0,0,0,0,0,0,0,0,0,0,0,0,0,0,0,0,0,0,0,0,0,0,0,0,0,0,0,0,0,0,0,0,0,0,0,0,0,0,0,0,0,0,0,0,0,0,0,0,0,0,0,0,0,0,0,0,0,0,"	,	,"
IN-GJ-12,Salt Pans of Bhavnagar,Gujarat,Bhavnagar,357540,Non Officially Protected,NA,NA,NA,NA,,1,0,0,0,0,1,0,0,"Globally threatened species, Congregations: Site known or thought to hold, on a regular basis, > 20,000 water birds or > 10,000 pairs of seabirds of one or more species (A1, A4iii)",0,0,1,0,0,0,0,0,0,0,0,0,0,0,0,0,0,0,0,0,0,0,0,0,0,0,0,0,0,0,0,0,0,0,0,0,0,0,0,0,0,0,0,0,0,0,0,0,0,0,0,0,0,0,0,0,0,0,0,0,0,0,0,0,0,0,0,0,0,0,0,0,0,0,0,0,0,0,0,0,0,0,0,0,0,0,0,0,"	,	,"
IN-GJ-13,Thol Lake,Gujarat,Mahesana,700,Wildlife Sanctuary,23.1317208,72.3806857,NA,NA,,1,0,0,1,0,1,0,0,"Globally threatened species, Congregations: Site known or thought to hold, on a regular basis, > 1% of a bio-geographic population of a congregatory waterbird species, Congregations: Site known or thought to hold, on a regular basis, > 20,000 water birds or > 10,000 pairs of seabirds of one or more species (A1, A4i, A4iii)",0,0,0,0,0,0,0,0,1,0,0,0,0,0,0,0,0,0,0,0,0,0,0,0,0,0,0,0,0,0,0,0,0,0,0,0,0,0,0,0,0,0,0,0,0,0,0,0,0,0,0,0,0,0,0,0,0,0,0,0,0,0,0,0,0,0,0,0,0,0,0,0,0,0,0,0,0,0,0,0,0,0,0,0,0,0,0,0,"	,	,"
IN-GJ-14,Velavadar Blackbuck,Gujarat,Bhavnagar,3408,National Park,NA,NA,NA,NA,,1,0,0,0,1,0,0,0,"Globally threatened species, Congregations: Site known or thought to hold, on a regular basis, ? 1% of a bio-geographic population of a congregatory seabird or terrestrial species (A1, A4ii)",0,0,1,0,0,0,0,0,0,0,0,0,0,0,0,0,0,0,0,0,0,0,0,1,0,0,0,0,0,0,0,0,0,0,0,0,0,0,0,0,0,0,0,0,0,0,0,0,0,0,0,0,0,0,0,0,0,0,0,0,0,0,0,0,0,0,0,0,0,0,0,0,0,0,0,0,0,0,0,0,0,0,0,0,0,0,0,0,"	,	,	,"
IN-GJ-15,Wetlends of Kheda District,Gujarat,Kheda,Not Defined,Non Officially Protected,NA,NA,NA,NA,,1,0,0,0,0,0,0,0,Globally threatened species (A1),0,0,1,0,0,0,0,0,0,0,0,0,0,0,0,0,0,0,0,0,0,0,0,0,0,0,0,0,0,0,0,0,0,0,0,0,0,0,0,0,0,0,0,0,0,0,0,0,0,0,0,0,0,0,0,0,0,0,0,0,0,0,0,0,0,0,0,0,0,0,0,0,0,0,0,0,0,0,0,0,0,0,0,0,0,0,0,0,"	,	,"
IN-GJ-16,Wild Ass and Nanda Island,Gujarat,"Katch, Rajkot, Mehsana, Banaskantha & Surendr",495371,Wildlife Sanctuary,NA,NA,NA,NA,,1,0,1,1,1,0,0,0,"Globally threatened species, Biome-restricted assemblage, Congregations: Site known or thought to hold, on a regular basis, > 1% of a bio-geographic population of a congregatory waterbird species, Congregations: Site known or thought to hold, on a regular basis, > 1% of a bio-geographic population of a congregatory seabird or terrestrial species (A1, A3, A4i, A4ii)",0,0,1,0,0,0,0,0,0,0,0,0,0,0,0,0,0,0,0,0,0,0,0,0,0,0,0,0,0,0,0,0,0,0,0,0,0,0,0,0,0,0,0,0,0,0,0,0,0,0,1,0,0,0,0,0,0,0,0,0,0,0,0,0,0,0,0,0,0,0,0,0,0,0,0,0,0,0,0,0,0,0,0,0,0,0,0,0,"	,	,"
IN-GJ-17,Bhaskarpara,Gujarat,Surendranagar,200,Non Officially Protected,NA,NA,NA,NA,,1,0,0,0,0,1,0,0,"Globally threatened species, Congregations: Site known or thought to hold, on a regular basis, > 20,000 water birds or > 10,000 pairs of seabirds of one or more species (A1, A4iii)",0,0,0,0,0,0,0,0,0,0,0,0,0,0,0,0,0,0,0,0,0,0,0,0,0,0,0,0,0,0,0,0,0,0,0,0,0,0,0,0,0,0,0,0,0,0,0,0,0,0,0,0,0,0,0,0,0,0,0,0,0,0,0,0,0,0,0,0,0,0,0,0,0,0,0,0,0,0,0,0,0,0,0,0,0,0,0,0,
IN-HR-01,Basai Wetlands,Haryana,Gurgaon,100,Non Officially Protected,NA,NA,28.48,76.98,,1,0,0,1,0,1,0,0,"Globally threatened species, Congregations: Site known or thought to hold, on a regular basis, > 1% of a bio-geographic population of a congregatory waterbird species, Congregations: Site known or thought to hold, on a regular basis, > 20,000 water birds or > 10,000 pairs of seabirds of one or more species (A1, A4i, A4iii)",0,0,0,0,0,0,0,0,1,0,0,0,0,0,0,0,0,0,0,0,0,0,0,0,0,0,0,0,0,0,0,0,0,0,0,0,0,0,0,0,0,0,0,0,0,0,0,0,0,0,0,0,0,0,0,0,0,0,0,0,0,0,0,0,0,0,0,0,0,0,0,0,0,0,0,0,0,0,0,0,0,0,0,0,0,0,0,0,
IN-HR-02,Bhindawas,Haryana,Rohtak,412,Wildlife Sanctuary,NA,NA,NA,NA,,1,0,0,1,0,1,0,0,"Globally threatened species, Congregations: Site known or thought to hold, on a regular basis, > 1% of a bio-geographic population of a congregatory waterbird species, Congregations: Site known or thought to hold, on a regular basis, > 20,000 water birds or > 10,000 pairs of seabirds of one or more species (A1, A4i, A4iii)",0,0,0,0,0,0,0,0,1,0,0,0,0,0,0,0,0,0,0,0,0,0,0,0,0,0,0,0,0,0,0,0,0,0,0,0,0,0,0,0,0,0,0,0,0,0,0,0,0,0,0,0,0,0,0,0,0,0,0,0,0,0,0,0,0,0,0,0,0,0,0,0,0,0,0,0,0,0,0,0,0,0,0,0,0,0,0,0,"	,	,"
IN-HR-03,Kalesar,Haryana,Kurukshetra,10088,Wildlife Sanctuary,NA,NA,NA,NA,,1,0,1,0,0,0,0,0,"Globally threatened species, Biome-restricted assemblage (A1, A3)",0,0,0,0,0,0,1,0,0,0,0,0,0,0,0,0,0,0,0,0,0,0,0,0,0,0,0,0,0,0,0,0,0,0,0,0,0,0,0,0,0,0,0,0,0,0,0,0,0,0,0,0,0,0,0,0,0,0,0,0,0,0,0,0,0,0,0,0,0,0,0,0,0,0,0,0,0,0,0,0,0,0,0,0,0,0,0,0,"	,	,"
IN-HR-04,Sultanpur,Haryana,Gurgaon,143,National Park,28.4617054,76.8700839,NA,NA,,1,0,0,1,0,1,0,0,"Globally threatened species, Congregations: Site known or thought to hold, on a regular basis, > 1% of a bio-geographic population of a congregatory waterbird species, Congregations: Site known or thought to hold, on a regular basis, > 20,000 water birds or > 10,000 pairs of seabirds of one or more species (A1, A4i, A4iii)",0,0,1,0,0,0,0,0,0,0,0,0,0,0,0,0,0,0,0,0,0,0,0,1,0,0,0,0,0,0,0,0,0,0,0,0,0,0,0,0,0,0,0,0,0,0,0,0,0,0,0,0,0,0,0,0,0,0,0,0,0,0,0,0,0,0,0,0,0,0,0,0,0,0,0,0,0,0,0,0,0,0,0,0,0,0,0,0,
IN-HR-05,Wetlands of Yamuna,Haryana,Yamuna nagar,20000,Non Officially Protected,NA,NA,NA,NA,,0,0,0,0,0,1,0,0,"Congregations: Site known or thought to hold, on a regular basis, > 20,000 water birds or > 10,000 pairs of seabirds of one or more species (A4iii)",0,0,0,0,0,0,0,0,1,0,0,0,0,0,0,0,0,0,0,0,0,0,0,0,0,0,0,0,0,0,0,0,0,0,0,0,0,0,0,0,0,0,0,0,0,0,0,0,0,0,0,0,0,0,0,0,0,0,0,0,0,0,0,0,0,0,0,0,0,0,0,0,0,0,0,0,0,0,0,0,0,0,0,0,0,0,0,0,"	,	,	,"
IN-HP-01,Bandli,Himachal Pradesh,Mandi,4132,Wildlife Sanctuary,NA,NA,NA,NA,,1,1,0,0,0,0,0,0,"Globally threatened species, Restricted range species (A1, A2)",0,0,0,0,0,0,0,0,0,0,0,0,0,0,0,0,0,1,0,0,0,0,0,0,0,0,1,0,0,0,0,0,0,0,0,0,0,0,0,0,0,0,0,0,0,0,0,0,0,0,0,0,0,0,0,0,0,0,0,0,0,0,0,0,0,0,0,0,0,0,0,0,0,0,0,0,0,0,0,0,0,0,0,0,0,0,0,0,"	,	,"
IN-HP-02,Chail,Himachal Pradesh,Solan and Shimla,10854,Wildlife Sanctuary,30.968919,77.1978313,NA,NA,,1,1,0,0,0,0,0,0,"Globally threatened species, Restricted range species (A1, A2)",0,0,0,0,0,0,0,0,0,0,0,0,0,0,0,0,0,0,0,0,0,1,0,1,0,0,1,0,0,0,0,0,0,0,0,0,0,0,0,0,0,0,0,0,0,0,0,0,0,0,0,0,0,0,0,0,0,0,0,0,0,0,0,0,0,0,0,0,0,0,0,0,0,0,0,0,0,0,0,0,0,0,0,0,0,0,0,0,
IN-HP-03,Churdhar,Himachal Pradesh,Sirmaur,5615,Wildlife Sanctuary,NA,NA,NA,NA,,0,0,1,0,0,0,0,0,Biome-restricted assemblage (A3),0,0,0,0,0,0,0,0,0,0,0,0,0,0,0,0,0,0,0,0,0,0,0,0,1,0,0,0,0,0,0,0,0,0,0,0,0,0,0,0,0,0,0,0,0,0,0,0,0,0,0,1,0,0,0,0,0,0,0,0,0,0,0,0,0,0,0,0,0,0,0,0,0,0,0,0,0,0,0,0,0,0,0,0,0,0,0,0,"	,	,"
IN-HP-04,Daranghati,Himachal Pradesh,Shimla,16700,Wildlife Sanctuary,NA,NA,NA,NA,,1,1,0,0,0,0,0,0,"Globally threatened species, Restricted range species (A1, A2)",0,0,0,0,0,0,0,0,0,0,0,0,0,0,0,0,0,0,0,0,0,1,0,0,0,0,1,0,0,0,0,0,0,0,0,0,0,0,0,0,0,0,0,0,0,0,0,0,0,0,0,1,1,0,0,0,0,0,0,0,0,0,0,0,0,0,0,0,0,0,0,0,0,0,0,0,0,0,0,0,0,0,0,0,0,0,0,0,
IN-HP-05,Dhauladhar,Himachal Pradesh,Kangra,94398,Wildlife Sanctuary,32.2456478,76.461281,NA,NA,,1,1,0,0,0,0,0,0,"Globally threatened species, Restricted range species (A1, A2)",0,0,0,0,0,0,0,0,0,0,0,0,0,0,0,0,0,0,0,0,0,0,0,0,0,0,0,0,0,0,0,0,0,0,0,0,0,0,0,0,0,0,0,0,0,0,0,0,0,0,0,1,1,1,0,0,0,0,0,0,0,0,0,0,0,0,0,0,0,0,0,0,0,0,0,0,0,0,0,0,0,0,0,0,0,0,0,0,"	,	,"
IN-HP-06,Gamgul Siahbehi,Himachal Pradesh,Chamba,10885,Wildlife Sanctuary,NA,NA,NA,NA,,1,1,0,0,0,0,0,0,"Globally threatened species, Restricted range species (A1, A2)",0,0,0,0,0,0,0,0,0,0,0,0,0,0,0,0,0,0,0,0,0,1,0,1,1,0,0,0,0,0,0,0,0,0,0,0,0,0,0,0,0,0,0,0,0,0,0,0,0,0,0,0,0,0,0,0,0,0,0,0,0,0,0,0,0,0,0,0,0,0,0,0,0,0,0,0,0,0,0,0,0,0,0,0,0,0,0,0,"	,	,	,"
IN-UT-06,"Govind and, Sandra, Kotinad",Uttarakhand,Uttarkashi,95308,National Park,NA,NA,NA,NA,,1,1,0,0,0,0,0,0,"Globally threatened species, Restricted range species (A1, A2)",0,0,0,0,0,0,0,0,0,0,0,0,0,0,0,0,0,0,0,0,0,0,0,0,1,0,0,0,0,0,0,0,0,0,0,0,0,0,0,0,0,0,0,0,0,0,0,0,0,0,0,1,0,0,1,0,0,0,0,0,0,0,0,0,0,0,0,0,0,0,0,0,0,0,0,0,0,0,0,0,0,0,0,0,0,0,0,0,
IN-HP-08,Great Himalayan,Himachal Pradesh,Kullu,75400,National Park,31.6679645,77.4731826,NA,NA,,1,1,0,0,0,0,0,0,"Globally threatened species, Restricted range species (A1, A2)",0,0,0,0,0,0,0,0,0,0,0,0,0,0,0,0,0,0,1,0,0,1,0,0,0,0,0,0,0,0,0,0,1,0,0,0,0,0,0,0,0,0,0,0,0,0,0,0,0,0,0,1,0,0,0,0,0,0,0,0,0,0,0,0,0,0,0,0,0,0,0,0,0,0,0,0,0,0,0,0,0,0,0,0,0,0,0,0,
IN-HP-09,Kais,Himachal Pradesh,Kullu,1419,Wildlife Sanctuary,32.0196598,77.1358628,NA,NA,,1,1,0,0,0,0,0,0,"Globally threatened species, Restricted range species (A1, A2)",0,0,0,0,0,0,0,0,0,0,0,0,0,0,0,0,0,0,0,0,0,0,0,1,1,0,0,0,0,0,0,0,0,0,0,0,0,0,0,0,0,0,0,0,0,0,0,0,0,0,0,1,0,0,0,0,0,0,0,0,0,0,0,0,0,0,0,0,0,0,0,0,0,0,0,0,0,0,0,0,0,0,0,0,0,0,0,0,"	,	,	,"
IN-HP-10,Kalatop Khajjiar,Himachal Pradesh,Chamba,6100,Wildlife Sanctuary,NA,NA,NA,NA,,1,1,0,0,0,0,0,0,"Globally threatened species, Restricted range species (A1, A2)",0,0,0,0,0,0,0,0,0,0,0,0,0,0,0,0,0,0,0,0,0,1,0,0,0,0,1,0,0,0,0,0,1,0,0,0,0,0,0,0,0,0,0,0,0,0,0,0,0,0,0,1,0,0,0,0,0,0,0,0,0,0,0,0,0,0,0,0,0,0,0,0,0,0,0,0,0,0,0,0,0,0,0,0,0,0,0,0,
IN-HP-11,Kanawar,Himachal Pradesh,Kullu,5400,Wildlife Sanctuary,NA,NA,NA,NA,,1,1,0,0,0,0,0,0,"Globally threatened species, Restricted range species (A1, A2)",0,0,0,0,0,0,0,0,0,0,0,0,0,0,0,0,0,0,0,0,0,1,0,0,0,0,0,0,1,0,0,0,0,0,0,0,0,0,0,0,0,0,0,0,0,0,0,0,0,0,0,1,0,0,0,1,0,0,0,0,0,0,0,0,0,0,0,0,0,0,0,0,0,0,0,0,0,0,0,0,0,0,0,0,0,0,0,0,
IN-HP-12,Kibber,Himachal Pradesh,Lahul & Spiti,140050,Wildlife Sanctuary,32.332176,78.0085671,NA,NA,,0,0,1,0,0,0,0,0,Biome-restricted assemblage (A3),0,0,0,0,0,0,0,0,0,0,0,0,0,0,0,0,0,0,0,0,0,0,0,0,0,0,0,0,0,0,0,0,0,0,0,0,0,0,0,0,0,0,0,0,0,0,0,0,0,0,0,1,0,0,0,1,0,0,0,0,0,0,0,0,0,0,0,0,0,0,0,0,0,0,0,0,0,0,0,0,0,0,0,0,0,0,0,0,
IN-HP-13,Kugti,Himachal Pradesh,Chamba,37886,Wildlife Sanctuary,NA,NA,NA,NA,,1,1,1,0,0,0,0,0,"Globally threatened species, Restricted range species, Biome-restricted assemblage (A1, A2, A3)",0,0,0,0,0,0,0,0,0,0,0,0,0,0,0,0,0,0,0,0,0,0,0,0,0,0,1,0,1,0,0,0,0,0,0,0,0,0,0,0,0,0,0,0,0,0,0,0,0,0,0,1,0,0,0,0,0,0,0,0,0,0,0,0,0,0,0,0,0,0,0,0,0,0,0,0,0,0,0,0,0,0,0,0,0,0,0,0,"	,	,"
IN-HP-14,Lippa Asrang,Himachal Pradesh,Kinnaur,3090,Wildlife Sanctuary,NA,NA,NA,NA,,0,0,1,0,0,0,0,0,Biome-restricted assemblage (A3),0,0,0,0,0,0,0,0,0,0,0,0,0,0,0,0,0,0,0,0,0,0,0,0,0,0,0,1,0,0,0,0,0,0,0,0,0,0,0,0,0,0,0,0,0,0,0,0,0,0,0,0,0,0,0,1,1,0,0,0,0,0,0,0,0,0,0,0,0,0,0,0,0,0,0,0,0,0,0,0,0,0,0,0,0,0,0,0,"	,	,"
IN-HP-15,Majathal,Himachal Pradesh,"Solan, Shimla",4000,Wildlife Sanctuary,NA,NA,NA,NA,,1,1,0,0,0,0,0,0,"Globally threatened species, Restricted range species (A1, A2)",0,0,0,0,0,0,0,0,0,0,0,0,0,0,0,0,0,0,0,0,0,0,0,0,0,0,0,0,0,0,0,0,0,0,0,0,0,0,0,0,0,0,0,0,0,0,0,0,0,0,0,0,0,0,0,0,1,0,0,0,0,0,0,0,0,0,0,0,0,0,0,0,0,0,0,0,0,0,0,0,0,0,0,0,0,0,0,0,
IN-HP-16,Manali,Himachal Pradesh,Kullu,3180,Wildlife Sanctuary,32.2454608,77.1872926,NA,NA,,1,1,0,0,0,0,0,0,"Globally threatened species, Restricted range species (A1, A2)",0,0,0,0,0,0,0,0,0,0,0,0,0,0,0,0,0,0,0,0,0,0,0,0,1,0,0,0,0,0,0,0,0,0,0,0,0,0,0,0,0,0,0,0,0,0,0,0,0,0,0,0,0,0,0,0,0,0,0,0,0,0,0,0,0,0,0,0,0,0,0,0,0,0,0,0,0,0,0,0,0,0,0,0,0,0,0,0,"	,	,"
IN-HP-17,Nargu,Himachal Pradesh,Mandi,27837,Wildlife Sanctuary,NA,NA,NA,NA,,0,0,1,0,0,0,0,1,"Biome-restricted assemblage, Data deficient (A3, DD)",0,0,0,0,0,0,0,0,0,0,0,0,0,0,0,0,0,0,0,0,0,0,0,0,1,0,1,0,0,0,0,0,0,0,0,0,0,0,0,0,0,0,0,0,0,0,0,0,0,0,0,0,0,0,1,0,0,0,0,0,0,0,0,0,0,0,0,0,0,0,0,0,0,0,0,0,0,0,0,0,0,0,0,0,0,0,0,0,
IN-HP-18,Pin Valley,Himachal Pradesh,"Lahaul, Spiti",67500,National Park,31.9527474,78.0310707,NA,NA,,0,0,1,0,0,0,0,0,Biome-restricted assemblage (A3),0,0,0,0,0,0,0,0,0,0,0,0,0,0,0,0,0,0,0,0,0,0,0,0,0,0,0,0,1,0,0,0,0,0,0,0,0,0,0,0,0,0,0,0,0,0,0,0,0,0,0,0,0,0,0,0,0,0,0,0,0,0,0,0,0,0,0,0,0,0,0,0,0,0,0,0,0,0,0,0,0,0,0,0,0,0,0,0,"	,	,	,"
IN-HP-19,Pong Dam Lake,Himachal Pradesh,Kangra,30729,Wildlife Sanctuary,NA,NA,NA,NA,,1,0,0,1,0,1,0,0,"Globally threatened species, Congregations: Site known or thought to hold, on a regular basis, > 1% of a bio-geographic population of a congregatory waterbird species, Congregations: Site known or thought to hold, on a regular basis, > 20,000 water birds or > 10,000 pairs of seabirds of one or more species (A1, A4i, A4iii)",0,0,0,0,0,0,0,0,0,0,0,0,0,0,0,0,0,0,0,0,0,0,0,0,0,0,0,0,0,0,0,0,0,0,0,0,0,0,0,0,0,0,0,0,0,0,0,0,0,0,0,0,0,0,0,0,0,1,0,0,0,0,0,0,0,0,0,0,0,0,0,0,0,0,0,0,0,0,0,0,0,0,0,0,0,0,0,0,
IN-HP-20,Rupi Bhaba,Himachal Pradesh,Kinnaur,26900,Wildlife Sanctuary,NA,NA,NA,NA,,1,1,0,0,0,0,0,0,"Globally threatened species, Restricted range species (A1, A2)",0,0,0,0,0,0,0,0,0,0,0,0,0,0,0,0,0,0,0,0,0,1,1,0,1,0,0,0,0,0,0,0,0,0,0,0,0,0,0,0,0,0,0,0,0,0,0,0,0,0,0,1,0,0,0,0,0,0,0,0,0,0,0,0,0,0,0,0,0,0,0,0,0,0,0,0,0,0,0,0,0,0,0,0,0,0,0,0,"	,	,"
IN-HP-21,Sangla (Raksham Chitkul),Himachal Pradesh,Kinaur,65000,Wildlife Sanctuary,NA,NA,NA,NA,,1,1,0,0,0,0,0,0,"Globally threatened species, Restricted range species (A1, A2)",0,0,0,0,0,0,0,0,0,0,0,0,0,0,0,0,0,0,0,0,0,0,0,0,0,0,0,0,0,0,0,0,0,0,0,0,0,0,0,0,0,0,0,0,0,0,0,0,0,0,0,1,0,0,1,0,0,0,0,0,0,0,0,0,0,0,0,0,0,0,0,0,0,0,0,0,0,0,0,0,0,0,0,0,0,0,0,0,"	,	,	,"
IN-HP-22,"Sarah Valley, Lower Dharamshala",Himachal Pradesh,Kangra,Not Defined,Non Officially Protected,NA,NA,NA,NA,,1,0,1,0,0,0,0,0,"Globally threatened species, Biome-restricted assemblage (A1, A3)",0,0,0,0,0,0,0,0,0,0,0,0,0,0,0,0,0,0,0,0,0,0,0,0,0,0,0,0,0,0,0,0,0,0,0,0,0,0,0,0,0,0,0,0,0,0,0,0,0,0,0,0,0,0,1,0,0,0,1,0,0,0,0,0,0,0,0,0,0,0,0,0,0,0,0,0,0,0,0,0,0,0,0,0,0,0,0,0,"	,	,"
IN-HP-23,Sechu Tuan Nala,Himachal Pradesh,Chamba,10295,Wildlife Sanctuary,NA,NA,NA,NA,,1,1,0,0,0,0,0,0,"Globally threatened species, Restricted range species (A1, A2)",0,0,0,0,0,0,0,0,0,0,0,0,0,0,0,0,0,0,0,0,0,0,0,0,0,0,0,0,0,0,0,0,0,0,0,0,0,0,0,0,0,0,0,0,0,0,0,0,0,0,0,0,1,0,1,0,0,0,0,0,0,0,0,0,0,0,0,0,0,0,0,0,0,0,0,0,0,0,0,0,0,0,0,0,0,0,0,0,"	,	,"
IN-HP-24,Shikari Devi,Himachal Pradesh,Mandi,7200,Wildlife Sanctuary,31.4786622,77.16568352,NA,NA,,1,1,1,0,0,0,0,0,"Globally threatened species, Restricted range species, Biome-restricted assemblage (A1, A2, A3)",0,0,0,0,0,0,0,0,0,0,0,0,0,0,0,0,0,0,0,0,0,0,0,0,0,0,1,0,0,0,0,0,0,0,0,0,0,0,0,0,0,0,0,0,0,0,0,0,0,0,0,0,0,0,1,0,0,0,0,1,0,0,0,0,0,0,0,0,0,0,0,0,0,0,0,0,0,0,0,0,0,0,0,0,0,0,0,0,"	,	,	,"
IN-HP-25,Shimla Water Catchment,Himachal Pradesh,"Shimla, Kufri",1025,Wildlife Sanctuary,NA,NA,NA,NA,,1,1,1,0,0,0,0,0,"Globally threatened species, Restricted range species, Biome-restricted assemblage (A1, A2, A3)",0,0,0,0,0,0,0,0,0,0,0,0,0,0,0,0,0,0,0,0,0,0,0,0,0,0,0,0,0,0,0,0,0,0,0,0,0,0,0,0,0,0,0,0,0,0,0,0,0,0,0,0,0,0,1,0,0,0,0,0,0,0,0,0,0,0,0,0,0,0,0,0,0,0,0,0,0,0,0,0,0,0,0,0,0,0,0,0,"	,	,"
IN-HP-26,Talra,Himachal Pradesh,Shimla,2600,Wildlife Sanctuary,NA,NA,NA,NA,,1,1,1,0,0,0,0,0,"Globally threatened species, Restricted range species, Biome-restricted assemblage (A1, A2, A3)",0,0,0,0,0,0,0,0,0,0,0,0,0,0,0,0,0,0,0,0,0,0,0,0,0,0,0,0,0,0,0,0,0,0,0,0,0,0,0,0,0,0,0,0,0,0,0,0,0,0,0,0,0,0,1,0,0,0,0,0,0,0,0,0,0,0,0,0,0,0,0,0,0,0,0,0,0,0,0,0,0,0,0,0,0,0,0,0,
IN-HP-27,Tirthan,Himachal Pradesh,Kullu,6112,Wildlife Sanctuary,NA,NA,NA,NA,,1,1,0,0,0,0,0,0,"Globally threatened species, Restricted range species (A1, A2)",0,0,0,0,0,0,0,0,0,0,0,0,0,0,0,0,0,0,0,0,0,1,0,1,0,0,0,1,0,0,0,0,0,0,0,0,0,0,0,0,0,0,0,0,0,0,0,0,0,0,0,0,1,0,0,0,0,0,0,0,0,0,0,0,0,0,0,0,0,0,0,0,0,0,0,0,0,0,0,0,0,0,0,0,0,0,0,0,"	,	,	,	,"
IN-JK-01,Chushul Marshes,Jammu & Kashmir,"Leh, Ladakh",1500,Non Officially Protected,NA,NA,33.58,78.75,,1,0,0,0,0,0,0,0,Globally threatened species (A1),0,0,0,0,0,0,0,0,0,0,0,0,0,0,0,0,0,0,0,0,0,0,0,0,0,0,0,0,0,0,0,0,1,0,0,0,0,0,0,0,0,0,0,0,0,0,0,0,0,0,0,0,0,0,0,0,0,1,0,0,0,0,0,0,0,0,0,0,0,0,0,0,0,0,0,0,0,0,0,0,0,0,0,0,0,0,0,0,
IN-JK-02,Dachigam,Jammu & Kashmir,Srinagar,17125,National Park,34.1371912,75.02076392,NA,NA,,1,1,1,0,0,0,0,0,"Globally threatened species, Restricted range species, Biome-restricted assemblage (A1, A2, A3)",0,0,0,0,0,0,0,0,0,0,0,0,0,0,0,0,0,0,0,0,0,0,0,0,0,0,0,0,0,0,0,0,0,0,0,0,0,0,0,0,0,0,0,0,0,0,0,0,0,0,0,1,1,0,1,0,0,0,0,0,0,0,0,0,0,0,0,0,0,0,0,0,0,0,0,0,0,0,0,0,0,0,0,0,0,0,0,0,
IN-JK-03,Dehra Gali,Jammu & Kashmir,"Poonch, Rajouri",1800,Non Officially Protected,NA,NA,NA,NA,,1,1,0,0,0,0,0,0,"Globally threatened species, Restricted range species (A1, A2)",0,0,0,0,0,0,0,0,0,0,0,0,0,0,0,0,0,0,0,0,0,1,0,0,1,0,0,0,0,0,0,0,0,0,0,0,0,0,0,0,0,0,0,0,0,0,0,0,0,0,0,0,0,1,0,0,0,0,0,0,0,0,0,0,0,0,0,0,0,0,0,0,0,0,0,0,0,0,0,0,0,0,0,0,0,0,0,0,"	,	,"
IN-JK-04,Gulmar,Jammu & Kashmir,Baramulla,13925,Wildlife Sanctuary,NA,NA,NA,NA,,1,1,1,0,0,0,0,0,"Globally threatened species, Restricted range species, Biome-restricted assemblage (A1, A2, A3)",0,0,0,0,0,0,0,0,0,0,0,0,0,0,0,0,0,0,0,0,0,0,0,0,0,0,0,0,0,0,0,0,0,0,0,0,0,0,0,0,0,0,0,0,0,0,0,0,0,0,0,1,1,1,0,0,0,0,0,0,0,0,0,0,0,0,0,0,0,0,0,0,0,0,0,0,0,0,0,0,0,0,0,0,0,0,0,0,
IN-JK-05,Haigam Rakh,Jammu & Kashmir,Baramulla,1400,Non Officially Protected,NA,NA,NA,NA,,1,0,0,0,0,1,0,0,"Globally threatened species, Congregations: Site known or thought to hold, on a regular basis, > 20,000 water birds or > 10,000 pairs of seabirds of one or more species (A1, A4iii)",0,0,0,0,0,0,0,0,0,0,0,0,0,0,0,0,0,0,0,0,0,0,1,0,0,0,0,0,0,0,0,0,0,0,0,0,0,0,0,0,0,0,0,0,0,0,0,0,0,0,0,0,0,0,0,0,0,1,1,0,0,0,0,0,0,0,0,0,0,0,0,0,0,0,0,0,0,0,0,0,0,0,0,0,0,0,0,0,"	,	,"
IN-JK-06,Hanle Shado - Bug,Jammu & Kashmir,"Leh, Ladakh",8000,Non Officially Protected,NA,NA,NA,NA,,1,0,0,0,0,0,0,1,"Globally threatened species, Data deficient (A1, DD)",0,0,0,0,0,0,0,0,0,0,0,0,0,0,0,0,0,0,0,0,0,0,1,0,0,0,0,0,0,0,0,0,1,0,0,0,0,0,0,0,0,0,0,0,0,0,0,0,0,0,0,1,0,0,0,0,0,0,0,0,0,0,0,0,0,0,0,0,0,0,0,0,0,0,0,0,0,0,0,0,0,0,0,0,0,0,0,0,
IN-JK-07,Hemis,Jammu & Kashmir,Ladakh,410000,National Park,33.9083119,77.6341507,NA,NA,,0,0,1,0,0,0,0,0,Biome-restricted assemblage (A3),0,0,0,0,0,0,0,0,0,0,0,0,0,0,0,0,0,0,0,0,0,0,1,0,0,0,0,0,1,0,0,0,0,0,0,0,0,0,0,0,0,0,0,0,0,0,0,0,0,0,0,0,1,0,0,0,0,0,0,0,0,0,0,0,0,0,0,0,0,0,0,0,0,0,0,0,0,0,0,0,0,0,0,0,0,0,0,0,
IN-JK-08,Hirapora,Jammu & Kashmir,Pulwama,11450,Wildlife Sanctuary,NA,NA,NA,NA,,1,0,0,0,0,0,0,1,"Globally threatened species, Data deficient (A1, DD)",0,0,0,0,0,0,0,0,0,0,0,0,0,0,0,0,0,0,0,0,0,0,0,0,0,0,0,0,0,0,0,0,0,0,0,0,0,0,0,0,0,0,0,0,0,0,0,0,0,0,0,0,0,1,1,0,0,0,1,0,0,0,0,0,0,0,0,0,0,0,0,0,0,0,0,0,0,0,0,0,0,0,0,0,0,0,0,0,
IN-JK-09,Hokarsar,Jammu & Kashmir,Budgam and Srinagar,1375,Non Officially Protected,NA,NA,34,74.93,,1,0,0,0,0,1,0,0,"Globally threatened species, Congregations: Site known or thought to hold, on a regular basis, > 20,000 water birds or > 10,000 pairs of seabirds of one or more species (A1, A4iii)",0,0,0,0,0,0,0,0,0,0,0,0,0,0,0,0,0,0,0,0,0,0,0,0,0,0,0,0,0,0,0,0,0,0,0,0,0,0,0,0,0,0,1,0,0,0,0,0,0,0,0,0,0,0,0,0,0,0,0,0,0,0,0,0,0,0,0,0,0,0,0,0,0,0,0,0,0,0,0,0,0,0,0,0,0,0,0,0,"	,	,"
IN-JK-10,Kishtwar,Jammu & Kashmir,Dodo,40500,National Park,33.3107445,75.7693289,NA,NA,,1,1,1,0,0,0,0,0,"Globally threatened species, Restricted range species, Biome-restricted assemblage (A1, A2, A3)",0,0,0,0,0,0,0,0,0,0,0,0,0,0,0,0,0,0,0,0,0,0,0,0,0,0,0,0,0,0,0,0,0,0,0,0,0,0,0,0,0,0,1,0,0,0,0,0,0,0,0,0,0,0,0,0,0,0,0,0,0,0,0,0,0,0,0,0,0,0,0,0,0,0,0,0,0,0,0,0,0,0,0,0,0,0,0,0,"	,	,	,"
IN-JK-11,Lachipora,Jammu & Kashmir,Baramulla,9350,Wildlife Sanctuary,NA,NA,NA,NA,,1,1,0,0,0,0,0,0,"Globally threatened species, Restricted range species (A1, A2)",0,0,0,0,0,0,0,0,0,0,0,0,0,0,0,0,0,0,0,0,0,0,0,0,1,0,0,0,0,0,0,0,0,0,0,0,0,0,0,0,0,0,0,0,0,0,0,0,0,0,0,1,0,0,0,0,0,0,0,0,0,0,0,0,0,0,0,0,0,0,0,0,0,0,0,0,0,0,0,0,0,0,0,0,0,0,0,0,"	,	,	,"
IN-JK-12,Limber,Jammu & Kashmir,Baramulla,4375,Wildlife Sanctuary,34.1512924,74.1997829,NA,NA,,1,1,1,0,0,0,0,0,"Globally threatened species, Restricted range species, Biome-restricted assemblage (A1, A2, A3)",0,0,0,0,0,0,0,0,0,0,0,0,0,0,0,0,0,0,0,0,0,0,0,0,1,0,0,0,0,0,0,0,0,0,0,0,0,0,0,0,0,0,0,0,0,0,0,0,0,0,0,0,0,0,0,0,0,0,0,0,0,0,0,0,0,0,0,0,0,0,0,0,0,0,0,0,0,0,0,0,0,0,0,0,0,0,0,0,"	,	,"
IN-JK-13,Mirgund Jheel,Jammu & Kashmir,Budgam,300,Non Officially Protected,NA,NA,NA,NA,,1,0,0,1,0,0,0,0,"Globally threatened species, Congregations: Site known or thought to hold, on a regular basis, > 1% of a bio-geographic population of a congregatory waterbird species (A1, A4i)",0,0,0,0,0,0,0,0,1,0,0,0,0,0,0,0,0,0,0,0,0,0,0,0,0,0,0,0,0,0,0,0,1,0,0,0,0,0,0,0,0,0,0,0,0,0,0,0,0,0,0,0,0,0,0,0,0,0,1,0,0,0,0,0,0,0,0,0,0,0,0,0,0,0,0,0,0,0,0,0,0,0,0,0,0,0,0,0,"	,	,	,"
IN-JK-14,Overa - Aru,Jammu & Kashmir,Anantnag,51100,Wildlife Sanctuary,NA,NA,NA,NA,,1,1,1,0,0,0,0,0,"Globally threatened species, Restricted range species, Biome-restricted assemblage (A1, A2, A3)",0,0,0,0,0,0,0,0,0,0,0,0,0,0,0,0,0,0,0,0,0,0,0,0,0,0,0,0,0,0,0,0,0,0,0,0,0,0,0,0,0,0,0,0,0,0,0,0,0,0,0,0,1,0,0,1,1,0,0,0,0,0,0,0,0,0,0,0,0,0,0,0,0,0,0,0,0,0,0,0,0,0,0,0,0,0,0,0,"	,	,	,	,"
IN-JK-15,Pangong Tso,Jammu & Kashmir,"Leh, Ladakh",65000,Non Officially Protected,NA,NA,33.83,78.58,,1,0,1,0,0,0,0,0,"Globally threatened species, Biome-restricted assemblage (A1, A3)",0,0,0,0,0,0,0,0,0,0,0,0,0,0,0,0,0,0,0,0,0,0,0,0,0,0,0,0,0,0,0,0,0,0,0,0,0,0,0,0,0,0,0,0,0,0,0,0,0,0,0,0,0,0,0,0,0,1,0,0,0,0,0,0,0,0,0,0,0,0,0,0,0,0,0,0,0,0,0,0,0,0,0,0,0,0,0,0,
IN-JK-16,Ramanagar,Jammu & Kashmir,Jammu,1275,Wildlife Sanctuary,NA,NA,NA,NA,,1,0,0,0,0,0,0,1,"Globally threatened species, Data deficient (A1, DD)",0,0,0,0,0,0,0,0,0,0,0,0,0,0,0,0,0,0,0,0,0,0,0,0,0,0,0,0,0,0,0,0,0,0,0,0,0,0,0,0,0,0,0,0,0,0,0,0,0,0,0,0,0,0,0,1,0,0,0,0,0,0,0,0,0,0,0,0,0,0,0,0,0,0,0,0,0,0,0,0,0,0,0,0,0,0,0,0,"	,	,"
IN-JK-17,Shallabugh Lake and Marshes,Jammu & Kashmir,Srinagar,700,Non Officially Protected,NA,NA,NA,NA,,0,0,0,0,0,1,0,0,"Congregations: Site known or thought to hold, on a regular basis, > 20,000 water birds or > 10,000 pairs of seabirds of one or more species (A4iii)",0,0,0,0,0,0,0,0,1,0,0,0,0,0,0,0,0,0,0,0,0,0,0,0,0,0,0,0,0,0,0,0,0,0,0,0,0,0,0,0,0,0,0,0,0,0,0,0,0,0,0,0,0,0,0,0,0,0,1,0,0,0,0,0,0,0,0,0,0,0,0,0,0,0,0,0,0,0,0,0,0,0,0,0,0,0,0,0,"	,	,"
IN-JK-18,Tsokar Basin,Jammu & Kashmir,"Leh, Ladakh",10000,Non Officially Protected,NA,NA,NA,NA,,1,0,0,0,0,0,0,0,Globally threatened species (A1),0,0,0,0,0,0,0,0,0,0,0,0,0,0,0,0,0,0,0,0,0,0,0,0,0,0,0,0,0,0,0,0,0,0,0,0,0,0,0,0,0,0,0,0,0,0,0,0,0,0,0,0,0,0,0,0,0,1,0,0,0,0,0,0,0,0,0,0,0,0,0,0,0,0,0,0,0,0,0,0,0,0,0,0,0,0,0,0,
IN-JK-19,Tso Morari Lake and Adjacent Marsh,Jammu & Kashmir,Leh,Not Defined,Non Officially Protected,NA,NA,NA,NA,,1,0,0,0,0,0,0,0,Globally threatened species (A1),0,0,0,0,0,0,0,0,0,0,0,0,0,0,0,0,0,0,0,0,0,0,0,0,0,0,0,0,0,0,0,0,0,0,0,0,0,0,0,0,0,0,0,0,0,0,0,0,0,0,0,1,0,0,0,0,0,1,0,0,0,0,0,0,0,0,0,0,0,0,0,0,0,0,0,0,0,0,0,0,0,0,0,0,0,0,0,0,
IN-JK-20,Wular Lake,Jammu & Kashmir,Baramulla,12200,Non Officially Protected,34.35162015,74.54158492,NA,NA,,1,0,0,0,0,1,0,0,"Globally threatened species, Congregations: Site known or thought to hold, on a regular basis, > 20,000 water birds or > 10,000 pairs of seabirds of one or more species (A1, A4iii)",0,0,0,0,0,0,0,0,1,0,0,0,0,0,0,0,0,0,0,0,0,0,1,0,0,0,0,0,0,0,0,0,1,0,0,0,0,0,0,0,0,0,0,0,0,0,0,0,0,0,0,0,0,0,0,0,0,0,1,0,0,0,0,0,0,0,0,0,0,0,0,0,0,0,0,0,0,0,0,0,0,0,0,0,0,0,0,0,"	,	,"
IN-JK-21,Gharana Wetland Reserve,Jammu & Kashmir,Jammu,300,Non Officially Protected,NA,NA,32.84,74.58,,0,0,0,0,0,1,0,1,"Congregations: Site known or thought to hold, on a regular basis, > 20,000 water birds or > 10,000 pairs of seabirds of one or more species, Data deficient (A4iii, DD)",0,0,0,0,0,0,0,0,0,0,0,0,0,0,0,0,0,0,0,0,0,0,0,0,0,0,0,0,0,0,0,0,0,0,0,0,0,0,0,0,0,0,0,0,0,0,0,0,0,0,0,0,0,0,0,0,0,1,0,0,0,0,0,0,0,0,0,0,0,0,0,0,0,0,0,0,0,0,0,0,0,0,0,0,0,0,0,0,"	,	,	,"
IN-JH-01,Hazaribagh and North Karnpur Valley,Jharkhand,Hazaribagh,198625,Wildlife Sanctuary,NA,NA,NA,NA,,1,0,0,0,0,0,0,1,"Globally threatened species, Data deficient (A1, DD)",0,0,0,0,0,0,1,0,0,0,0,0,0,0,0,0,0,0,0,0,0,0,0,0,0,0,0,0,0,0,0,0,0,0,0,0,0,0,0,0,0,0,0,0,0,0,0,0,0,0,0,0,0,0,0,0,0,0,0,0,0,0,0,0,0,0,0,0,0,0,0,0,0,0,0,0,0,0,0,0,0,0,0,0,0,0,0,0,"	,	,	,"
IN-JH-02,Palamu,Jharkhand,Palamau,79433,Tiger Reserve,23.916667,84.083333,NA,NA,,1,0,0,0,0,0,0,0,Globally threatened species (A1),0,0,0,1,0,0,1,0,0,0,0,0,0,0,0,0,0,0,0,0,0,0,1,0,0,0,0,0,0,0,0,0,0,1,0,0,0,0,0,0,0,0,0,0,0,0,0,0,0,0,0,0,0,0,0,0,0,0,0,0,0,0,0,0,0,0,0,0,0,0,0,0,0,0,0,0,0,0,0,0,0,0,0,0,0,0,0,0,"	,	,	,"
IN-JH-03,Udhwa Lake,Jharkhand,Sahebganj,565,Wildlife Sanctuary,NA,NA,NA,NA,,1,0,0,0,0,0,0,0,Globally threatened species (A1),0,0,0,0,0,0,0,0,1,0,0,0,0,0,0,0,0,0,0,0,0,0,0,0,0,0,0,0,0,0,0,0,0,0,0,0,0,0,0,0,0,0,0,0,0,0,0,0,0,0,0,0,0,0,0,0,0,0,0,0,0,0,0,0,0,0,0,0,0,0,0,0,0,0,0,0,0,0,0,0,0,0,0,0,0,0,0,0,
IN-KA-01,Adichunchunagiri,Karnataka,Mandya,88,Wildlife Sanctuary,12.9667113,76.72182942,NA,NA,,1,0,0,0,0,0,0,0,Globally threatened species (A1),0,0,0,0,0,0,1,0,0,0,0,0,0,0,0,0,0,0,0,0,0,0,0,0,0,0,0,0,0,0,0,0,0,0,0,0,0,0,0,0,0,0,0,0,0,0,0,0,0,0,1,0,0,0,0,0,0,0,0,0,0,0,0,0,0,0,0,0,0,0,0,0,0,0,0,0,0,0,0,0,0,0,0,0,0,0,0,0,"	,	,"
IN-KA-02,Anshi,Karnataka,North Kannada,25000,National Park,14.9925559,74.3708809,NA,NA,,1,1,1,0,0,0,0,0,"Globally threatened species, Restricted range species, Biome-restricted assemblage (A1, A2, A3)",1,1,0,0,0,0,0,0,0,0,0,0,0,0,0,0,0,0,0,0,0,0,0,0,0,0,0,0,0,0,0,0,0,0,0,0,0,0,0,0,0,0,0,0,0,0,0,0,0,0,0,0,0,0,0,0,0,0,0,0,0,0,0,0,0,0,0,0,0,0,0,0,0,0,0,0,0,0,0,0,0,0,0,0,0,0,0,0,
IN-KA-03,Bandipur,Karnataka,Mysore,87420,Tiger Reserve,11.6662708,76.6285739,NA,NA,,1,1,0,0,0,0,0,0,"Globally threatened species, Restricted range species (A1, A2)",0,0,0,0,0,0,0,0,0,0,0,0,0,0,0,1,0,0,0,0,0,0,0,0,0,0,0,0,0,0,0,0,0,0,0,0,0,0,0,0,0,0,0,0,0,0,0,0,0,0,0,0,0,0,0,0,0,0,0,0,0,0,0,0,0,0,0,0,0,0,0,0,0,0,0,0,0,0,0,0,0,0,0,0,0,0,0,0,"	,	,"
IN-KA-04,Bannerghatta,Karnataka,Bangalore,10427,National Park,12.9088191,77.6003196,NA,NA,,1,1,0,0,0,0,0,0,"Globally threatened species, Restricted range species (A1, A2)",0,0,0,0,0,0,1,0,0,0,0,0,0,0,0,0,0,0,0,0,0,0,0,0,0,0,0,0,0,0,0,0,0,0,0,0,0,0,0,0,0,0,0,0,0,0,0,0,0,0,0,0,0,0,0,0,0,0,0,0,0,0,0,0,0,0,0,0,0,0,0,0,0,0,0,0,0,0,0,0,0,0,0,0,0,0,0,0,
IN-KA-05,Bhadra,Karnataka,"Chikmangalur, Shimoga",49246,Tiger Reserve,13.4888356,75.527118,NA,NA,,1,1,0,0,0,0,0,0,"Globally threatened species, Restricted range species (A1, A2)",0,0,0,0,0,0,0,0,0,0,0,0,0,0,0,1,0,0,0,0,0,0,0,0,0,0,0,0,0,0,0,0,0,0,0,0,0,0,0,0,0,0,0,0,0,0,0,0,0,0,0,0,0,0,0,0,0,0,0,0,1,0,0,0,0,0,0,0,0,0,0,0,0,0,0,0,0,0,0,0,0,0,0,0,0,0,0,0,"	,	,	,"
IN-KA-06,Bimgad and Castle Rock,Karnataka,Belgaum,Not Defined,Non Officially Protected,NA,NA,NA,NA,,1,1,1,0,0,0,0,0,"Globally threatened species, Restricted range species, Biome-restricted assemblage (A1, A2, A3)",0,0,0,0,0,0,0,0,0,0,0,0,0,0,0,1,0,0,0,0,0,0,0,0,0,0,0,0,0,0,0,0,0,0,0,0,0,0,0,0,0,0,0,0,0,0,0,0,0,0,0,0,0,0,0,0,0,0,0,0,0,1,0,0,0,0,0,0,0,0,0,0,0,0,0,0,0,0,0,0,0,0,0,0,0,0,0,0,
IN-KA-07,Biligiri Rangaswamy Temple,Karnataka,Chamarajanagar,53952,Wildlife Sanctuary,NA,NA,NA,NA,,1,1,1,0,0,0,0,0,"Globally threatened species, Restricted range species, Biome-restricted assemblage (A1, A2, A3)",0,0,0,0,0,0,1,0,0,0,0,0,0,0,0,1,0,0,0,0,0,0,0,0,0,0,0,0,0,0,0,0,0,0,0,0,0,0,0,0,0,0,0,0,0,0,0,0,0,0,0,0,0,0,0,0,0,0,0,0,0,0,0,0,0,0,0,0,0,0,0,0,0,0,0,0,0,0,0,0,0,0,0,0,0,0,0,0,"	,	,"
IN-KA-08,Bramhagiri,Karnataka,Kodagu,18129,Wildlife Sanctuary,NA,NA,NA,NA,,1,1,1,0,0,0,0,0,"Globally threatened species, Restricted range species, Biome-restricted assemblage (A1, A2, A3)",1,1,0,0,0,0,0,0,0,0,0,0,0,0,0,0,0,1,0,0,0,0,0,0,0,0,0,0,0,0,0,0,0,0,0,0,0,0,0,0,0,0,0,0,0,0,0,0,0,0,0,0,0,0,0,0,0,0,0,0,0,0,1,0,0,0,0,0,0,0,0,0,0,0,0,0,0,0,0,0,0,0,0,0,0,0,0,0,"	,	,"
IN-KA-09,Cauvery,Karnataka,"Mysore, Bangalore, Mandya",52696,Wildlife Sanctuary,13.00262215,77.5832796,NA,NA,,1,1,1,0,0,0,0,0,"Globally threatened species, Restricted range species, Biome-restricted assemblage (A1, A2, A3)",0,0,0,0,0,0,0,0,0,0,0,0,0,0,0,1,0,0,0,0,0,0,1,0,0,0,0,0,0,0,0,0,0,0,0,0,0,0,0,0,0,0,0,0,0,0,0,0,0,0,0,0,0,0,0,0,0,0,0,0,0,0,0,0,0,0,0,0,0,0,0,0,0,0,0,0,0,0,0,0,0,0,0,0,0,0,0,0,
IN-KA-10,Dandeli,Karnataka,Uttarkanada,84316,Wildlife Sanctuary,15.2490284,74.6236037,NA,NA,,1,1,1,0,0,0,0,0,"Globally threatened species, Restricted range species, Biome-restricted assemblage (A1, A2, A3)",0,1,0,0,0,0,0,0,0,0,0,0,0,0,0,1,0,0,0,0,0,0,0,0,0,0,0,0,0,0,0,0,0,0,0,0,0,0,0,0,0,0,0,0,0,0,0,0,0,0,0,0,0,0,0,0,0,0,0,0,0,0,0,0,0,0,0,0,0,0,0,0,0,0,0,0,0,0,0,0,0,0,0,0,0,0,0,0,
IN-KA-11,Gudavi,Karnataka,Shimoga,74,Wildlife Sanctuary,14.4400296,75.009649,NA,NA,,1,1,0,1,0,0,0,0,"Globally threatened species, Restricted range species, Congregations: Site known or thought to hold, on a regular basis, > 1% of a bio-geographic population of a congregatory waterbird species (A1, A2, A4i)",0,0,0,0,0,0,0,0,0,0,0,0,0,0,0,1,0,0,0,0,0,0,0,0,0,0,0,0,0,0,0,0,0,0,0,0,0,0,0,0,0,0,0,0,0,0,0,0,0,0,0,0,0,0,0,0,0,0,0,0,0,0,0,0,0,0,0,0,0,0,0,0,0,0,0,0,0,0,0,0,0,0,0,0,0,0,0,0,
IN-KA-12,Hampi,Karnataka,Bellary,2600,Non Officially Protected,15.3359769,76.4606199,NA,NA,,1,1,0,0,0,0,0,0,"Globally threatened species, Restricted range species (A1, A2)",0,0,0,0,0,0,0,1,0,0,0,0,0,0,0,0,0,0,0,0,0,0,0,0,0,0,0,0,0,0,0,0,0,0,0,0,0,0,0,0,0,0,0,0,0,0,0,0,0,0,1,0,0,0,0,0,0,0,0,0,0,0,0,0,0,0,0,0,0,0,0,0,0,0,0,0,0,0,0,0,0,0,0,0,0,0,0,0,"	,	,"
IN-KA-13,Jogimatti State,Karnataka,Chitradurga,10718,Non Officially Protected,NA,NA,NA,NA,,1,1,0,0,0,0,0,0,"Globally threatened species, Restricted range species (A1, A2)",0,0,0,0,0,0,0,0,0,0,0,0,0,0,0,0,0,0,0,0,0,0,0,0,0,0,0,0,0,0,0,0,0,0,0,0,0,0,0,0,0,0,0,0,0,0,0,0,0,0,1,0,0,0,0,0,0,0,0,0,0,0,0,0,0,0,0,0,0,0,0,0,0,0,0,0,0,0,0,0,0,0,0,0,0,0,0,0,
IN-KA-14,Karanji Tank,Karnataka,Mysore,65,Non Officially Protected,NA,NA,12.3,76.6,,1,0,0,1,0,0,0,0,"Globally threatened species, Congregations: Site known or thought to hold, on a regular basis, > 1% of a bio-geographic population of a congregatory waterbird species (A1, A4i)",0,0,0,0,0,0,0,1,1,0,0,0,0,0,0,0,0,0,0,0,0,0,0,0,0,0,0,0,0,0,0,0,0,0,0,0,0,0,0,0,0,0,0,0,0,0,0,0,0,0,0,0,0,0,0,0,0,0,0,0,0,0,0,0,0,0,0,0,0,0,0,0,0,0,0,0,0,0,0,0,0,0,0,0,0,0,0,0,"	,	,	,"
IN-KA-15,Kemmangundi and Bababudan Hills,Karnataka,Chikmagalur,10292,Non Officially Protected,NA,NA,NA,NA,,1,1,1,0,0,0,0,0,"Globally threatened species, Restricted range species, Biome-restricted assemblage (A1, A2, A3)",1,1,0,1,0,0,0,0,0,0,0,0,0,0,0,0,0,1,0,0,0,0,0,0,0,0,0,0,0,0,0,0,0,0,0,0,0,0,0,0,0,0,0,0,0,0,0,0,0,0,0,0,0,0,0,0,0,0,0,0,0,0,0,0,0,0,0,0,0,0,0,0,0,0,0,0,0,0,0,0,0,0,0,0,0,0,0,0,
IN-KA-16,Kemphole,Karnataka,Hassan and Dakshina Kannada,3200,Non Officially Protected,NA,NA,NA,NA,,1,1,0,0,0,0,0,0,"Globally threatened species, Restricted range species (A1, A2)",1,1,0,0,0,0,0,0,0,0,0,0,0,0,0,0,0,0,0,0,0,0,0,0,0,0,0,0,0,0,0,0,0,0,0,0,0,0,0,0,0,0,0,0,0,0,0,0,0,0,0,0,0,0,0,0,0,0,0,0,0,0,0,0,0,0,0,0,0,0,0,0,0,0,0,0,0,0,0,0,0,0,0,0,0,0,0,0,"	,	,	,"
IN-KA-17,Kokkare Bellur,Karnataka,Mandya,38,Non Officially Protected,12.5097738,77.0883259,12.51,77.09,,1,0,0,1,0,0,0,0,"Globally threatened species, Congregations: Site known or thought to hold, on a regular basis, > 1% of a bio-geographic population of a congregatory waterbird species (A1, A4i)",0,0,0,0,0,0,0,0,0,0,0,0,0,0,0,0,1,0,0,0,0,0,0,0,0,0,0,0,0,0,0,0,0,0,0,0,0,0,0,0,0,0,0,0,0,0,0,0,0,0,0,0,0,0,0,0,0,0,0,0,0,0,0,0,0,0,0,0,0,0,0,0,0,0,0,0,0,0,0,0,0,0,0,0,0,0,0,0,"	,	,"
IN-KA-18,Krishana Rajsagar Reservoir,Karnataka,Mysore and Mandya,12500,Non Officially Protected,NA,NA,NA,NA,,1,0,0,1,0,1,0,0,"Globally threatened species, Congregations: Site known or thought to hold, on a regular basis, > 1% of a bio-geographic population of a congregatory waterbird species, Congregations: Site known or thought to hold, on a regular basis, > 20,000 water birds or > 10,000 pairs of seabirds of one or more species (A1, A4i, A4iii)",0,0,0,0,0,0,0,0,1,0,0,0,0,0,0,0,0,0,0,0,0,0,0,0,0,0,0,0,0,0,0,0,0,0,0,0,0,0,0,0,0,0,0,0,0,0,0,0,0,0,0,0,0,0,0,0,0,0,0,0,0,0,0,0,0,0,0,0,0,0,0,0,0,0,0,0,0,0,0,0,0,0,0,0,0,0,0,0,"	,	,"
IN-KA-19,Kudermukh,Karnataka,Chikmagalur,56328,National Park,NA,NA,NA,NA,,1,1,1,0,0,0,0,0,"Globally threatened species, Restricted range species, Biome-restricted assemblage (A1, A2, A3)",1,1,0,0,0,0,0,0,0,0,0,0,0,0,0,0,0,1,0,0,0,0,0,0,0,0,0,0,0,0,0,0,0,0,0,0,0,0,0,0,0,0,0,0,0,0,0,0,0,0,0,0,0,0,0,0,0,0,0,0,0,0,0,1,0,0,0,0,0,0,0,0,0,0,0,0,0,0,0,0,0,0,0,0,0,0,0,0,"	,	,	,"
IN-KA-20,Kukkarahalli Tank,Karnataka,Mysore,58,Non Officially Protected,NA,NA,12.31,76.63,,1,0,1,0,0,0,0,0,"Globally threatened species, Biome-restricted assemblage (A1, A3)",0,0,0,0,0,0,0,0,1,0,0,0,0,0,0,0,0,0,0,0,0,0,0,1,0,0,0,0,0,0,0,0,0,0,0,0,0,0,0,0,0,0,0,0,0,1,0,0,0,0,0,0,0,0,0,0,0,0,0,0,0,0,0,0,0,0,0,0,0,0,0,0,0,0,0,0,0,0,0,0,0,0,0,0,0,0,0,0,"	,	,"
IN-KA-21,Kunthur - Kallur Lakes,Karnataka,Chamarajanagar,460,Non Officially Protected,NA,NA,NA,NA,,1,0,0,1,0,1,0,0,"Globally threatened species, Congregations: Site known or thought to hold, on a regular basis, > 1% of a bio-geographic population of a congregatory waterbird species, Congregations: Site known or thought to hold, on a regular basis, > 20,000 water birds or > 10,000 pairs of seabirds of one or more species (A1, A4i, A4iii)",0,0,0,0,0,0,0,0,1,0,0,0,0,0,0,0,0,0,0,0,0,0,0,0,0,0,0,0,0,0,0,0,0,0,0,0,0,0,0,0,0,0,0,0,0,0,0,0,0,0,0,0,0,0,0,0,0,0,0,0,0,0,0,0,0,0,0,0,0,0,0,0,0,0,0,0,0,0,0,0,0,0,0,0,0,0,0,0,"	,	,"
IN-KA-22,Ligambudhi Lake,Karnataka,,76,Non Officially Protected,NA,NA,NA,NA,,1,0,0,1,0,1,0,0,"Globally threatened species, Congregations: Site known or thought to hold, on a regular basis, > 1% of a bio-geographic population of a congregatory waterbird species, Congregations: Site known or thought to hold, on a regular basis, > 20,000 water birds or > 10,000 pairs of seabirds of one or more species (A1, A4i, A4iii)",0,0,0,0,0,0,1,1,1,0,0,0,0,0,0,0,0,0,0,0,0,0,0,0,0,0,0,0,0,0,0,0,0,0,0,0,0,0,0,0,0,0,0,0,0,0,0,0,0,1,0,0,0,0,0,0,0,0,0,0,0,0,0,0,0,0,0,0,0,0,0,0,0,0,0,0,0,0,0,0,0,0,0,0,0,0,0,0,
IN-KA-23,Magadi Wetland,Karnataka,,192,Non Officially Protected,NA,NA,NA,NA,,1,0,0,0,0,1,0,0,"Globally threatened species, Congregations: Site known or thought to hold, on a regular basis, > 20,000 water birds or > 10,000 pairs of seabirds of one or more species (A1, A4iii)",0,0,0,0,0,0,0,0,1,0,0,0,0,0,0,0,0,0,0,0,0,0,0,0,0,0,0,0,0,0,0,0,0,0,0,0,0,0,0,0,0,0,0,0,0,0,0,0,0,0,0,0,0,0,0,0,0,0,0,0,0,0,0,0,0,0,0,0,0,0,0,0,0,0,0,0,0,0,0,0,0,0,0,0,0,0,0,0,"	,	,"
IN-KA-24,Melkote Temple,Karnataka,Mandya,4982,Wildlife Sanctuary,NA,NA,NA,NA,,1,0,0,0,0,0,0,0,Globally threatened species (A1),0,0,0,0,0,0,0,1,0,0,0,0,0,0,0,0,0,0,0,0,0,0,0,0,0,0,0,0,0,0,0,0,0,0,0,0,0,0,0,0,0,0,0,0,0,0,0,0,0,0,0,0,0,0,0,0,0,0,0,0,0,0,0,0,0,0,0,0,0,0,0,0,0,0,0,0,0,0,0,0,0,0,0,0,0,0,0,0,
IN-KA-25,Nagarahole,Karnataka,"Mysore, Kodagu",64339,National Park,12.0229466,76.2286805,NA,NA,,1,1,1,0,0,0,0,0,"Globally threatened species, Restricted range species, Biome-restricted assemblage (A1, A2, A3)",0,0,0,0,0,0,1,0,0,0,0,0,0,0,0,1,0,0,0,0,0,0,0,0,0,0,0,0,0,0,0,0,0,0,0,0,0,0,0,0,0,0,0,0,0,0,0,0,0,0,0,0,0,0,0,0,0,0,0,0,0,0,0,0,0,0,0,0,0,0,0,0,0,0,0,0,0,0,0,0,0,0,0,0,0,0,0,0,"	,	,"
IN-KA-26,Nandi Hills,Karnataka,Koller,8.9,Non Officially Protected,13.3700061,77.6847849,NA,NA,,1,1,1,0,0,0,0,0,"Globally threatened species, Restricted range species, Biome-restricted assemblage (A1, A2, A3)",0,0,0,0,0,0,1,1,0,0,0,0,0,0,0,0,0,0,0,0,0,0,0,0,0,0,0,0,0,0,0,0,0,0,0,0,0,0,0,0,0,0,0,0,0,0,0,0,0,0,0,0,0,0,0,0,0,0,0,0,0,0,0,0,0,0,0,0,0,0,0,0,0,0,0,0,0,0,0,0,0,0,0,0,0,0,0,0,"	,	,	,"
IN-KA-27,Narasimabudhi Lake,Karnataka,Mysore,809,Non Officially Protected,NA,NA,NA,NA,,1,0,0,1,0,0,0,0,"Globally threatened species, Congregations: Site known or thought to hold, on a regular basis, > 1% of a bio-geographic population of a congregatory waterbird species (A1, A4i)",0,0,0,0,0,0,0,0,1,0,0,0,0,0,0,0,0,0,0,0,0,0,0,0,0,0,0,0,0,0,0,0,0,0,0,0,0,0,0,0,0,0,0,0,0,0,0,0,0,0,0,0,0,0,0,0,0,0,0,0,0,0,0,0,0,0,0,0,0,0,0,0,0,0,0,0,0,0,0,0,0,0,0,0,0,0,0,0,"	,	,"
IN-KA-28,Pushpagiri,Karnataka,Kodagu and Dakshina Kannada,10292,Wildlife Sanctuary,12.9297622,77.5333268,NA,NA,,1,1,1,0,0,0,0,0,"Globally threatened species, Restricted range species, Biome-restricted assemblage (A1, A2, A3)",1,1,0,0,0,0,0,0,0,0,0,0,0,0,0,0,0,1,0,0,0,0,0,0,0,0,0,0,0,0,0,0,0,0,0,0,0,0,0,0,0,0,0,0,0,0,0,0,0,0,0,0,0,0,0,0,0,0,0,0,0,0,1,0,0,0,0,0,0,0,0,0,0,0,0,0,0,0,0,0,0,0,0,0,0,0,0,0,"	,	,	,"
IN-KA-29,Ramanagara State,Karnataka,Bangalore,Not Defined,Non Officially Protected,NA,NA,NA,NA,,1,1,0,0,0,0,0,0,"Globally threatened species, Restricted range species (A1, A2)",0,0,0,0,0,0,0,0,0,0,0,0,0,0,0,0,0,0,0,0,0,0,0,0,0,0,0,0,0,0,0,0,0,0,0,0,0,0,0,0,0,0,0,0,0,0,0,0,0,0,1,0,0,0,0,0,0,0,0,0,0,0,0,0,0,0,0,0,0,0,0,0,0,0,0,0,0,0,0,0,0,0,0,0,0,0,0,0,"	,	,"
IN-KA-30,Ranebennur Blackbuck,Karnataka,Dharwad,11900,Wildlife Sanctuary,NA,NA,NA,NA,,1,0,0,0,0,0,0,0,Globally threatened species (A1),0,0,0,0,0,0,0,0,0,0,0,0,0,0,0,0,0,0,0,0,0,0,0,0,0,0,0,0,0,0,0,0,0,0,0,0,0,0,0,0,0,0,0,0,0,0,0,0,0,0,1,0,0,0,0,0,0,0,0,0,0,0,0,0,0,0,0,0,0,0,0,0,0,0,0,0,0,0,0,0,0,0,0,0,0,0,0,0,
IN-KA-31,Ranganathitoo,Karnataka,Mysore,68,Wildlife Sanctuary,NA,NA,NA,NA,,1,0,0,1,0,0,0,0,"Globally threatened species, Congregations: Site known or thought to hold, on a regular basis, > 1% of a bio-geographic population of a congregatory waterbird species (A1, A4i)",0,0,0,0,0,0,0,0,0,0,0,0,0,0,0,0,0,0,0,0,0,0,1,0,0,0,0,0,0,0,0,0,0,0,0,0,0,0,0,0,0,0,0,0,0,0,0,0,0,0,0,0,0,0,0,0,0,0,0,0,0,0,0,0,0,0,0,0,0,0,0,0,0,0,0,0,0,0,0,0,0,0,0,0,0,0,0,0,"	,	,"
IN-KA-32,Shravathi Valley,Karnataka,Shimoga,43123,Wildlife Sanctuary,NA,NA,NA,NA,,1,1,1,0,0,0,0,0,"Globally threatened species, Restricted range species, Biome-restricted assemblage (A1, A2, A3)",1,1,0,0,0,0,0,0,0,0,0,0,0,0,0,1,0,0,0,0,0,0,0,0,0,0,0,0,0,0,0,0,0,0,0,0,0,0,0,0,0,0,0,0,0,0,0,0,0,0,0,0,0,0,0,0,0,0,0,0,0,0,0,0,0,0,0,0,0,0,0,0,0,0,0,0,0,0,0,0,0,0,0,0,0,0,0,0,"	,	,	,"
IN-KA-33,Someshwara,Karnataka,Udipi,8840,Wildlife Sanctuary,13.4907662,75.0675281,NA,NA,,1,1,1,0,0,0,0,0,"Globally threatened species, Restricted range species, Biome-restricted assemblage (A1, A2, A3)",0,1,0,1,0,0,0,0,0,0,0,0,0,1,0,0,0,0,0,0,0,0,0,0,0,0,0,0,0,0,0,0,0,0,0,0,0,0,0,0,0,0,0,0,0,0,0,0,0,0,0,0,0,0,0,0,0,0,0,0,0,0,0,0,0,0,0,0,0,0,0,0,0,0,0,0,0,0,0,0,0,0,0,0,0,0,0,0,"	,	,	,"
IN-KA-34,Sulekere Lake,Karnataka,Mandya,500,Non Officially Protected,13.3057923,76.3065725,12.67,76.83,,1,0,0,1,0,1,0,0,"Globally threatened species, Congregations: Site known or thought to hold, on a regular basis, > 1% of a bio-geographic population of a congregatory waterbird species, Congregations: Site known or thought to hold, on a regular basis, > 20,000 water birds or > 10,000 pairs of seabirds of one or more species (A1, A4i, A4iii)",0,0,0,0,0,0,0,0,1,0,0,0,0,0,0,0,0,0,0,0,0,0,0,0,0,0,0,0,0,0,0,0,0,0,0,0,0,0,0,0,0,0,0,0,0,0,0,0,0,0,0,0,0,0,0,0,0,0,0,0,0,0,0,0,0,0,0,0,0,0,0,0,0,0,0,0,0,0,0,0,0,0,0,0,0,0,0,0,"	,	,"
IN-KA-35,Talakaveri,Karnataka,Kodagu,10501,Wildlife Sanctuary,12.3858456,75.4930074,NA,NA,,1,1,0,0,0,0,0,0,"Globally threatened species, Restricted range species (A1, A2)",0,1,0,0,0,0,0,0,0,0,0,0,0,1,0,1,0,0,0,0,0,0,0,0,0,0,0,0,0,0,0,0,0,0,0,0,0,0,0,0,0,0,0,0,0,0,0,0,0,0,1,0,0,0,0,0,0,0,0,0,0,0,0,0,0,0,0,0,0,0,0,0,0,0,0,0,0,0,0,0,0,0,0,0,0,0,0,0,"	,	,	,"
IN-KA-36,Arabhithittu,Karnataka,Mysore,1350,Wildlife Sanctuary,NA,NA,NA,NA,,0,0,0,0,0,0,0,1,Data deficient (DD),0,0,0,0,0,0,1,0,0,0,0,0,0,0,0,0,0,0,0,0,0,0,0,0,0,0,0,0,0,0,0,0,0,0,0,0,0,0,0,0,0,0,0,0,0,0,0,0,0,0,0,0,0,0,0,0,0,0,0,0,0,0,0,0,0,0,0,0,0,0,0,0,0,0,0,0,0,0,0,0,0,0,0,0,0,0,0,0,"	,	,"
IN-KA-37,Shettiahalli,Karnataka,Shimoga,39560,Wildlife Sanctuary,NA,NA,NA,NA,,1,0,1,0,0,0,0,0,"Globally threatened species, Biome-restricted assemblage (A1, A3)",0,1,0,0,0,0,0,0,0,0,0,0,0,0,0,0,0,0,0,0,0,0,0,0,0,0,0,0,0,0,0,0,0,0,0,0,0,0,0,0,0,0,0,0,0,0,0,0,0,0,0,0,0,0,0,0,0,0,0,0,0,0,0,0,1,0,0,0,0,0,0,0,0,0,0,0,0,0,0,0,0,0,0,0,0,0,0,0,"	,	,	,	,	,"
IN-KL-01,Amarambalam - Nilambur,Kerala,Malapuram,26572,Non Officially Protected,NA,NA,NA,NA,,1,1,1,0,0,0,0,0,"Globally threatened species, Restricted range species, Biome-restricted assemblage (A1, A2, A3)",0,1,0,0,0,0,0,0,0,0,0,0,0,1,0,1,0,0,0,0,0,0,0,0,0,0,0,0,0,0,0,0,0,0,0,0,0,0,0,0,0,0,0,0,0,0,0,0,0,0,0,0,0,0,0,0,0,0,0,0,0,0,0,0,0,0,0,0,0,0,0,0,0,0,0,0,0,0,0,0,0,0,0,0,0,0,0,0,"	,	,"
IN-KL-02,Aralam,Kerala,Kannur,5500,Wildlife Sanctuary,11.9500432,75.7326167,NA,NA,,1,1,0,0,0,0,0,0,"Globally threatened species, Restricted range species (A1, A2)",1,1,0,0,0,0,0,0,0,0,0,0,0,0,0,0,0,0,0,0,0,0,0,0,0,0,0,0,0,0,0,0,0,0,0,0,0,0,0,0,0,0,0,0,0,0,0,0,0,0,0,0,0,0,0,0,0,0,0,0,0,0,0,0,0,0,0,0,0,0,0,0,0,0,0,0,0,0,0,0,0,0,0,0,0,0,0,0,"	,	,	,	,"
IN-KL-03,Chimmony,Kerala,Trichur,9000,Wildlife Sanctuary,NA,NA,NA,NA,,1,1,1,0,0,0,0,0,"Globally threatened species, Restricted range species, Biome-restricted assemblage (A1, A2, A3)",1,0,0,0,0,0,0,0,0,0,0,0,0,0,0,0,0,0,0,0,0,0,0,0,0,0,0,0,0,0,0,0,0,0,0,0,0,0,0,0,0,0,0,0,0,1,0,0,0,0,0,0,0,0,0,0,0,0,0,0,0,0,0,0,0,0,0,0,0,0,0,0,0,0,0,0,0,0,0,0,0,0,0,0,0,0,0,0,"	,	,	,	,"
IN-KL-05,Eravikulam,Kerala,Idukki,9700,National Park,10.2272022,77.1403361,NA,NA,,1,1,1,0,0,0,0,0,"Globally threatened species, Restricted range species, Biome-restricted assemblage (A1, A2, A3)",0,0,0,0,0,0,0,0,0,0,0,0,0,0,0,0,0,0,0,0,0,1,0,1,0,0,0,0,0,0,0,0,0,0,0,0,0,0,0,0,0,0,0,0,0,0,0,0,0,0,0,0,0,0,0,0,0,0,0,0,0,0,0,0,0,0,0,0,0,0,0,0,0,0,0,0,0,0,0,0,0,0,0,0,0,0,0,0,"	,	,	,"
IN-KL-06,Idukki,Kerala,Idukki,7000,Wildlife Sanctuary,9.81390505,77.00702563,NA,NA,,1,1,0,0,0,0,0,0,"Globally threatened species, Restricted range species (A1, A2)",0,1,0,0,0,0,0,1,0,0,0,0,0,0,0,0,0,0,0,0,0,0,0,0,0,0,0,0,0,0,0,0,0,0,0,0,0,0,0,0,0,0,0,0,0,0,0,0,0,0,0,0,0,0,0,0,0,0,0,0,0,0,0,0,0,0,0,0,0,0,0,0,0,0,0,0,0,0,0,0,0,0,0,0,0,0,0,0,"	,	,	,	,"
IN-KL-07,Kattampally,Kerala,Kannur,750,Non Officially Protected,11.9347246,75.3747861,11.92,75.33,,1,0,0,0,0,0,0,0,Globally threatened species (A1),0,0,0,0,0,0,0,0,1,0,0,0,0,0,0,0,1,0,0,0,0,0,0,0,0,0,0,0,0,0,0,0,0,0,0,0,0,0,0,0,0,0,1,0,0,0,0,0,0,0,0,0,0,0,0,0,0,0,0,0,0,0,0,0,0,0,0,0,0,0,0,0,0,0,0,0,0,0,0,0,0,0,0,0,0,0,0,0,"	,	,"
IN-KL-08,Kole,Kerala,Trichur and Malappuram,13632,Non Officially Protected,10.53929725,76.13733739,NA,NA,,1,0,0,1,0,1,0,0,"Globally threatened species, Congregations: Site known or thought to hold, on a regular basis, > 1% of a bio-geographic population of a congregatory waterbird species, Congregations: Site known or thought to hold, on a regular basis, > 20,000 water birds or > 10,000 pairs of seabirds of one or more species (A1, A4i, A4iii)",0,0,0,0,0,0,0,0,1,0,0,0,0,0,0,0,0,0,0,0,0,0,0,0,0,0,0,0,0,0,0,0,0,0,0,0,0,0,0,0,0,0,0,0,0,0,0,0,0,0,0,0,0,0,0,0,0,0,0,0,0,0,0,0,0,0,0,0,0,0,0,0,0,0,0,0,0,0,0,0,0,0,0,0,0,0,0,0,"	,	,"
IN-KL-09,Konni,Kerala,Quilon and Pathanamthitta,33116,Non Officially Protected,9.2269459,76.8497247,NA,NA,,1,1,0,0,0,0,0,0,"Globally threatened species, Restricted range species (A1, A2)",0,1,0,1,0,0,0,0,0,0,0,0,0,1,0,1,0,0,0,0,0,0,0,0,0,0,0,0,0,0,0,0,0,0,0,0,0,0,0,0,0,0,0,0,0,0,0,0,0,0,0,0,0,0,0,0,0,0,0,0,0,0,0,0,0,0,0,0,0,0,0,0,0,0,0,0,0,0,0,0,0,0,0,0,0,0,0,0,"	,	,"
IN-KL-10,Kottiyoor,Kerala,Kannur,3500,Non Officially Protected,11.8736413,75.8647436,NA,NA,,1,1,1,0,0,0,0,0,"Globally threatened species, Restricted range species, Biome-restricted assemblage (A1, A2, A3)",0,1,0,0,0,0,0,0,0,0,0,0,0,1,0,0,0,0,0,0,0,0,0,0,0,0,0,0,0,0,0,0,0,0,0,0,0,0,0,0,0,0,0,0,0,0,0,0,0,0,0,0,0,0,0,0,0,0,0,0,0,0,0,0,0,0,0,0,0,0,0,0,0,0,0,0,0,0,0,0,0,0,0,0,0,0,0,0,"	,	,	,	,"
IN-KL-11,Kulathupuzha,Kerala,Kollam (Quilon),21900,Non Officially Protected,8.8977495,77.0558688,NA,NA,,1,1,0,0,0,0,0,0,"Globally threatened species, Restricted range species(A1, A2)",1,1,0,0,0,0,0,0,0,0,0,0,0,0,0,0,0,0,0,0,0,0,0,0,0,0,0,0,0,0,0,0,0,0,0,0,0,0,0,0,0,0,0,0,0,0,0,0,0,0,0,0,0,0,0,0,0,0,0,0,0,0,0,0,0,0,0,0,0,0,0,0,0,0,0,0,0,0,0,0,0,0,0,0,0,0,0,0,"	,	,	,"
IN-KL-12,Nelliyampathy,Kerala,Palghat,20005,Non Officially Protected,10.5349244,76.6932494,NA,NA,,1,1,0,0,0,0,0,0,"Globally threatened species, Restricted range species (A1, A2)",0,0,0,0,0,0,0,0,0,0,0,0,0,1,0,0,0,0,0,0,0,0,0,0,0,0,0,0,0,0,0,0,0,0,0,0,0,0,0,0,0,0,0,0,0,0,0,0,0,0,0,0,0,0,0,0,0,0,0,0,0,0,0,0,0,0,0,0,0,0,0,0,0,0,0,0,0,0,0,0,0,0,0,0,0,0,0,0,"	,	,"
IN-KL-13,Neyyar,Kerala,Thiruvanthapuram,12800,Wildlife Sanctuary,8.53506005,77.14534834,NA,NA,,1,1,1,0,0,0,0,0,"Globally threatened species, Restricted range species, Biome-restricted assemblage (A1, A2, A3)",1,1,0,0,0,0,0,0,0,0,0,0,0,0,0,1,0,0,0,0,0,0,0,0,0,0,0,0,0,0,0,0,0,0,0,0,0,0,0,0,0,0,0,0,0,0,0,0,0,0,0,0,0,0,0,0,0,0,0,0,0,0,0,0,0,0,0,0,0,0,0,0,0,0,0,0,0,0,0,0,0,0,0,0,0,0,0,0,"	,	,"
IN-KL-14,Parambikulam,Kerala,Palghat,28500,Wildlife Sanctuary,10.441,76.733,NA,NA,,1,1,1,0,0,0,0,0,"Globally threatened species, Restricted range species, Biome-restricted assemblage (A1, A2, A3)",1,1,0,0,0,0,1,0,0,0,0,0,0,0,0,1,0,0,0,0,0,0,0,0,0,0,0,0,0,0,0,0,0,0,0,0,0,0,0,0,0,0,0,0,0,0,0,0,0,0,0,0,0,0,0,0,0,0,0,0,0,0,0,0,0,0,0,0,0,0,0,0,0,0,0,0,0,0,0,0,0,0,0,0,0,0,0,0,"	,	,	,	,"
IN-KL-15,Peechi - Vazhani,Kerala,Trichur,12500,Wildlife Sanctuary,NA,NA,NA,NA,,1,1,1,0,0,0,0,0,"Globally threatened species, Restricted range species, Biome-restricted assemblage (A1, A2, A3)",1,1,0,0,0,0,0,0,0,0,0,0,0,0,0,0,0,0,0,0,0,0,0,0,0,0,0,0,0,0,0,0,0,0,0,0,0,0,0,0,0,0,0,0,0,0,0,0,0,0,0,0,0,0,0,0,0,0,0,0,0,0,0,0,0,1,0,0,0,0,0,0,0,0,0,0,0,0,0,0,0,0,0,0,0,0,0,0,"	,	,"
IN-KL-16,Peppara,Kerala,Trivandrum,5300,Wildlife Sanctuary,NA,NA,NA,NA,,1,1,0,0,0,0,0,0,"Globally threatened species, Restricted range species (A1, A2)",0,1,0,1,0,0,0,0,0,0,0,0,0,1,0,1,0,0,0,0,0,0,0,0,0,0,0,0,0,0,0,0,0,0,0,0,0,0,0,0,0,0,0,0,0,0,0,0,0,0,0,0,0,0,0,0,0,0,0,0,0,0,0,0,0,0,0,0,0,0,0,0,0,0,0,0,0,0,0,0,0,0,0,0,0,0,0,0,"	,	,	,	,"
IN-KL-17,Periyar,Kerala,Idukki,77700,Tiger Reserve,10.1715831,76.4608813,NA,NA,,1,1,1,0,0,0,0,0,"Globally threatened species, Restricted range species, Biome-restricted assemblage (A1, A2, A3)",1,0,0,0,0,0,0,0,1,0,0,0,0,0,0,0,0,0,0,0,0,0,0,0,0,0,0,0,0,0,0,0,0,0,0,0,0,0,0,0,0,0,0,0,0,0,0,0,0,0,0,0,0,0,0,0,0,0,0,0,0,0,0,0,0,0,0,0,0,0,0,0,0,0,0,0,0,0,0,0,0,0,0,0,0,0,0,0,
IN-KL-18,Ranni,Kerala,Quilon,87738,Non Officially Protected,9.3852605,76.7848789,NA,NA,,1,1,0,0,0,0,0,1,"Globally threatened species, Restricted range species, Data deficient (A1, A2, DD)",0,1,0,0,0,0,0,0,0,0,0,0,0,1,0,1,0,0,0,0,0,0,0,0,0,0,0,0,0,0,0,0,0,0,0,0,0,0,0,0,0,0,0,0,0,0,0,0,0,0,0,0,0,0,0,0,0,0,0,0,0,0,0,0,0,0,0,0,0,0,0,0,0,0,0,0,0,0,0,0,0,0,0,0,0,0,0,0,"	,	,"
IN-KL-19,Shendurney,Kerala,Quilon,10032,Wildlife Sanctuary,NA,NA,NA,NA,,1,1,1,0,0,0,0,0,"Globally threatened species, Restricted range species, Biome-restricted assemblage (A1, A2, A3)",1,0,0,0,0,0,1,0,0,0,0,0,0,1,0,0,0,0,0,0,0,0,0,0,0,0,0,0,0,0,0,0,0,0,0,0,0,0,0,0,0,0,0,0,0,0,0,0,0,0,0,0,0,0,0,0,0,0,0,0,0,0,0,0,0,0,0,0,0,0,0,0,0,0,0,0,0,0,0,0,0,0,0,0,0,0,0,0,"	,	,"
IN-KL-20,Silent Valley,Kerala,Palakkad,8952,National Park,10.0794143,77.1674719,NA,NA,,1,1,1,0,0,0,0,0,"Globally threatened species, Restricted range species, Biome-restricted assemblage (A1, A2, A3)",1,0,0,0,0,0,0,0,0,0,0,0,0,0,0,0,0,0,0,0,0,0,0,0,0,0,0,0,0,0,0,0,0,0,0,0,0,0,0,0,0,0,0,0,0,0,0,0,0,0,0,0,0,0,0,0,0,0,0,0,0,0,0,0,0,0,0,0,0,0,0,0,0,0,0,0,0,0,0,0,0,0,0,0,0,0,0,0,
IN-KL-21,Thattakkad,Kerala,Idduki,2516,Wildlife Sanctuary,NA,NA,NA,NA,,1,1,1,0,0,0,0,0,"Globally threatened species, Restricted range species, Biome-restricted assemblage (A1, A2, A3)",1,1,0,0,0,0,0,0,0,0,0,0,0,0,0,1,0,0,0,0,0,0,0,0,0,0,0,0,0,0,0,0,0,0,0,0,0,0,0,0,0,0,0,0,0,0,0,0,0,0,0,0,0,0,0,0,0,0,0,0,0,0,0,0,0,0,0,0,0,0,0,0,0,0,0,0,0,0,0,0,0,0,0,0,0,0,0,0,
IN-KL-22,Vazhachal  Division,Kerala,Thrissur & Ernakulam,41300,Non Officially Protected,NA,NA,NA,NA,,1,1,1,0,0,0,0,0,"Globally threatened species, Restricted range species, Biome-restricted assemblage (A1, A2, A3)",1,0,0,0,0,0,0,0,0,0,0,0,0,1,0,1,0,0,0,0,0,0,0,0,0,0,0,0,0,0,0,0,0,0,0,0,0,0,0,0,0,0,0,0,0,0,0,0,0,0,0,0,0,0,0,0,0,0,0,0,0,0,0,0,0,0,0,0,0,0,0,0,0,0,0,0,0,0,0,0,0,0,0,0,0,0,0,0,
IN-KL-23,Vembanad Lake,Kerala,"Ernakulam, Alleppey, Kottayam, and Pathanamthitta",79400,Non Officially Protected,NA,NA,9.6,76.39,,0,0,0,1,0,1,0,0,"Congregations: Site known or thought to hold, on a regular basis, > 1% of a bio-geographic population of a congregatory waterbird species, Congregations: Site known or thought to hold, on a regular basis, > 20,000 water birds or > 10,000 pairs of seabirds of one or more species (A4i, A4iii)",0,0,1,0,0,0,0,0,1,0,0,0,0,0,0,0,0,0,0,0,0,0,0,1,0,0,0,0,0,0,0,0,0,0,0,0,0,0,0,0,0,0,0,0,0,0,0,0,0,0,0,0,0,0,0,0,0,0,0,0,0,0,0,0,0,0,0,0,0,0,0,0,0,0,0,0,0,0,0,0,0,0,0,0,0,0,0,0,"	,	,	,	,"
IN-KL-24,Wynaad,Kerala,Wynaad,34444,Wildlife Sanctuary,NA,NA,NA,NA,,1,1,1,0,0,0,0,0,"Globally threatened species, Restricted range species, Biome-restricted assemblage (A1, A2, A3)",0,0,0,0,0,0,0,0,0,0,0,0,0,0,0,1,0,0,0,0,0,0,0,0,0,0,0,0,0,0,0,0,0,0,0,0,0,0,0,0,0,0,0,0,0,0,0,0,0,0,0,0,0,0,0,0,0,0,0,0,0,0,0,0,0,0,0,0,0,0,0,0,0,0,0,0,0,0,0,0,0,0,0,0,0,0,0,0,"	,	,	,	,	,"
IN-LD-01,Pitti Island,Lakshadweep,Lakshadweep Island,1,Non Officially Protected,10.7751242,72.5343397,11,72.08,,0,0,0,0,0,1,0,0,"Congregations: Site known or thought to hold, on a regular basis, > 20,000 water birds or > 10,000 pairs of seabirds of one or more species (A4iii)",0,0,0,0,0,0,0,1,0,0,0,0,0,0,0,0,0,0,0,0,0,0,0,0,0,0,0,0,0,0,0,0,0,0,0,0,0,0,0,0,0,0,0,0,0,0,0,0,0,0,0,0,0,0,0,0,0,0,0,0,0,0,0,0,0,0,0,0,0,0,0,0,0,0,0,0,0,0,0,0,0,0,0,0,0,0,0,0,"	,	,	,"
IN-MP-01,Bandhavgarh,Madhya Pradesh,Shahdol,44885,Tiger Reserve,23.72433645,80.92805036,NA,NA,,1,0,1,0,0,0,0,0,"Globally threatened species, Biome-restricted assemblage (A1, A3)",0,0,0,1,0,0,0,0,0,0,0,0,0,0,0,1,0,0,0,0,0,0,0,0,0,0,0,0,0,0,0,0,0,0,0,0,0,0,0,0,0,0,0,0,0,0,0,0,0,0,0,0,0,0,0,0,0,0,0,0,0,0,0,0,0,0,0,0,0,0,0,0,0,0,0,0,0,0,0,0,0,0,0,0,0,0,0,0,
IN-MP-02,Barna Reservoir,Madhya Pradesh,Raisen,7690,Non Officially Protected,23.078,78.03125,23.08,78.12,,1,0,0,0,0,1,0,0,"Globally threatened species, Congregations: Site known or thought to hold, on a regular basis, > 20,000 water birds or > 10,000 pairs of seabirds of one or more species (A1, A4iii)",0,0,0,0,0,0,0,0,1,0,0,0,0,0,0,0,0,0,0,0,0,0,0,0,0,0,0,0,0,0,0,0,0,0,0,0,0,0,0,0,0,0,0,0,0,0,0,0,0,0,0,0,0,0,0,0,0,0,0,0,0,0,0,0,0,0,0,0,0,0,0,0,0,0,0,0,0,0,0,0,0,0,0,0,0,0,0,0,"	,	,"
IN-MP-03,Bhoj (Upper Lake) Wetland,Madhya Pradesh,Bhopal,3072,Non Officially Protected,NA,NA,NA,NA,,1,0,0,1,0,1,0,0,"Globally threatened species, Congregations: Site known or thought to hold, on a regular basis, > 1% of a bio-geographic population of a congregatory waterbird species, Congregations: Site known or thought to hold, on a regular basis, > 20,000 water birds or > 10,000 pairs of seabirds of one or more species (A1, A4i, A4iii)",0,0,0,0,0,0,1,1,1,0,0,0,0,0,0,0,0,0,0,0,0,0,0,0,0,0,0,0,0,0,0,0,0,0,0,0,0,0,0,0,0,0,0,0,0,0,0,0,0,0,0,0,0,0,0,0,0,0,0,0,0,0,0,0,0,0,0,0,0,0,0,0,0,0,0,0,0,0,0,0,0,0,0,0,0,0,0,0,"	,	,	,"
IN-MP-04,Bori,Madhya Pradesh,Hoshangabad,48572,Wildlife Sanctuary,NA,NA,NA,NA,,1,0,1,0,0,0,0,0,"Globally threatened species, Biome-restricted assemblage (A1, A3)",0,0,0,0,0,0,1,0,0,0,0,0,0,0,0,0,0,0,0,0,0,0,0,0,0,0,0,0,0,0,0,0,0,0,0,0,0,0,0,0,0,0,0,0,0,0,0,0,0,0,0,0,0,0,0,0,0,0,0,0,0,0,0,0,0,0,0,0,0,0,0,0,0,0,0,0,0,0,0,0,0,0,0,0,0,0,0,0,"	,	,	,"
IN-MP-05,Dihaila Jheel,Madhya Pradesh,Shivpuri,371,Non Officially Protected,NA,NA,NA,NA,,1,0,0,1,0,1,0,0,"Globally threatened species, Congregations: Site known or thought to hold, on a regular basis, > 1% of a bio-geographic population of a congregatory waterbird species, Congregations: Site known or thought to hold, on a regular basis, > 20,000 water birds or > 10,000 pairs of seabirds of one or more species (A1, A4i, A4iii)",0,0,0,0,0,0,0,0,1,0,0,0,0,0,0,0,0,0,0,0,0,0,0,0,0,0,0,0,0,0,0,0,0,0,0,0,0,0,0,0,0,0,0,0,0,0,0,0,0,0,0,0,0,0,0,0,0,0,0,0,0,0,0,0,0,0,0,0,0,0,0,0,0,0,0,0,0,0,0,0,0,0,0,0,0,0,0,0,"	,	,"
IN-MP-06,Gandhi Sagar Reservoir,Madhya Pradesh,"Neemuch, Mandsaur",36862,Non Officially Protected,24.43988275,75.51067117,NA,NA,,0,0,0,0,1,1,0,0,"Congregations: Site known or thought to hold, on a regular basis, > 1% of a bio-geographic population of a congregatory seabird or terrestrial species, Congregations: Site known or thought to hold, on a regular basis, > 20,000 water birds or > 10,000 pairs of seabirds of one or more species (A4ii, A4iii)",0,0,0,0,0,0,0,0,0,0,0,0,0,0,0,0,0,0,0,0,0,0,0,0,0,0,0,0,0,0,0,1,0,0,0,0,0,0,0,0,0,0,0,0,0,0,0,0,0,0,0,0,0,0,0,0,0,0,0,0,0,0,0,0,0,0,1,0,0,0,0,0,0,0,0,0,0,0,0,0,0,0,0,0,0,0,0,0,
IN-MP-07,Ghatigaon Bustard,Madhya Pradesh,Gwalior,51100,Wildlife Sanctuary,NA,NA,NA,NA,,1,0,0,0,0,0,0,0,Globally threatened species (A1),0,0,0,0,0,0,1,0,0,0,0,0,0,0,0,0,0,0,0,0,0,0,0,0,0,0,0,0,0,0,0,0,0,0,0,0,0,0,0,0,0,0,0,0,0,0,0,0,0,1,0,0,0,0,0,0,0,0,0,0,0,0,0,0,0,0,0,0,0,0,0,0,0,0,0,0,0,0,0,0,0,0,0,0,0,0,0,0,"	,	,"
IN-MP-08,Halali Reservoir,Madhya Pradesh,"Bhopal, Raisen",2528,Non Officially Protected,NA,NA,23.5,77.5,,1,0,0,0,0,1,0,0,"Globally threatened species, Congregations: Site known or thought to hold, on a regular basis, > 20,000 water birds or > 10,000 pairs of seabirds of one or more species (A1, A4iii)",0,0,0,0,0,0,0,0,1,0,0,0,0,0,0,0,0,0,0,0,0,0,0,0,0,0,0,0,0,0,0,0,0,0,0,0,0,0,0,0,0,0,0,0,0,0,0,0,0,0,0,0,0,0,0,0,0,0,0,0,0,0,0,0,0,0,0,0,0,0,0,0,0,0,0,0,0,0,0,0,0,0,0,0,0,0,0,0,
IN-MP-09,Kanha,Madhya Pradesh,Mandla & Balaghat,94000,Tiger Reserve,22.2766989,80.6300919,NA,NA,,1,0,0,0,0,0,0,0,Globally threatened species (A1),0,0,0,1,0,0,0,0,0,0,0,0,0,0,0,1,0,0,0,0,0,0,0,0,0,0,0,0,0,0,0,0,0,0,0,0,0,0,0,0,0,0,0,0,0,0,0,0,0,0,0,0,0,0,0,0,0,0,0,0,0,0,0,0,0,0,0,0,0,0,0,0,0,0,0,0,0,0,0,0,0,0,0,0,0,0,0,0,
IN-MP-10,Madhav,Madhya Pradesh,Shivpuri,37522,National Park,26.2088589,78.1881093,NA,NA,,1,0,0,0,0,0,0,0,Globally threatened species (A1),0,0,0,0,0,0,1,0,0,0,0,0,0,0,0,0,0,0,0,0,0,0,0,0,0,0,0,0,0,0,0,0,0,0,0,0,0,0,0,0,0,0,0,0,0,0,0,0,0,0,0,0,0,0,0,0,0,0,0,0,0,0,0,0,0,0,0,0,0,0,0,0,0,0,0,0,0,0,0,0,0,0,0,0,0,0,0,0,
IN-MP-11,Panna,Madhya Pradesh,"Panna, Chhattarpur",54267,Tiger Reserve,24.5,80.25,NA,NA,,1,0,0,0,0,0,0,0,Globally threatened species (A1),0,0,0,0,0,0,1,0,0,0,0,0,0,0,0,0,0,0,0,0,0,0,0,0,0,0,0,0,0,0,0,0,0,0,0,0,0,0,0,0,0,0,0,0,0,0,0,0,0,0,0,0,0,0,0,0,0,0,0,0,0,0,0,0,0,0,0,0,0,0,0,0,0,0,0,0,0,0,0,0,0,0,0,0,0,0,0,0,"	,	,"
IN-MP-12,Pench,Madhya Pradesh,Seoni and Chhindwara,75789,Tiger Reserve,21.8854685,79.1877054,NA,NA,,1,0,0,0,0,0,0,0,Globally threatened species (A1),0,0,0,0,0,0,1,0,0,0,0,0,0,0,0,0,0,0,0,0,0,0,0,0,0,0,0,0,0,0,0,0,0,0,0,0,0,0,0,0,0,0,0,0,0,0,0,0,0,0,0,0,0,0,0,0,0,0,0,0,0,0,0,0,0,0,0,0,0,0,0,0,0,0,0,0,0,0,0,0,0,0,0,0,0,0,0,0,
IN-MP-13,Rangawa Reservoir,Madhya Pradesh,Chhattarpur,1400,Non Officially Protected,NA,NA,24.7,79.85,,0,0,0,0,0,1,0,0,"Congregations: Site known or thought to hold, on a regular basis, > 20,000 water birds or > 10,000 pairs of seabirds of one or more species (A4iii)",0,0,0,0,0,0,0,0,1,0,0,0,0,0,0,0,0,0,0,0,0,0,0,0,0,0,0,0,0,0,0,0,0,0,0,0,0,0,0,0,0,0,0,0,0,0,0,0,0,0,0,0,0,0,0,0,0,0,0,0,0,0,0,0,0,0,0,0,0,0,0,0,0,0,0,0,0,0,0,0,0,0,0,0,0,0,0,0,"	,	,"
IN-MP-14,Ratapani,Madhya Pradesh,"Raisen, Sehore",82384,Wildlife Sanctuary,NA,NA,NA,NA,,1,0,0,0,0,1,0,0,"Globally threatened species, Congregations: Site known or thought to hold, on a regular basis, > 20,000 water birds or > 10,000 pairs of seabirds of one or more species (A1, A4iii)",0,0,0,0,0,0,1,0,1,0,0,0,0,0,0,1,0,0,0,0,0,0,0,0,0,0,0,0,0,0,0,0,0,0,0,0,0,0,0,0,0,0,0,0,0,0,0,0,0,0,0,0,0,0,0,0,0,0,0,0,0,0,0,0,0,0,0,0,0,0,0,0,0,0,0,0,0,0,0,0,0,0,0,0,0,0,0,0,
IN-MP-15,Sailana Kharmor,Madhya Pradesh,Ratlam,1296,Wildlife Sanctuary,NA,NA,NA,NA,,1,0,0,0,0,0,0,0,Globally threatened species (A1),0,0,0,1,0,0,0,0,0,0,0,0,0,0,0,0,0,0,0,0,0,0,0,0,0,0,0,0,0,0,0,0,0,0,0,0,0,0,0,0,0,0,0,0,0,0,0,0,0,0,0,0,0,0,0,0,0,0,0,0,0,0,0,0,0,0,0,0,0,0,0,0,0,0,0,0,0,0,0,0,0,0,0,0,0,0,0,0,"	,	,"
IN-MP-16,Sardarpur,Madhya Pradesh,Dhar,34812,Wildlife Sanctuary,22.6780194,74.9483709,NA,NA,,1,0,0,0,0,0,0,0,Globally threatened species (A1),0,0,0,1,0,0,0,0,0,0,0,0,0,0,0,0,0,0,0,0,0,0,0,0,0,0,0,0,0,0,0,0,0,0,0,0,0,0,0,0,0,0,0,0,0,0,0,0,0,0,0,0,0,0,0,0,0,0,0,0,0,0,0,0,0,0,0,0,0,0,0,0,0,0,0,0,0,0,0,0,0,0,0,0,0,0,0,0,"	,	,"
IN-MP-17,Yeshwantsagar Reservoir,Madhya Pradesh,Indore,14000,Non Officially Protected,NA,NA,22.82,75.68,,1,0,0,1,0,0,0,0,"Globally threatened species, Congregations: Site known or thought to hold, on a regular basis, > 1% of a bio-geographic population of a congregatory waterbird species (A1, A4i)",0,0,0,0,0,0,0,0,1,0,0,0,0,0,0,0,0,0,0,0,0,0,0,0,0,0,0,0,0,0,0,0,0,0,0,0,0,0,0,0,0,0,0,0,0,0,0,0,0,0,0,0,0,0,0,0,0,0,0,0,0,0,0,0,0,0,0,0,0,0,0,0,0,0,0,0,0,0,0,0,0,0,0,0,0,0,0,0,
IN-MH-01,Bhimashankar,Maharashtra,"Pune, Raigad, Thane",13078,Wildlife Sanctuary,19.0704302,73.537663,NA,NA,,1,1,1,0,0,0,0,0,"Globally threatened species, Restricted range species, Biome-restricted assemblage (A1, A2, A3)",0,1,0,0,0,0,0,0,0,0,0,0,0,0,0,1,0,0,0,0,0,0,0,0,0,0,0,0,0,0,0,0,0,0,0,0,0,0,0,0,0,0,0,0,0,0,0,0,0,0,0,0,0,0,0,0,0,0,0,0,0,0,0,0,0,0,0,0,0,0,0,0,0,0,0,0,0,0,0,0,0,0,0,0,0,0,0,0,"	,	,"
IN-MH-02,Burnt Island (Bandra) Vengurla,Maharashtra,Sindhudurga,Not Defined,Non Officially Protected,NA,NA,NA,NA,,0,0,1,0,0,1,0,0,"Biome-restricted assemblage, Congregations: Site known or thought to hold, on a regular basis, > 20,000 water birds or > 10,000 pairs of seabirds of one or more species (A3, A4iii)",0,0,0,0,0,0,0,1,0,0,0,0,0,0,0,0,0,0,0,0,0,0,0,0,0,0,0,0,0,0,0,0,0,0,0,0,0,0,0,0,0,0,0,0,0,0,0,0,0,0,0,0,0,0,0,0,0,0,0,0,0,0,0,0,0,0,0,0,0,0,0,0,0,0,0,0,0,0,0,0,0,0,0,0,0,0,0,0,"	,	,"
IN-MH-03,Gangapur Dam and Grassland,Maharashtra,Nashik,4000,Non Officially Protected,NA,NA,NA,NA,,1,0,0,1,0,1,0,0,"Globally threatened species, Congregations: Site known or thought to hold, on a regular basis, > 1% of a bio-geographic population of a congregatory waterbird species, Congregations: Site known or thought to hold, on a regular basis, > 20,000 water birds or > 10,000 pairs of seabirds of one or more species (A1, A4i, A4iii)",0,0,0,0,0,0,0,0,1,0,0,0,0,0,0,0,0,0,0,0,0,0,0,1,0,0,0,0,0,0,0,0,0,0,0,0,0,0,0,0,0,0,0,0,0,0,0,0,0,0,0,0,0,0,0,0,0,0,0,0,0,0,0,0,0,0,0,0,0,0,0,0,0,0,0,0,0,0,0,0,0,0,0,0,0,0,0,0,
IN-MH-04,Ins Shivaji,Maharashtra,Pune & Raigad,1000,Non Officially Protected,18.7248301,73.3731956,NA,NA,,1,1,1,0,0,0,0,0,"Globally threatened species, Restricted range species, Biome-restricted assemblage (A1, A2, A3)",0,0,0,0,0,0,0,0,0,0,0,0,0,0,0,0,0,0,0,0,1,0,0,0,0,0,0,0,0,0,0,0,0,0,0,0,0,0,0,0,0,0,0,0,0,0,0,0,0,0,0,0,0,0,0,0,0,0,0,0,0,0,0,0,0,0,0,1,0,0,0,0,0,0,0,0,0,0,0,0,0,0,0,0,0,0,0,0,"	,	,"
IN-MH-05,Jaikwadi,Maharashtra,Ahmadnagar and Aurangabad,34105,Wildlife Sanctuary,NA,NA,NA,NA,,1,0,0,1,0,1,0,0,"Globally threatened species, Congregations: Site known or thought to hold, on a regular basis, > 1% of a bio-geographic population of a congregatory waterbird species, Congregations: Site known or thought to hold, on a regular basis, > 20,000 water birds or > 10,000 pairs of seabirds of one or more species (A1, A4i, A4iii)",0,0,0,0,0,0,0,0,1,0,0,0,0,0,0,0,0,0,0,0,0,0,0,0,0,0,0,0,0,0,0,0,0,0,0,0,0,0,0,0,0,0,0,0,0,0,0,0,0,0,0,0,0,0,0,0,0,0,0,0,0,0,0,0,0,0,0,0,0,0,0,0,0,0,0,0,0,0,0,0,0,0,0,0,0,0,0,0,"	,	,"
IN-MH-06,"Jawaharlal Nehru Bustard, Nannaj",Maharashtra,"Solapur, Ahmednagar",849644,Wildlife Sanctuary,NA,NA,NA,NA,,1,0,0,0,0,0,0,0,Globally threatened species (A1),0,0,0,0,0,0,0,0,0,0,0,0,0,0,0,0,0,0,0,0,0,0,0,0,0,0,0,0,0,0,0,0,0,0,0,0,0,0,0,0,0,0,0,0,0,0,0,0,0,0,1,0,0,0,0,0,0,0,0,0,0,0,0,0,0,0,0,0,0,0,0,0,0,0,0,0,0,0,0,0,0,0,0,0,0,0,0,0,"	,	,"
IN-MH-07,Koyna,Maharashtra,Satara,42652,Wildlife Sanctuary,17.5481318,73.7786014,NA,NA,,1,1,0,0,0,0,0,0,"Globally threatened species, Restricted range species (A1, A2)",0,0,0,0,0,0,0,0,0,0,0,0,0,1,0,1,0,0,0,0,0,0,0,0,0,0,0,0,0,0,0,0,0,0,0,0,0,0,0,0,0,0,0,0,0,0,0,0,0,0,0,0,0,0,0,0,0,0,0,0,0,0,0,0,0,0,0,0,0,0,0,0,0,0,0,0,0,0,0,0,0,0,0,0,0,0,0,0,"	,	,	,"
IN-MH-08,Mahul - Sewri Mudflats,Maharashtra,Mumbai,1000,Non Officially Protected,NA,NA,NA,NA,,1,0,0,1,0,1,0,0,"Globally threatened species, Congregations: Site known or thought to hold, on a regular basis, > 1% of a bio-geographic population of a congregatory waterbird species, Congregations: Site known or thought to hold, on a regular basis, > 20,000 water birds or > 10,000 pairs of seabirds of one or more species (A1, A4i, A4iii)",0,0,1,0,0,0,0,0,0,0,0,0,0,0,0,0,0,0,0,0,0,0,0,0,0,0,0,0,0,0,0,0,0,0,0,0,0,0,0,0,0,0,0,0,0,0,0,0,0,0,0,0,0,0,0,0,0,0,0,0,0,0,0,0,0,0,0,0,0,0,0,0,0,0,0,0,0,0,0,0,0,0,0,0,0,0,0,0,
IN-MH-09,Melghat and Gugamal,Maharashtra,Amravati,115003,Tiger Reserve,NA,NA,NA,NA,,1,1,1,0,0,0,0,0,"Globally threatened species, Restricted range species, Biome-restricted assemblage (A1, A2, A3)",0,0,0,1,0,0,1,0,0,0,0,0,0,0,0,0,0,0,0,0,0,0,0,0,0,0,0,0,0,0,0,0,0,0,0,0,0,0,0,0,0,0,0,0,0,0,0,0,0,0,0,0,0,0,0,0,0,0,0,0,0,0,0,0,0,0,0,0,0,0,0,0,0,0,0,0,0,0,0,0,0,0,0,0,0,0,0,0,"	,	,	,"
IN-MH-10,Nagzira,Maharashtra,Bhandara,15281,Wildlife Sanctuary,NA,NA,NA,NA,,1,0,0,0,0,0,0,0,Globally threatened species (A1),0,0,0,1,0,0,1,0,0,0,0,0,0,0,0,0,0,0,0,0,0,0,0,0,0,0,0,0,0,0,0,0,0,0,0,0,0,0,0,0,0,0,0,0,0,0,0,0,0,0,0,0,0,0,0,0,0,0,0,0,0,0,0,0,0,0,0,0,1,0,0,0,0,0,0,0,0,0,0,0,0,0,0,0,0,0,0,0,"	,	,"
IN-MH-11,Nandur Madhameshwar,Maharashtra,Nashik,10012,Wildlife Sanctuary,NA,NA,NA,NA,,1,0,0,1,0,1,0,0,"Globally threatened species, Congregations: Site known or thought to hold, on a regular basis, > 1% of a bio-geographic population of a congregatory waterbird species, Congregations: Site known or thought to hold, on a regular basis, > 20,000 water birds or > 10,000 pairs of seabirds of one or more species (A1, A4i, A4iii)",0,0,0,0,0,0,1,0,1,0,0,0,0,0,0,0,0,0,0,0,0,0,0,0,0,0,0,0,0,0,0,0,0,0,0,0,0,0,0,0,0,0,0,0,0,0,0,0,0,0,0,0,0,0,0,0,0,0,0,0,0,0,0,0,0,0,0,0,0,0,0,0,0,0,0,0,0,0,0,0,0,0,0,0,0,0,0,0,"	,	,"
IN-MH-12,Nawegaon,Maharashtra,Bhandara and Gondia,13388,National Park,20.8318208,79.3796007,NA,NA,,1,0,1,0,0,0,0,0,"Globally threatened species, Biome-restricted assemblage (A1, A3)",0,0,0,0,0,0,1,0,1,0,0,0,0,0,0,0,0,0,0,0,0,0,0,0,0,0,0,0,0,0,0,0,0,0,0,0,0,0,0,0,0,0,0,0,0,0,0,0,0,0,0,0,0,0,0,0,0,1,0,0,0,0,0,0,0,0,0,0,0,0,0,0,0,0,0,0,0,0,0,0,0,0,0,0,0,0,0,0,"	,	,"
IN-MH-13,"Ozar, Wani",Maharashtra,Nashik,20000,Non Officially Protected,NA,NA,NA,NA,,1,0,0,0,0,0,0,0,Globally threatened species (A1),0,0,0,0,0,0,0,0,0,0,0,0,0,0,0,0,0,0,0,0,0,0,0,0,0,0,0,0,0,0,0,0,0,0,0,0,0,0,0,0,0,0,0,0,0,0,0,0,0,0,1,0,0,0,0,0,0,0,0,0,0,0,0,0,0,0,0,0,0,0,0,0,0,0,0,0,0,0,0,0,0,0,0,0,0,0,0,0,
IN-MH-14,Radhanagari,Maharashtra,Kolhapur,35116,Wildlife Sanctuary,16.6103675,74.1608371,NA,NA,,1,1,1,0,0,0,0,0,"Globally threatened species, Restricted range species, Biome-restricted assemblage (A1, A2, A3)",0,1,0,0,0,0,0,0,0,0,0,0,0,1,0,1,0,0,0,0,0,0,0,0,0,0,0,0,0,0,0,0,0,0,0,0,0,0,0,0,0,0,0,0,0,0,0,0,0,0,0,0,0,0,0,0,0,0,0,0,0,0,0,0,0,0,0,0,0,0,0,0,0,0,0,0,0,0,0,0,0,0,0,0,0,0,0,0,
IN-MH-15,Sanjay Gandhi and Tungareshwar,Maharashtra,Mumbai and Thane,10308,National Park,NA,NA,NA,NA,,1,1,1,0,0,0,0,0,"Globally threatened species, Restricted range species, Biome-restricted assemblage (A1, A2, A3)",0,0,0,0,0,0,0,0,1,0,0,0,0,1,0,1,0,0,0,0,0,0,0,0,0,0,0,0,0,0,0,0,0,0,0,0,0,0,0,0,0,0,0,0,0,0,0,0,0,0,0,0,0,0,0,0,0,0,0,0,0,0,0,0,0,0,0,0,0,0,0,0,0,0,0,0,0,0,0,0,0,0,0,0,0,0,0,0,
IN-MH-16,Tadoba and Andheri,Maharashtra,Chandrapur,11655,Tiger Reserve,NA,NA,NA,NA,,1,0,1,0,0,0,0,0,"Globally threatened species, Biome-restricted assemblage (A1, A3)",1,0,0,0,0,0,1,0,1,0,0,0,0,0,0,0,0,0,0,0,0,0,0,0,0,0,0,0,0,0,0,0,0,0,0,0,0,0,0,0,0,0,0,0,0,0,0,0,0,0,0,0,0,0,0,0,0,0,0,0,0,0,0,0,0,0,0,0,0,0,0,0,0,0,0,0,0,0,0,0,0,0,0,0,0,0,0,0,
IN-MH-17,Talodas,Maharashtra,Nandurbar,Not Defined,Non Officially Protected,NA,NA,NA,NA,,1,1,0,0,0,0,0,0,"Globally threatened species, Restricted range species (A1,A2)",0,0,0,0,0,0,1,0,0,0,0,0,0,0,0,0,0,0,0,0,0,0,0,0,0,0,0,0,0,0,0,0,0,0,0,0,0,0,0,0,0,0,0,0,0,0,0,0,0,0,0,0,0,0,0,0,0,0,0,0,0,0,0,0,0,0,0,0,0,0,0,0,0,0,0,0,0,0,0,0,0,0,0,0,0,0,0,0,"	,	,"
IN-MH-18,Tansa,Maharashtra,Thane,30481,Wildlife Sanctuary,19.4782126,72.9388325,NA,NA,,1,0,1,0,0,0,0,0,"Globally threatened species, Biome-restricted assemblage (A1, A3)",0,0,0,0,0,0,1,0,0,0,0,0,0,0,0,0,0,0,0,0,0,0,0,0,0,0,0,0,0,0,0,0,0,0,0,0,0,0,0,0,0,0,0,0,0,0,0,0,0,0,0,0,0,0,0,0,0,0,0,0,0,0,0,0,0,0,0,0,0,0,0,0,0,0,0,0,0,0,0,0,0,0,0,0,0,0,0,0,
IN-MH-19,Thane Creek,Maharashtra,Mumbai/Thane,12200,Non Officially Protected,19.1943294,72.9701779,19.13,72.96,,1,0,0,1,0,1,0,0,"Globally threatened species, Congregations: Site known or thought to hold, on a regular basis, > 1% of a bio-geographic population of a congregatory waterbird species, Congregations: Site known or thought to hold, on a regular basis, > 20,000 water birds or > 10,000 pairs of seabirds of one or more species (A1, A4i, A4iii)",0,0,1,0,0,0,0,0,1,0,0,0,0,0,0,0,0,0,0,0,0,0,0,0,0,0,0,0,0,0,0,0,0,0,0,0,0,0,0,0,0,0,0,0,0,0,0,0,0,0,0,0,0,0,0,0,0,0,0,0,0,0,0,0,0,0,0,0,0,0,0,0,0,0,0,0,0,0,0,0,0,0,0,0,0,0,0,0,"	,	,"
IN-MH-20,Toranmal,Maharashtra,Nandurbar,26000,Non Officially Protected,21.8811735,74.4634002,NA,NA,,1,1,0,0,0,0,0,0,"Globally threatened species, Restricted range species (A1, A2)",0,0,0,0,0,0,1,0,0,0,0,0,0,0,0,0,0,0,0,0,0,0,0,0,0,0,0,0,0,0,0,0,0,0,0,0,0,0,0,0,0,0,0,0,0,0,0,0,0,0,0,0,0,0,0,0,0,0,0,0,0,0,0,0,0,0,0,0,0,0,0,0,0,0,0,0,0,0,0,0,0,0,0,0,0,0,0,0,"	,	,	,	,"
IN-MAN-01,Ango Hills,Manipur,Ukhrul,40000,Non Officially Protected,NA,NA,NA,NA,,1,1,0,0,0,0,0,0,"Globally threatened species, Restricted range species (A1, A2)",0,1,0,0,0,0,0,0,0,0,0,0,0,1,0,0,0,0,0,0,0,1,0,0,0,0,0,0,0,0,0,0,0,0,0,0,0,0,0,0,0,0,0,0,0,0,0,0,0,0,0,0,0,0,0,0,0,0,0,0,0,0,0,0,0,0,0,0,0,0,0,0,0,0,0,0,0,0,0,0,0,0,0,0,0,0,0,0,"	,	,"
IN-MAN-02,Bunning,Manipur,Tamenglong,11580,Wildlife Sanctuary,NA,NA,NA,NA,,1,1,0,0,0,0,0,0,"Globally threatened species, Restricted range species (A1, A2)",0,0,0,0,0,0,0,0,0,0,0,0,0,1,0,0,0,1,0,0,0,0,0,0,0,0,0,0,0,0,0,0,0,0,0,0,0,0,0,0,0,0,0,0,0,0,0,0,0,0,0,0,0,0,0,0,0,0,0,0,0,0,0,0,0,0,0,0,0,0,0,0,0,0,0,0,0,0,0,0,0,0,0,0,0,0,0,0,"	,	,	,"
IN-MAN-03,"Dzuko, Japfu and Puliebadze",Manipur,Senapati,2500,Non Officially Protected,NA,NA,NA,NA,,1,1,0,0,0,0,0,0,"Globally threatened species, Restricted range species (A1, A2)",0,0,0,0,0,0,0,0,0,0,0,0,0,0,0,0,0,1,0,0,0,1,0,0,0,0,0,0,0,0,0,0,0,0,0,0,0,0,0,0,0,0,0,0,0,0,0,0,0,0,0,0,0,0,0,0,0,0,0,0,0,0,0,0,0,0,0,0,0,0,0,0,0,0,0,0,0,0,0,0,0,0,0,0,0,0,0,0,
IN-MAN-04,Jiri Makru,Manipur,Imphal East and Tamenglong,19800,Wildlife Sanctuary,NA,NA,NA,NA,,1,0,0,0,0,0,0,1,"Globally threatened species, Data deficient (A1, DD)",1,1,0,0,0,0,0,0,0,0,0,0,0,0,0,0,0,0,0,0,0,0,0,0,0,0,0,0,0,0,0,0,0,0,0,0,0,0,0,0,0,0,0,0,0,0,0,0,0,0,0,0,0,0,0,0,0,0,0,0,0,0,0,0,0,0,0,0,0,0,0,0,0,0,0,0,0,0,0,0,0,0,0,0,0,0,0,0,
IN-MAN-05,Kailam,Manipur,Churachanpur,18750,Wildlife Sanctuary,NA,NA,NA,NA,,1,1,0,0,0,0,0,0,"Globally threatened species, Restricted range species (A1, A2)",0,0,0,0,0,0,0,0,0,0,0,0,0,1,0,0,0,0,0,0,0,0,0,0,0,0,0,0,0,0,0,0,0,0,0,0,0,0,0,0,0,0,0,0,0,0,0,0,0,0,0,0,0,0,0,0,0,0,0,0,0,0,0,0,0,0,0,0,0,0,0,0,0,0,0,0,0,0,0,0,0,0,0,0,0,0,0,0,"	,	,"
IN-MAN-06,Loktak Lake and Keibul,Manipur,Bishnupur and Imphal West,20000,National Park,NA,NA,NA,NA,,1,0,0,0,0,1,0,0,"Globally threatened species, Congregations: Site known or thought to hold, on a regular basis, > 20,000 water birds or > 10,000 pairs of seabirds of one or more species (A1, A4iii)",0,0,0,0,0,0,0,0,1,0,0,0,0,0,0,0,0,0,0,0,0,0,0,0,0,0,0,0,0,0,0,0,0,0,0,0,0,0,0,0,0,0,0,0,0,0,0,0,0,0,0,0,0,0,0,0,0,0,0,0,0,0,0,0,0,0,0,0,0,0,0,0,0,0,0,0,0,0,0,0,0,0,0,0,0,0,0,0,"	,	,	,"
IN-MAN-07,Siroi,Manipur,Ukhrul,5000,Non Officially Protected,NA,NA,NA,NA,,1,1,0,0,0,0,0,0,"Globally threatened species, Restricted range species (A1, A2)",0,0,0,0,0,0,0,0,0,0,0,0,0,0,0,0,0,0,0,0,0,1,0,1,0,0,0,0,0,0,0,0,0,0,0,0,0,0,0,0,0,0,0,0,0,0,0,0,0,0,0,0,0,0,0,0,0,0,0,0,0,0,0,0,0,0,0,0,0,0,0,0,0,0,0,0,0,0,0,0,0,0,0,0,0,0,0,0,
IN-MAN-08,Yangoupokpi - Lokchao,Manipur,Chandel,18480,Wildlife Sanctuary,NA,NA,NA,NA,,1,0,0,0,0,0,0,0,Globally threatened species (A1),0,1,0,0,0,0,0,0,0,0,0,0,0,0,0,1,0,0,0,0,0,0,0,0,0,0,0,0,0,0,0,0,0,0,0,0,0,0,0,0,0,0,0,0,0,0,0,0,0,0,0,0,0,0,0,0,0,0,0,0,0,0,0,0,0,0,0,0,0,0,0,0,0,0,0,0,0,0,0,0,0,0,0,0,0,0,0,0,"	,	,	,	,"
IN-MAN-09,Zeilad Lake,Manipur,Tamenglong,2100,Wildlife Sanctuary,NA,NA,NA,NA,,1,0,0,0,0,0,0,1,"Globally threatened species, Data deficient (A1, DD)",1,0,0,0,0,0,0,0,1,0,0,0,0,0,0,0,0,0,0,0,0,0,0,0,0,0,0,0,0,0,0,0,0,0,0,0,0,0,0,0,0,0,0,0,0,0,0,0,0,0,0,0,0,0,0,0,0,0,0,0,0,0,0,0,0,0,0,0,0,0,0,0,0,0,0,0,0,0,0,0,0,0,0,0,0,0,0,0,"	,	,	,	,"
IN-ML-01,Balphakram and Siju,Meghalaya,South Garo s,26947,National Park,NA,NA,NA,NA,,1,1,0,1,0,0,0,0,"Globally threatened species, Restricted range species, Congregations: Site known or thought to hold, on a regular basis, > 1% of a bio-geographic population of a congregatory waterbird species (A1, A2, A4i)",1,0,0,1,0,0,1,0,0,0,0,0,0,0,0,0,0,0,0,0,0,0,0,0,0,0,0,0,0,0,0,0,0,0,0,0,0,0,0,0,0,0,0,0,0,0,0,0,0,0,0,0,0,0,0,0,0,0,0,0,0,0,0,0,0,0,0,0,0,0,0,0,0,0,0,0,0,0,0,0,0,0,0,0,0,0,0,0,"	,	,	,"
IN-ML-02,Mawphlang Sacred Grove,Meghalaya,East Khasi s,100,Non Officially Protected,NA,NA,25.47,91.73,,1,1,0,0,0,0,0,0,"Globally threatened species, Restricted range species (A1, A2)",0,0,0,0,0,0,0,0,0,0,0,0,0,0,0,0,0,0,0,0,0,1,0,0,0,0,0,0,0,0,0,0,0,0,0,0,0,0,0,0,0,0,0,0,0,0,0,0,0,0,0,0,0,0,0,0,0,0,0,0,0,0,0,0,0,0,0,0,0,0,0,0,0,0,0,0,0,0,0,0,0,0,0,0,0,0,0,0,"	,	,	,"
IN-ML-03,Nokrek Ridge,Meghalaya,East & West Garo s,4748,National Park,25.47457425,90.30179983,NA,NA,,1,1,1,0,0,0,0,0,"Globally threatened species, Restricted range species, Biome-restricted assemblage (A1, A2, A3)",0,1,0,0,0,0,0,0,0,0,0,0,0,1,0,0,0,0,0,0,0,0,0,0,0,0,0,0,0,0,0,0,0,0,0,0,0,0,0,0,0,0,0,0,0,0,0,0,0,0,0,0,0,0,0,0,0,0,0,0,0,0,0,0,0,0,0,0,0,0,0,0,0,0,0,0,0,0,0,0,0,0,0,0,0,0,0,0,"	,	,"
IN-ML-04,Nongkhyllem,Meghalaya,Ri-Bhoi,2900,Wildlife Sanctuary,NA,NA,NA,NA,,1,0,0,0,0,0,0,0,Globally threatened species (A1),0,1,0,0,0,0,0,0,0,0,0,0,0,0,0,1,0,0,0,0,0,0,0,1,0,0,0,0,0,0,0,0,0,0,0,0,0,0,0,0,0,0,0,0,0,0,0,0,0,0,0,0,0,0,0,0,0,0,0,0,0,0,0,0,0,0,0,0,0,0,0,0,0,0,0,0,0,0,0,0,0,0,0,0,0,0,0,0,"	,	,	,"
IN-ML-05,Norpuh - Narpuhs,Meghalaya,Jaintia s,16110,Non Officially Protected,NA,NA,NA,NA,,1,1,0,0,0,0,0,0,"Globally threatened species, Restricted range species (A1, A2)",0,1,0,0,0,0,0,0,0,0,0,0,0,1,0,0,0,0,0,0,0,0,0,0,0,0,0,0,0,0,0,0,0,0,0,0,0,0,0,0,0,0,0,0,0,0,0,0,0,0,0,0,0,0,0,0,0,0,0,0,0,0,0,0,0,0,0,0,0,0,0,0,0,0,0,0,0,0,0,0,0,0,0,0,0,0,0,0,"	,	,	,	,"
IN-ML-06,Riat Khwan - Umiam Lake,Meghalaya,East Khasi s and Ri-Bhoi,1500,Non Officially Protected,NA,NA,NA,NA,,1,1,0,0,0,0,0,0,"Globally threatened species, Restricted range species (A1, A2)",0,0,0,0,0,0,0,0,0,0,0,0,0,0,0,0,0,0,0,0,0,1,0,0,1,0,0,0,0,0,0,0,0,0,0,0,0,0,0,0,0,0,0,0,0,0,0,0,0,0,0,0,0,0,0,0,0,0,0,0,0,0,0,0,0,0,0,0,0,0,0,0,0,0,0,0,0,0,0,0,0,0,0,0,0,0,0,0,"	,	,	,	,"
IN-ML-07,Saipung Link,Meghalaya,Jaintia s,15000,Non Officially Protected,NA,NA,NA,NA,,0,0,0,0,0,0,0,1,Data deficient (DD),0,1,0,0,0,0,0,0,0,0,0,0,0,1,0,1,0,0,0,0,0,0,0,0,0,0,0,0,0,0,0,0,0,0,0,0,0,0,0,0,0,0,0,0,0,0,0,0,0,0,0,0,0,0,0,0,0,0,0,0,0,0,0,0,0,0,0,0,0,0,0,0,0,0,0,0,0,0,0,0,0,0,0,0,0,0,0,0,"	,	,	,	,"
IN-ML-08,Upper Song,Meghalaya,East Khasi s,1296,Non Officially Protected,NA,NA,NA,NA,,1,1,0,0,0,0,0,0,"Globally threatened species, Restricted range species (A1, A2)",0,0,0,0,0,0,0,0,0,0,0,0,0,0,0,0,0,0,0,0,0,1,0,0,1,0,0,0,0,0,0,0,0,0,0,0,0,0,0,0,0,0,0,0,0,0,0,0,0,0,0,0,0,0,0,0,0,0,0,0,0,0,0,0,0,0,0,0,0,0,0,0,0,0,0,0,0,0,0,0,0,0,0,0,0,0,0,0,"	,	,	,"
IN-ML-09,"Cherapunjee: Cliffs, Gorges",Meghalaya,East Khasi s,1000,Non Officially Protected,NA,NA,NA,NA,,1,0,0,0,0,0,0,0,Globally threatened species (A1),0,0,0,0,0,0,0,0,0,0,0,0,0,0,0,0,0,0,0,0,0,0,0,0,0,0,0,0,0,0,0,0,0,0,0,0,0,0,0,0,0,0,0,0,0,0,0,0,0,0,0,0,0,0,0,0,0,0,0,0,0,0,0,0,0,0,0,0,0,1,1,1,0,0,0,0,0,0,0,0,0,0,0,0,0,0,0,0,"	,	,	,	,"
IN-MZ-01,Blue Mountain,Mizoram,Saiha,5000,National Park,NA,NA,NA,NA,,1,1,0,0,0,0,0,0,"Globally threatened species, Restricted range species (A1, A2)",1,0,0,0,0,0,0,0,0,0,0,0,0,0,0,0,0,0,0,0,0,1,0,0,0,0,0,0,0,0,0,0,0,0,0,0,0,0,0,0,0,0,0,0,0,0,0,0,0,0,0,0,0,0,0,0,0,0,0,0,0,0,0,0,0,0,0,0,0,0,0,0,0,0,0,0,0,0,0,0,0,0,0,0,0,0,0,0,"	,	,	,	,"
IN-MZ-02,Dampa,Mizoram,West Phaileng,50000,Tiger Reserve,NA,NA,NA,NA,,1,1,0,0,0,0,0,0,"Globally threatened species, Restricted range species (A1, A2)",0,1,0,1,0,0,0,0,0,0,0,0,0,1,0,0,0,0,0,0,0,0,0,0,0,0,0,0,0,0,0,0,0,0,0,0,0,0,0,0,0,0,0,0,0,0,0,0,0,0,0,0,0,0,0,0,0,0,0,0,0,0,0,0,0,0,0,1,0,0,0,0,0,0,0,0,0,0,0,0,0,0,0,0,0,0,0,0,"	,	,	,"
IN-MZ-03,Lengteng,Mizoram,Champai,12000,Wildlife Sanctuary,NA,NA,NA,NA,,1,1,0,0,0,0,0,0,"Globally threatened species, Restricted range species (A1, A2)",0,1,0,0,0,0,0,0,0,0,0,0,0,1,0,0,0,0,0,0,0,1,0,0,0,0,0,0,0,0,0,0,0,0,0,0,0,0,0,0,0,0,0,0,0,0,0,0,0,0,0,0,0,0,0,0,0,0,0,0,0,0,0,0,0,0,0,0,0,0,0,0,0,0,0,0,0,0,0,0,0,0,0,0,0,0,0,0,"	,	,"
IN-MZ-04,Murlen,Mizoram,Champhai,20000,National Park,NA,NA,NA,NA,,1,1,0,0,0,0,0,0,"Globally threatened species, Restricted range species (A1, A2)",0,1,0,0,0,0,0,0,0,0,0,0,0,1,0,0,0,0,0,0,0,0,0,0,0,0,0,0,0,0,0,0,0,0,0,0,0,0,0,0,0,0,0,0,0,0,0,0,0,0,0,0,0,0,0,0,0,0,0,0,0,0,0,0,0,0,0,0,0,0,0,0,0,0,0,0,0,0,0,0,0,0,0,0,0,0,0,0,"	,	,	,"
IN-MZ-05,Ngengpui,Mizoram,West Phaileng,11000,Wildlife Sanctuary,NA,NA,NA,NA,,0,0,1,0,0,0,0,1,"Biome-restricted assemblage, Data deficient (A3, DD)",0,1,0,0,0,0,0,0,0,0,0,0,0,1,0,0,0,0,0,0,0,0,0,0,0,0,0,0,0,0,0,0,0,0,0,0,0,0,0,0,0,0,0,0,0,0,0,0,0,0,0,0,0,0,0,0,0,0,0,0,0,0,0,0,0,0,0,0,0,0,0,0,0,0,0,0,0,0,0,0,0,0,0,0,0,0,0,0,"	,	,	,"
IN-MZ-06,Palak Lake,Mizoram,Saiha,2000,Non Officially Protected,22.2018154,92.8891446,NA,NA,,0,0,1,0,0,0,0,1,"Biome-restricted assemblage, Data deficient (A3, DD)",0,1,0,0,0,0,0,0,0,0,0,0,0,1,0,1,0,0,0,0,0,0,0,0,0,0,0,0,0,0,0,0,0,0,0,0,0,0,0,0,0,0,0,0,0,0,0,0,0,0,0,0,0,0,0,0,0,0,0,0,0,0,0,0,0,0,0,0,0,0,0,0,0,0,0,0,0,0,0,0,0,0,0,0,0,0,0,0,"	,	,	,"
IN-NL-01,Fakim and Saramati Area,Nagaland,Tuensang,30000,Wildlife Sanctuary,NA,NA,NA,NA,,1,1,0,0,0,0,0,0,"Globally threatened species, Restricted range species (A1, A2)",0,0,0,0,0,0,0,0,0,0,0,0,0,0,0,0,0,1,0,0,0,0,0,0,0,0,0,0,0,0,0,0,0,0,0,0,0,0,0,0,0,0,0,0,0,0,0,0,0,0,0,0,0,0,0,0,0,0,0,0,0,0,0,0,0,0,0,0,0,0,0,0,0,0,0,0,0,0,0,0,0,0,0,0,0,0,0,0,"	,	,	,"
IN-NL-02,Intanki,Nagaland,"Dimapur, Kohima",20202,National Park,NA,NA,NA,NA,,1,0,1,0,0,0,0,0,"Globally threatened species, Biome-restricted assemblage (A1, A3)",0,1,0,0,0,0,1,0,0,0,0,0,0,0,0,1,0,0,0,0,0,0,0,0,0,0,0,0,0,0,0,0,0,0,0,0,0,0,0,0,0,0,0,0,0,0,0,0,0,0,0,0,0,0,0,0,0,0,0,0,0,0,0,0,0,0,0,0,0,0,0,0,0,0,0,0,0,0,0,0,0,0,0,0,0,0,0,0,"	,	,	,"
IN-NL-03,Khonoma Nature Conservation,Nagaland,Kohima,2500,Wildlife Sanctuary,NA,NA,NA,NA,,1,1,0,0,0,0,0,0,"Globally threatened species, Restricted range species (A1, A2)",0,1,0,0,0,0,0,0,0,0,0,0,0,1,0,0,0,0,0,0,0,1,0,0,0,0,0,0,0,0,0,0,0,0,0,0,0,0,0,0,0,0,0,0,0,0,0,0,0,0,0,0,0,0,0,0,0,0,0,0,0,0,0,0,0,0,0,0,0,0,0,0,0,0,0,0,0,0,0,0,0,0,0,0,0,0,0,0,"	,	,"
IN-NL-04,Mount Paona,Nagaland,Kohima,3000,Non Officially Protected,25.6069428,93.8802039,25.5,93.65,,1,1,0,0,0,0,0,0,"Globally threatened species, Restricted range species (A1, A2)",0,0,0,0,0,0,0,0,0,0,0,0,0,0,0,0,0,0,0,0,0,1,0,0,0,0,0,0,0,0,0,0,0,0,0,0,0,0,0,0,0,0,0,0,0,0,0,0,0,0,0,0,0,0,0,0,0,0,0,0,0,0,0,0,0,0,0,0,0,0,0,0,0,0,0,0,0,0,0,0,0,0,0,0,0,0,0,0,"	,	,	,	,"
IN-NL-05,Mount Zanibu,Nagaland,phek,4000,Non Officially Protected,NA,NA,25.68,94.35,,1,1,0,0,0,0,0,0,"Globally threatened species, Restricted range species (A1, A2)",0,0,0,0,0,0,0,0,0,0,0,0,0,0,0,0,0,1,0,0,0,1,0,0,0,0,0,0,0,0,0,0,0,0,0,0,0,0,0,0,0,0,0,0,0,0,0,0,0,0,0,0,0,0,0,0,0,0,0,0,0,0,0,0,0,0,0,0,0,0,0,0,0,0,0,0,0,0,0,0,0,0,0,0,0,0,0,0,"	,	,	,"
IN-NL-06,Mount Ziphu,Nagaland,Phek,5000,Non Officially Protected,NA,NA,25.65,94.75,,1,1,0,0,0,0,0,0,"Globally threatened species, Restricted range species (A1, A2)",0,0,0,0,0,0,0,0,0,0,0,0,0,0,0,0,0,0,0,0,0,1,0,0,0,0,0,0,0,0,0,0,0,0,0,0,0,0,0,0,0,0,0,0,0,0,0,0,0,0,0,0,0,0,0,0,0,0,0,0,0,0,0,0,0,0,0,0,0,0,0,0,0,0,0,0,0,0,0,0,0,0,0,0,0,0,0,0,"	,	,	,"
IN-NL-07,Pfutsero - Chizami,Nagaland,Phek,7000,Non Officially Protected,NA,NA,25.6,94.33,,1,1,0,0,0,0,0,0,"Globally threatened species, Restricted range species (A1, A2)",0,0,0,0,0,0,0,1,0,0,0,0,0,0,0,0,0,0,0,0,0,1,0,0,0,0,0,0,0,0,0,0,0,0,0,0,0,0,0,0,0,0,0,0,0,0,0,0,0,0,0,0,0,0,0,0,0,0,0,0,0,0,0,0,0,0,0,0,0,0,0,0,0,0,0,0,0,0,0,0,0,0,0,0,0,0,0,0,"	,	,	,"
IN-NL-08,Puliebadze,Nagaland,Kohima,10923,Wildlife Sanctuary,NA,NA,NA,NA,,1,1,0,0,0,0,0,0,"Globally threatened species, Restricted range species (A1, A2)",0,0,0,0,0,0,0,0,0,0,0,0,0,0,0,0,0,1,0,0,0,1,0,0,0,0,0,0,0,0,0,0,0,0,0,0,0,0,0,0,0,0,0,0,0,0,0,0,0,0,0,0,0,0,0,0,0,0,0,0,0,0,0,0,0,0,0,0,0,0,0,0,0,0,0,0,0,0,0,0,0,0,0,0,0,0,0,0,"	,	,	,"
IN-NL-09,Satoi Range,Nagaland,Zunheboto and Phek,5000,Non Officially Protected,NA,NA,25.87,94.67,,1,1,0,0,0,0,0,0,"Globally threatened species, Restricted range species (A1, A2)",0,0,0,0,0,0,0,0,0,0,0,0,0,0,0,0,0,1,0,0,0,1,0,0,0,0,0,0,0,0,0,0,0,0,0,0,0,0,0,0,0,0,0,0,0,0,0,0,0,0,0,0,0,0,0,0,0,0,0,0,0,0,0,0,0,0,0,0,0,0,0,0,0,0,0,0,0,0,0,0,0,0,0,0,0,0,0,0,"	,	,	,	,	,"
IN-OR-01,Bhitarakannika,Orissa,Kendrapara (formally Cuttack),81700,National Park,NA,NA,NA,NA,,1,0,0,1,0,0,0,0,"Globally threatened species, Congregations: Site known or thought to hold, on a regular basis, > 1% of a bio-geographic population of a congregatory waterbird species (A1, A4i)",0,0,1,0,0,0,0,0,0,0,0,0,0,0,0,1,0,0,0,0,0,0,0,0,0,0,0,0,0,0,0,0,0,0,0,0,0,0,0,0,0,0,0,0,0,0,0,0,0,0,0,0,0,0,0,0,0,0,0,0,0,0,0,0,0,0,0,0,0,0,0,0,0,0,0,0,0,0,0,0,0,0,0,0,0,0,0,0,"	,	,"
IN-OR-02,Chandka,Orissa,Khurda and Cuttack,17579,Wildlife Sanctuary,NA,NA,NA,NA,,1,0,0,0,0,1,0,0,"Globally threatened species, Congregations: Site known or thought to hold, on a regular basis, > 20,000 water birds or > 10,000 pairs of seabirds of one or more species (A1, A4iii)",0,0,0,0,0,0,0,0,0,0,0,0,0,0,0,1,0,0,0,0,0,0,0,0,0,0,0,0,0,0,0,0,0,0,0,0,0,0,0,0,0,0,0,0,0,0,0,0,0,0,0,0,0,0,0,0,0,0,0,0,0,0,0,0,0,0,0,0,0,0,0,0,0,0,0,0,0,0,0,0,0,0,0,0,0,0,0,0,"	,	,	,"
IN-OR-03,Chilka Lake,Orissa,"Khurda, Puri and Ganjam",1553,National Park,19.7238472,85.3474734,NA,NA,,1,0,0,1,0,1,0,0,"Globally threatened species, Congregations: Site known or thought to hold, on a regular basis, > 1% of a bio-geographic population of a congregatory waterbird species, Congregations: Site known or thought to hold, on a regular basis, > 20,000 water birds or > 10,000 pairs of seabirds of one or more species (A1, A4i, A4iii)",0,0,0,0,0,0,0,0,0,0,0,0,0,0,0,0,0,0,0,0,0,0,0,0,0,0,0,0,0,0,0,0,0,0,0,0,0,0,0,0,0,0,0,0,0,0,0,0,0,0,0,0,0,0,0,0,0,1,0,0,0,0,0,0,0,0,0,0,0,0,0,0,0,0,0,0,0,0,0,0,0,0,0,0,0,0,0,0,"	,	,"
IN-OR-04,Mangal Jodi,Orissa,Khurda,0,Non Officially Protected,NA,NA,19.87,85.43,,0,0,0,1,0,1,0,0,"Congregations: Site known or thought to hold, on a regular basis, > 1% of a bio-geographic population of a congregatory waterbird species, Congregations: Site known or thought to hold, on a regular basis, > 20,000 water birds or > 10,000 pairs of seabirds of one or more species (A4i, A4iii)",0,0,0,0,0,0,0,0,0,0,0,0,0,0,0,0,0,0,0,0,0,0,0,0,0,0,0,0,0,0,0,0,0,0,0,0,0,0,0,0,0,0,1,0,0,0,0,0,0,0,0,0,0,0,0,0,0,0,0,0,0,0,0,0,0,0,0,0,0,0,0,0,0,0,0,0,0,0,0,0,0,0,0,0,0,0,0,0,"	,	,"
IN-OR-05,Satkosia Gorge,Orissa,"Dhenkal, Cuttack, Puri, Phulbani",79552,Wildlife Sanctuary,NA,NA,NA,NA,,1,0,1,0,0,0,0,0,"Globally threatened species, Biome-restricted assemblage (A1, A3)",0,0,0,0,0,0,1,0,0,0,0,0,0,0,0,0,0,0,0,0,0,0,0,0,0,0,0,0,0,0,0,0,0,0,0,0,0,0,0,0,0,0,0,0,0,0,0,0,0,0,0,0,0,0,0,0,0,0,0,0,0,0,0,0,0,0,0,0,0,0,0,0,1,0,0,0,0,0,0,0,0,0,0,0,0,0,0,0,"	,	,	,"
IN-OR-06,Simlipal,Orissa,Mayurbhanj,84570,Tiger Reserve,21.803193,86.31920866,NA,NA,,1,0,1,0,0,0,0,0,"Globally threatened species, Biome-restricted assemblage (A1, A3)",0,1,0,0,0,0,1,0,0,0,0,0,0,0,0,1,0,0,0,0,0,0,0,0,0,0,0,0,0,0,0,0,0,0,0,0,0,0,0,0,0,0,0,0,0,0,0,0,0,0,0,0,0,0,0,0,0,0,0,0,0,0,0,0,0,0,0,0,0,0,0,0,0,0,0,0,0,0,0,0,0,0,0,0,0,0,0,0,"	,	,	,	,"
IN-OR-07,Sunabeda,Orissa,Nuapada,50000,Wildlife Sanctuary,18.7278495,82.8274978,NA,NA,,1,0,1,0,0,0,0,0,"Globally threatened species, Biome-restricted assemblage (A1, A3)",0,0,0,0,0,0,1,0,0,0,0,0,0,0,0,0,0,0,0,0,0,0,0,0,0,0,0,0,0,0,0,0,0,0,0,0,0,0,0,0,0,0,0,0,0,0,0,0,0,0,0,0,0,0,0,0,0,0,0,0,0,0,0,0,0,0,0,0,0,0,0,0,0,0,0,0,0,0,0,0,0,0,0,0,0,0,0,0,"	,	,	,"
IN-PY-01,Bahour Lake,Pondicherry,,618,Non Officially Protected,11.805691,79.7426965,12.04,79.86,,0,0,0,1,0,1,0,0,"Congregations: Site known or thought to hold, on a regular basis, > 1% of a bio-geographic population of a congregatory waterbird species, Congregations: Site known or thought to hold, on a regular basis, > 20,000 water birds or > 10,000 pairs of seabirds of one or more species (A4i, A4iii)",0,0,0,0,0,0,0,0,1,0,0,0,0,0,0,0,0,0,0,0,0,0,0,0,0,0,0,0,0,0,0,0,0,0,0,0,0,0,0,0,0,0,0,0,0,0,0,0,0,0,0,0,0,0,0,0,0,0,0,0,0,0,0,0,0,0,0,0,0,0,0,0,0,0,0,0,0,0,0,0,0,0,0,0,0,0,0,0,"	,	,"
IN-PY-02,Ousteri Lake,Pondicherry,,800,Non Officially Protected,NA,NA,11.95,79.74,,0,0,0,1,0,1,0,0,"Congregations: Site known or thought to hold, on a regular basis, > 1% of a bio-geographic population of a congregatory waterbird species, Congregations: Site known or thought to hold, on a regular basis, > 20,000 water birds or > 10,000 pairs of seabirds of one or more species (A4i, A4iii)",0,0,0,0,0,0,0,0,1,0,0,0,0,0,0,0,0,0,0,0,0,0,0,0,0,0,0,0,0,0,0,0,0,0,0,0,0,0,0,0,0,0,0,0,0,0,0,0,0,0,0,0,0,0,0,0,0,0,0,0,0,0,0,0,0,0,0,0,0,0,0,0,0,0,0,0,0,0,0,0,0,0,0,0,0,0,0,0,"	,	,	,	,"
IN-PB-01,Harike Lake,Punjab,"Amritsar, Kapurthala and Firozpur",8600,Wildlife Sanctuary,31.1427058,74.94753,NA,NA,,1,0,0,1,0,1,0,0,"Globally threatened species, Congregations: Site known or thought to hold, on a regular basis, > 1% of a bio-geographic population of a congregatory waterbird species, Congregations: Site known or thought to hold, on a regular basis, > 20,000 water birds or > 10,000 pairs of seabirds of one or more species (A1, A4i, A4iii)",0,0,0,0,0,0,0,0,1,0,0,0,0,0,0,0,0,0,0,0,0,0,0,0,0,0,0,0,0,0,0,0,0,0,0,0,0,0,0,0,0,0,0,0,0,0,0,0,0,0,0,0,0,0,0,0,0,0,0,0,0,0,0,0,0,0,0,0,0,0,0,0,0,0,0,0,0,0,0,0,0,0,0,0,0,0,0,0,
IN-PB-02,Kanjli Lake,Punjab,"Kapurthala, Amritsar",490,Non Officially Protected,NA,NA,31.57,75.41,,0,0,0,1,0,1,0,0,"Congregations: Site known or thought to hold, on a regular basis, > 1% of a bio-geographic population of a congregatory waterbird species, Congregations: Site known or thought to hold, on a regular basis, > 20,000 water birds or > 10,000 pairs of seabirds of one or more species (A4i, A4iii)",0,0,0,0,0,0,0,0,1,0,0,0,0,0,0,0,0,0,0,0,0,0,0,0,0,0,0,0,0,0,0,0,0,0,0,0,0,0,0,0,0,0,0,0,0,0,0,0,0,0,0,0,0,0,0,0,0,0,0,0,0,0,0,0,0,0,0,0,0,0,0,0,0,0,0,0,0,0,0,0,0,0,0,0,0,0,0,0,"	,	,"
IN-PB-03,Ropar Wetland,Punjab,Ropar,1365,Non Officially Protected,NA,NA,NA,NA,,0,0,0,0,0,1,0,1,"Congregations: Site known or thought to hold, on a regular basis, > 20,000 water birds or > 10,000 pairs of seabirds of one or more species, Data deficient (A4iii, DD)",0,0,0,0,0,0,0,0,1,0,0,0,0,0,0,0,0,0,0,0,0,0,0,0,0,0,0,0,0,0,0,0,0,0,0,0,0,0,0,0,0,0,0,0,0,0,0,0,0,0,0,0,0,0,0,0,0,0,0,0,0,0,0,0,0,0,0,0,0,0,0,0,0,0,0,0,0,0,0,0,0,0,0,0,0,0,0,0,"	,	,	,	,"
IN-RJ-01,Alniya Dam,Rajasthan,Kota,20143,Non Officially Protected,25.0322155,75.9091761,25,75.87,,1,0,0,0,0,1,0,0,"Globally threatened species, Congregations: Site known or thought to hold, on a regular basis, > 20,000 water birds or > 10,000 pairs of seabirds of one or more species (A1, A4iii)",0,0,0,0,0,0,0,0,1,0,0,0,0,0,0,0,0,0,0,0,0,0,0,0,0,0,0,0,0,0,0,0,0,0,0,0,0,0,0,0,0,0,0,0,0,0,0,0,0,0,0,0,0,0,0,0,0,0,0,0,0,0,0,0,0,0,0,0,0,0,0,0,0,0,0,0,0,0,0,0,0,0,0,0,0,0,0,0,"	,	,"
IN-RJ-02,Bardha Dam Reservoir,Rajasthan,Bundi,300,Non Officially Protected,NA,NA,NA,NA,,1,0,1,1,0,0,0,0,"Globally threatened species, Biome-restricted assemblage, Congregations: Site known or thought to hold, on a regular basis, > 1% of a bio-geographic population of a congregatory waterbird species (A1, A3, A4i)",0,0,0,0,0,0,0,0,1,0,0,0,0,0,0,0,0,0,0,0,0,0,0,0,0,0,0,0,0,0,0,0,0,0,0,0,0,0,0,0,0,0,0,0,0,0,0,0,0,0,0,0,0,0,0,0,0,0,0,0,0,0,0,0,0,0,0,0,0,0,0,0,0,0,0,0,0,0,0,0,0,0,0,0,0,0,0,0,
IN-RJ-03,Desert,Rajasthan,Jaisalmer and Barmer,316200,National Park,26.914144,70.9045746,NA,NA,,1,0,1,0,0,0,0,0,"Globally threatened species, Biome-restricted assemblage (A1, A3)",0,0,0,0,0,0,0,0,0,0,0,0,0,0,0,0,0,0,0,0,0,0,0,0,0,0,0,0,0,0,0,0,0,0,0,0,0,0,0,0,0,0,0,0,0,0,0,0,0,1,0,0,0,0,0,0,0,0,0,0,0,0,0,0,0,0,0,0,0,0,0,0,0,0,0,0,0,0,0,0,0,0,0,0,0,0,0,0,"	,	,	,"
IN-RJ-04,Diyatra,Rajasthan,Bikaner,5019,Non Officially Protected,NA,NA,NA,NA,,1,0,0,0,0,0,0,0,Globally threatened species (A1),0,0,0,1,0,0,0,1,0,0,0,0,0,0,0,0,0,0,0,0,0,0,0,0,0,0,0,0,0,0,0,0,0,0,0,0,0,0,0,0,0,0,0,0,0,0,0,0,0,1,0,0,0,0,0,0,0,0,0,0,0,0,0,0,0,0,0,0,0,0,0,0,0,0,0,0,0,0,0,0,0,0,0,0,0,0,0,0,"	,	,"
IN-RJ-05,"Gagwana Arain, Mangliyawas, Ramsar",Rajasthan,Ajmer,Not Defined,Non Officially Protected,NA,NA,NA,NA,,1,0,0,0,0,0,0,0,Globally threatened species (A1),0,0,0,1,0,0,0,0,0,0,0,0,0,0,0,0,0,0,0,0,0,0,0,0,0,0,0,0,0,0,0,0,0,0,0,0,0,0,0,0,0,0,0,0,0,0,0,0,0,0,0,0,0,0,0,0,0,0,0,0,0,0,0,0,0,0,0,0,0,0,0,0,0,0,0,0,0,0,0,0,0,0,0,0,0,0,0,0,"	,	,	,"
IN-RJ-06,Jaisamand Lake,Rajasthan,Udaipur,7300,Wildlife Sanctuary,24.2408582,73.9493619,NA,NA,,1,0,0,1,0,1,0,0,"Globally threatened species, Congregations: Site known or thought to hold, on a regular basis, > 1% of a bio-geographic population of a congregatory waterbird species, Congregations: Site known or thought to hold, on a regular basis, > 20,000 water birds or > 10,000 pairs of seabirds of one or more species (A1, A4i, A4iii)",0,0,0,0,0,0,1,0,1,0,0,0,0,0,0,0,0,0,0,0,0,0,0,0,0,0,0,0,0,0,0,0,0,0,0,0,0,0,0,0,0,0,0,0,0,0,0,0,0,0,0,0,0,0,0,0,0,0,0,0,0,0,0,0,0,0,0,0,0,0,0,0,0,0,0,0,0,0,0,0,0,0,0,0,0,0,0,0,"	,	,	,"
IN-RJ-07,Keoladeo,Rajasthan,Bharatpur,2873,National Park,27.16505705,77.51865036,NA,NA,,1,0,0,1,0,1,0,0,"Globally threatened species, Congregations: Site known or thought to hold, on a regular basis, > 1% of a bio-geographic population of a congregatory waterbird species, Congregations: Site known or thought to hold, on a regular basis, > 20,000 water birds or > 10,000 pairs of seabirds of one or more species (A1, A4i, A4iii)",0,0,0,0,0,0,1,0,1,0,0,0,0,0,0,0,0,0,0,0,0,0,0,0,0,0,0,0,0,0,0,0,0,0,0,0,0,0,0,0,0,0,0,0,0,0,0,0,0,0,0,0,0,0,0,0,0,0,0,0,0,0,0,0,0,0,0,0,0,0,0,0,0,0,0,0,0,0,0,0,0,0,0,0,0,0,0,0,"	,	,	,"
IN-RJ-08,Khichan,Rajasthan,Jodhpur,2200,Non Officially Protected,27.134827,72.4127174,27.12,72.4,,1,0,0,1,0,0,0,0,"Globally threatened species, Congregations: Site known or thought to hold, on a regular basis, > 1% of a bio-geographic population of a congregatory waterbird species (A1, A4i)",0,0,0,0,0,0,0,0,1,0,0,0,0,0,0,0,0,0,0,0,0,0,0,0,0,0,0,0,0,0,0,0,0,0,0,0,0,0,0,0,0,0,0,0,0,0,0,0,0,1,1,0,0,0,0,0,0,0,0,0,0,0,0,0,0,0,0,0,0,0,0,0,0,0,0,0,0,0,0,0,0,0,0,0,0,0,0,0,"	,	,	,	,"
IN-RJ-09,Kumbhalgarh,Rajasthan,"Udaipur, Pali, Rajsamand",57825,Wildlife Sanctuary,25.1480528,73.5827479,NA,NA,,1,0,0,0,0,0,0,0,Globally threatened species (A1),0,0,0,0,0,0,1,0,0,0,0,0,0,0,0,0,0,0,0,0,0,0,0,0,0,0,0,0,0,0,0,0,0,0,0,0,0,0,0,0,0,0,0,0,0,0,0,0,0,0,0,0,0,0,0,0,0,0,0,0,0,0,0,0,0,0,0,0,0,0,0,0,0,0,0,0,0,0,0,0,0,0,0,0,0,0,0,0,
IN-RJ-10,Mount Abu,Rajasthan,Sirohi,28884,Wildlife Sanctuary,24.592433,72.7081876,NA,NA,,1,0,0,0,0,0,0,0,Globally threatened species (A1),0,1,0,0,0,0,1,0,0,0,0,0,0,0,0,0,0,0,0,0,0,0,0,0,0,0,0,0,0,0,0,0,0,0,0,0,0,0,0,0,0,0,0,0,0,0,0,0,0,0,0,0,0,0,0,0,0,0,0,0,0,0,0,0,0,0,0,0,0,0,0,0,0,0,0,0,0,0,0,0,0,0,0,0,0,0,0,0,
IN-RJ-11,National Chambal,Rajasthan,"Kota, Bundi",5200,Wildlife Sanctuary,NA,NA,NA,NA,,1,0,0,0,0,0,0,0,Globally threatened species (A1),0,0,0,0,0,0,0,0,1,0,0,0,0,0,0,0,0,0,0,0,0,0,1,0,0,0,0,0,0,0,0,0,0,0,0,0,0,0,0,0,0,0,0,0,0,0,0,0,0,0,0,0,0,0,0,0,0,0,0,0,0,0,0,0,0,0,0,0,0,0,0,0,0,0,0,0,0,0,0,0,0,0,0,0,0,0,0,0,
IN-RJ-12,Phulwari - Ki - Nal,Rajasthan,Udaipur,51114,Wildlife Sanctuary,NA,NA,NA,NA,,1,0,0,0,0,0,0,0,Globally threatened species (A1),0,0,0,0,0,0,1,0,0,0,0,0,0,0,0,0,0,0,0,0,0,0,0,0,0,0,0,0,0,0,0,0,0,0,0,0,0,0,0,0,0,0,0,0,0,0,0,0,0,0,0,0,0,0,0,0,0,0,0,0,0,0,0,0,0,0,0,0,0,0,0,0,0,0,0,0,0,0,0,0,0,0,0,0,0,0,0,0,
IN-RJ-13,Ram sagar Bandh,Rajasthan,Bundi,400,Non Officially Protected,NA,NA,NA,NA,,1,0,0,0,0,1,0,0,"Globally threatened species, Congregations: Site known or thought to hold, on a regular basis, > 20,000 water birds or > 10,000 pairs of seabirds of one or more species (A1, A4iii)",0,0,0,0,0,0,0,0,1,0,0,0,0,0,0,0,0,0,0,0,0,0,0,0,0,0,0,0,0,0,0,0,0,0,0,0,0,0,0,0,0,0,0,0,0,0,0,0,0,0,0,0,0,0,0,0,0,0,0,0,0,0,0,0,0,0,0,0,0,0,0,0,0,0,0,0,0,0,0,0,0,0,0,0,0,0,0,0,"	,	,"
IN-RJ-14,Ranthambore,Rajasthan,Sawai Madhopur,39200,Tiger Reserve,26.0183947,76.45630639,NA,NA,,1,0,0,0,0,0,0,0,Globally threatened species (A1),0,0,0,0,0,0,1,0,0,0,0,0,0,0,0,0,0,0,0,0,0,0,0,0,0,0,0,0,0,0,0,0,0,0,0,0,0,0,0,0,0,0,0,0,0,0,0,0,0,0,0,0,0,0,0,0,0,0,0,0,0,0,0,0,0,0,0,0,0,0,0,0,0,0,0,0,0,0,0,0,0,0,0,0,0,0,0,0,"	,	,	,"
IN-RJ-15,Sajjan Garh,Rajasthan,Udaipur,519,Wildlife Sanctuary,24.5931657,73.63934038,NA,NA,,1,0,0,0,0,0,0,0,Globally threatened species (A1),0,0,0,0,0,0,1,0,0,0,0,0,0,0,0,0,0,0,0,0,0,0,0,0,0,0,0,0,0,0,0,0,0,0,0,0,0,0,0,0,0,0,0,0,0,0,0,0,0,0,0,0,0,0,0,0,0,0,0,0,0,0,0,0,0,0,0,0,0,0,0,0,0,0,0,0,0,0,0,0,0,0,0,0,0,0,0,0,"	,	,	,	,"
IN-RJ-16,Sambhar Lake,Rajasthan,"Nagaur, Jaipur, Ajmer",19000,Non Officially Protected,26.9038913,75.1798971,26.95,75.07,,1,0,0,1,0,1,0,0,"Globally threatened species, Congregations: Site known or thought to hold, on a regular basis, > 1% of a bio-geographic population of a congregatory waterbird species, Congregations: Site known or thought to hold, on a regular basis, > 20,000 water birds or > 10,000 pairs of seabirds of one or more species (A1, A4i, A4iii)",0,0,0,0,0,0,0,0,1,0,0,0,0,0,0,0,0,0,0,0,0,0,0,0,0,0,0,0,0,0,0,0,0,0,0,0,0,0,0,0,0,0,0,0,0,0,0,0,0,0,0,0,0,0,0,0,0,0,0,0,0,0,0,0,0,0,0,0,0,0,0,0,0,0,0,0,0,0,0,0,0,0,0,0,0,0,0,0,
IN-RJ-17,Sareri Bandh,Rajasthan,Bhilwara,300,Non Officially Protected,NA,NA,25.71,75.64,,1,0,0,0,0,1,0,0,"Globally threatened species, Congregations: Site known or thought to hold, on a regular basis, > 20,000 water birds or > 10,000 pairs of seabirds of one or more species (A1, A4iii)",0,0,0,0,0,0,0,0,1,0,0,0,0,0,0,0,0,0,0,0,0,0,0,0,0,0,0,0,0,0,0,0,0,0,0,0,0,0,0,0,0,0,0,0,0,0,0,0,0,0,0,0,0,0,0,0,0,0,0,0,0,0,0,0,0,0,0,0,0,0,0,0,0,0,0,0,0,0,0,0,0,0,0,0,0,0,0,0,
IN-RJ-18,Sariska,Rajasthan,Alwar,86600,Tiger Reserve,27.3941031,76.37022892,NA,NA,,1,0,0,0,0,0,0,0,Globally threatened species (A1),0,0,0,0,0,0,1,0,0,0,0,0,0,0,0,0,0,0,0,0,0,0,0,0,0,0,0,0,0,0,0,0,0,0,0,0,0,0,0,0,0,0,0,0,0,0,0,0,0,0,1,0,0,0,0,0,0,0,0,0,0,0,0,0,0,0,0,0,0,0,0,0,0,0,0,0,0,0,0,0,0,0,0,0,0,0,0,0,"	,	,	,	,"
IN-RJ-19,Sei Dam,Rajasthan,Udaipur,300,Non Officially Protected,NA,NA,NA,NA,,1,0,0,0,0,0,0,0,Globally threatened species (A1),0,0,0,0,0,0,0,0,1,0,0,0,0,0,0,1,0,0,0,0,0,0,0,0,0,0,0,0,0,0,0,0,0,0,0,0,0,0,0,0,0,0,0,0,0,0,0,0,0,0,0,0,0,0,0,0,0,0,0,0,0,0,0,0,0,0,0,0,0,0,0,0,0,0,0,0,0,0,0,0,0,0,0,0,0,0,0,0,"	,	,	,"
IN-RJ-20,Sitamata,Rajasthan,"Chittorgarh, Udaipur",42294,Wildlife Sanctuary,NA,NA,NA,NA,,1,0,0,0,0,0,0,0,Globally threatened species (A1),0,0,0,0,0,0,1,0,0,0,0,0,0,0,0,0,0,0,0,0,0,0,0,0,0,0,0,0,0,0,0,0,0,0,0,0,0,0,0,0,0,0,0,0,0,0,0,0,0,0,0,0,0,0,0,0,0,0,0,0,0,0,0,0,0,0,0,0,0,0,0,0,0,0,0,0,0,0,0,0,0,0,0,0,0,0,0,0,
IN-RJ-21,Sonkhilya,Rajasthan,Ajmer,17134,Non Officially Protected,NA,NA,NA,NA,,1,0,0,0,0,0,0,0,Globally threatened species (A1),0,0,0,0,0,0,0,1,0,0,0,0,0,0,0,0,0,0,0,0,0,0,0,0,0,0,0,0,0,0,0,0,0,0,0,0,0,0,0,0,0,0,0,0,0,0,0,0,0,0,0,0,0,0,0,0,0,0,0,0,0,0,0,0,0,0,0,0,0,0,0,0,0,0,0,0,0,0,0,0,0,0,0,0,0,0,0,0,
IN-RJ-22,Talchapar,Rajasthan,Churu,790,Wildlife Sanctuary,NA,NA,NA,NA,,1,0,0,0,0,0,0,0,Globally threatened species (A1),0,0,0,0,0,0,0,0,0,0,0,0,0,0,0,0,0,0,0,0,0,0,0,0,0,0,0,0,0,0,0,0,0,0,0,0,0,0,0,0,0,0,0,0,0,0,0,0,0,1,0,0,0,0,0,0,0,0,0,0,0,0,0,0,0,0,0,0,0,0,0,0,0,0,0,0,0,0,0,0,0,0,0,0,0,0,0,0,"	,	,	,"
IN-RJ-23,Udaipur Lake Complex,Rajasthan,Udaipur,3030,Non Officially Protected,NA,NA,NA,NA,,1,0,0,1,0,0,0,0,"Globally threatened species, Congregations: Site known or thought to hold, on a regular basis, > 1% of a bio-geographic population of a congregatory waterbird species (A1, A4i)",0,0,0,0,0,0,0,0,1,0,0,0,0,0,0,0,0,0,0,0,0,0,0,0,0,0,0,0,0,0,0,0,0,0,0,0,0,0,0,0,0,0,0,0,0,0,0,0,0,0,0,0,0,0,0,0,0,0,0,0,0,0,0,0,0,0,0,0,0,0,0,0,0,0,0,0,0,0,0,0,0,0,0,0,0,0,0,0,"	,	,	,	,"
IN-RJ-24,Baghdarrah,Rajasthan,Udaipur,342,Non Officially Protected,NA,NA,NA,NA,,1,0,1,0,0,0,0,0,"Globally threatened species, Biome-restricted assemblage (A1, A3)",0,0,0,0,0,0,1,0,1,0,0,0,0,0,0,0,0,0,0,0,0,0,0,0,0,0,0,0,0,0,0,0,0,0,0,0,0,0,0,0,0,0,0,0,0,0,0,0,0,0,0,0,0,0,0,0,0,0,0,0,0,0,0,0,0,0,0,0,0,0,0,0,0,0,0,0,0,0,0,0,0,0,0,0,0,0,0,0,"	,	,	,	,"
IN-SK-01,Barsey Rhododendron,Sikkim,West SK,104000,Wildlife Sanctuary,NA,NA,NA,NA,,1,1,1,0,0,0,0,0,"Globally threatened species, Restricted range species, Biome-restricted assemblage (A1, A2, A3)",0,0,0,0,0,0,0,0,0,0,1,0,0,0,0,0,0,0,0,0,0,1,0,0,0,0,0,0,0,0,0,0,0,0,0,0,0,0,0,0,0,0,0,0,0,0,0,0,0,0,0,0,0,0,0,0,0,0,0,0,0,0,0,0,0,0,0,0,0,0,0,0,0,0,0,0,0,0,0,0,0,0,0,0,0,0,0,0,"	,	,"
IN-SK-02,Dombang Valley - Lachung - Lema Tu,Sikkim,North SK,60000,Non Officially Protected,NA,NA,NA,NA,,1,1,1,0,0,0,0,0,"Globally threatened species, Restricted range species, Biome-restricted assemblage (A1, A2, A3)",0,0,0,0,0,0,0,0,0,0,0,0,0,0,0,0,0,0,0,0,0,0,0,0,0,0,0,0,0,0,0,0,0,0,0,0,0,0,0,0,0,0,0,0,0,0,0,0,0,0,0,0,0,0,0,0,0,0,0,0,0,0,0,0,0,0,0,0,0,0,0,0,0,1,1,1,1,0,0,0,0,0,0,0,0,0,0,0,
IN-SK-03,Fambong Loh,Sikkim,East SK,5381,Wildlife Sanctuary,NA,NA,NA,NA,,1,1,1,0,0,0,0,0,"Globally threatened species, Restricted range species, Biome-restricted assemblage (A1, A2, A3)",0,0,0,0,0,0,0,0,0,0,0,0,0,0,0,0,0,0,0,0,0,1,0,0,1,0,0,0,0,0,0,0,0,0,0,0,0,0,0,0,0,0,0,0,0,0,0,0,0,0,0,0,0,0,0,0,0,0,0,0,0,0,0,0,0,0,0,0,0,0,0,0,0,0,0,0,0,0,0,0,0,0,0,0,0,0,0,0,"	,	,"
IN-SK-04,Khangchendzonga,Sikkim,North SK,84950,National Park,27.32681695,88.58760724,NA,NA,,1,0,1,0,0,0,0,0,"Globally threatened species, Biome-restricted assemblage (A1, A3)",0,0,0,0,0,0,0,0,0,0,0,0,0,0,0,0,0,0,0,0,0,0,0,0,0,0,0,0,0,0,0,0,0,0,0,0,0,0,0,0,0,0,0,0,0,0,0,0,0,0,0,0,0,0,0,0,0,0,0,0,0,0,0,0,0,0,0,0,0,0,0,0,0,0,0,0,0,1,1,1,0,0,0,0,0,0,0,0,
IN-SK-05,Kyongnosla Alpine East SK,Sikkim,East SK,3100,Wildlife Sanctuary,NA,NA,NA,NA,,1,1,1,0,0,0,0,0,"Globally threatened species, Restricted range species, Biome-restricted assemblage (A1, A2, A3)",0,0,0,0,0,0,0,0,0,0,0,0,0,0,0,0,0,0,0,0,0,1,0,0,0,0,0,0,0,0,0,0,0,0,0,0,0,0,0,0,0,0,0,0,0,0,0,0,0,0,0,1,0,0,0,0,0,0,0,0,0,0,0,0,0,0,0,0,0,0,0,0,0,0,0,0,0,0,0,0,0,0,0,0,0,0,0,0,
IN-SK-06,Lhonak Valley,Sikkim,North SK,50000,Non Officially Protected,27.8180889,88.475475,27.92,88.42,,1,1,1,0,0,0,0,0,"Globally threatened species, Restricted range species, Biome-restricted assemblage (A1, A2, A3)",0,0,0,0,0,0,0,0,0,0,0,0,0,0,0,0,0,0,0,0,0,0,0,0,0,0,0,1,0,0,0,0,0,0,0,0,0,0,0,0,0,0,0,0,0,0,0,0,0,0,0,1,0,0,0,0,0,0,0,0,0,0,0,0,0,0,0,0,0,0,0,0,0,0,0,0,0,0,0,0,0,0,0,0,0,0,0,0,"	,	,	,"
IN-SK-07,Lowland  of South SK,Sikkim,South & West SK,2000,Non Officially Protected,NA,NA,NA,NA,,1,1,1,0,0,0,0,0,"Globally threatened species, Restricted range species, Biome-restricted assemblage (A1, A2, A3)",0,0,0,0,0,0,0,1,0,0,0,0,0,0,0,1,0,0,0,0,0,0,0,0,0,0,0,0,0,0,0,0,0,0,0,0,0,0,0,0,0,0,0,0,0,0,0,0,0,0,0,0,0,0,0,0,0,0,0,0,0,0,0,0,0,0,0,0,0,0,0,0,0,0,0,0,0,0,0,0,0,0,0,0,0,0,0,0,"	,	,"
IN-SK-08,Maenam,Sikkim,South  SK,3534,Wildlife Sanctuary,NA,NA,NA,NA,,1,1,1,0,0,0,0,0,"Globally threatened species, Restricted range species, Biome-restricted assemblage (A1, A2, A3)",0,0,0,0,0,0,0,0,0,0,1,0,0,0,0,0,0,0,0,0,0,1,0,0,0,0,0,0,0,0,0,0,0,0,0,0,0,0,0,0,0,0,0,0,0,0,0,0,0,0,0,0,0,0,0,0,0,0,0,0,0,0,0,0,0,0,0,0,0,0,0,0,0,0,0,0,0,0,0,0,0,0,0,0,0,0,0,0,"	,	,"
IN-SK-09,Pangolakha Zuluk - Bedang Tso,Sikkim,East SK,12400,Wildlife Sanctuary,NA,NA,NA,NA,,1,1,1,0,0,0,0,0,"Globally threatened species, Restricted range species, Biome-restricted assemblage (A1, A2, A3)",0,0,0,0,0,0,0,0,0,0,0,0,0,0,0,0,0,0,0,0,0,1,0,0,1,0,0,0,0,0,0,0,0,0,0,0,0,0,0,0,0,0,0,0,0,0,0,0,0,0,0,0,0,0,0,0,0,0,0,0,0,0,0,0,0,0,0,0,0,0,0,0,0,0,0,0,0,0,0,0,0,0,0,0,0,0,0,0,"	,	,"
IN-SK-10,Tso Lhamo Plateau,Sikkim,North SK,50000,Non Officially Protected,NA,NA,NA,NA,,1,1,1,0,0,0,0,0,"Globally threatened species, Restricted range species, Biome-restricted assemblage (A1, A2, A3)",0,0,0,0,0,0,0,0,0,0,0,0,0,0,0,0,0,0,0,0,0,0,0,0,0,0,0,0,0,0,0,0,0,0,0,0,0,0,0,0,0,0,0,0,0,0,0,0,0,0,0,0,0,0,0,0,0,0,0,0,0,0,0,0,0,0,0,0,0,0,0,0,0,0,0,0,0,0,0,0,1,1,0,0,0,0,0,0,"	,	,	,"
IN-SK-11,Yumthang - Shingba Rhododendron,Sikkim,North SK,4300,Wildlife Sanctuary,NA,NA,NA,NA,,1,1,1,0,0,0,0,0,"Globally threatened species, Restricted range species, Biome-restricted assemblage (A1, A2, A3)",0,0,0,0,0,0,0,0,0,0,0,0,0,0,0,0,0,0,0,0,0,0,0,0,0,0,0,0,0,0,0,0,0,0,0,0,0,0,0,0,0,0,0,0,0,0,0,0,0,0,0,0,0,0,0,0,0,0,0,0,0,0,0,0,0,0,0,0,0,0,0,0,0,0,1,0,0,0,0,0,0,0,1,1,0,0,0,0,
IN-TN-01,Avalanche,Tamilnadu,Nilgiris,7846,Non Officially Protected,11.3606717,76.6533423,NA,NA,,1,1,1,0,0,0,0,0,"Globally threatened species, Restricted range species, Biome-restricted assemblage (A1, A2, A3)",0,0,0,1,0,0,0,1,0,0,0,0,0,0,0,0,0,0,0,0,0,0,0,1,0,0,0,0,0,0,0,0,0,0,0,0,0,0,0,0,0,0,0,0,0,0,0,0,0,0,0,0,0,0,0,0,0,0,0,0,0,0,0,0,0,0,0,0,0,0,0,0,0,0,0,0,0,0,0,0,0,0,0,0,0,0,0,0,"	,	,	,"
IN-TN-02,Berijam (Kodaikonal),Tamilnadu,Dindigul,62000,Non Officially Protected,NA,NA,NA,NA,,1,1,0,0,0,0,0,0,"Globally threatened species, Restricted range species (A1, A2)",0,1,0,0,0,0,0,1,0,0,0,0,0,1,0,0,0,0,0,0,0,0,0,0,0,0,0,0,0,0,0,0,0,0,0,0,0,0,0,0,0,0,0,0,0,0,0,0,0,0,0,0,0,0,0,0,0,0,0,0,0,0,0,0,0,0,0,0,0,0,0,0,0,0,0,0,0,0,0,0,0,0,0,0,0,0,0,0,
IN-TN-03,Big Tank (Peria Kanmai) and Sakkar,Tamilnadu,Ramanathupuram,2541,Non Officially Protected,NA,NA,NA,NA,,1,0,0,0,0,1,0,0,"Globally threatened species, Congregations: Site known or thought to hold, on a regular basis, > 20,000 water birds or > 10,000 pairs of seabirds of one or more species (A1, A4iii)",0,0,0,0,0,0,0,0,1,0,0,0,0,0,0,0,0,0,0,0,0,0,0,0,0,0,0,0,0,0,0,0,0,0,0,0,0,0,0,0,0,0,0,0,0,0,0,0,0,0,0,0,0,0,0,0,0,0,0,0,0,0,0,0,0,0,0,0,0,0,0,0,0,0,0,0,0,0,0,0,0,0,0,0,0,0,0,0,"	,	,"
IN-TN-04,Bison Swamp,Tamilnadu,Nilgiris,12,Non Officially Protected,NA,NA,NA,NA,,1,1,0,0,0,0,0,0,"Globally threatened species, Restricted range species (A1, A2)",0,0,0,1,0,0,0,1,0,0,0,0,0,0,0,0,0,1,0,0,0,0,0,0,0,0,0,0,0,0,0,0,0,0,0,0,0,0,0,0,0,0,0,0,0,0,0,0,0,0,0,0,0,0,0,0,0,0,0,0,0,0,0,0,0,0,0,0,0,0,0,0,0,0,0,0,0,0,0,0,0,0,0,0,0,0,0,0,"	,	,"
IN-TN-05,Cairn,Tamilnadu,Nilgiris,243,Non Officially Protected,NA,NA,NA,NA,,1,1,0,0,0,0,0,0,"Globally threatened species, Restricted range species (A1, A2)",0,0,0,0,0,0,0,1,0,0,0,0,0,0,0,0,0,1,0,0,0,0,0,0,0,0,0,0,0,0,0,0,0,0,0,0,0,0,0,0,0,0,0,0,0,0,0,0,0,0,0,0,0,0,0,0,0,0,0,0,0,0,0,0,0,0,0,0,0,0,0,0,0,0,0,0,0,0,0,0,0,0,0,0,0,0,0,0,"	,	,"
IN-TN-06,Chitragudi,Tamilnadu,Ramanathapuram,152,Wildlife Sanctuary,NA,NA,NA,NA,,1,0,0,1,0,0,0,0,"Globally threatened species, Congregations: Site known or thought to hold, on a regular basis, > 1% of a bio-geographic population of a congregatory waterbird species (A1, A4i)",0,0,0,0,0,0,0,0,0,0,0,0,0,0,0,0,0,0,0,0,0,0,0,0,0,0,0,0,0,0,0,0,0,0,0,0,0,0,0,0,0,0,0,0,0,0,0,0,0,0,0,0,0,0,0,0,0,1,0,0,0,0,0,0,0,0,0,0,0,0,0,0,0,0,0,0,0,0,0,0,0,0,0,0,0,0,0,0,
IN-TN-07,Governor'S Shola,Tamilnadu,Nilgiris,Not Defined,Non Officially Protected,NA,NA,NA,NA,,1,1,0,0,0,0,0,0,"Globally threatened species, Restricted range species (A1, A2)",0,0,0,0,0,0,0,1,0,0,0,0,0,0,0,0,0,1,0,0,0,0,0,0,0,0,0,0,0,0,0,0,0,0,0,0,0,0,0,0,0,0,0,0,0,0,0,0,0,0,0,0,0,0,0,0,0,0,0,0,0,0,0,0,0,0,0,0,0,0,0,0,0,0,0,0,0,0,0,0,0,0,0,0,0,0,0,0,"	,	,	,"
IN-TN-08,Grass Hills,Tamilnadu,Coimbatore,65700,Non Officially Protected,10.33418915,77.06171454,NA,NA,,1,1,0,0,0,0,0,0,"Globally threatened species, Restricted range species (A1, A2)",0,0,0,0,0,0,0,0,0,0,0,0,0,0,0,0,0,0,0,0,0,0,0,0,0,0,0,0,0,0,0,0,0,0,0,0,0,0,0,0,0,0,0,0,0,0,0,0,0,0,0,0,0,0,0,0,0,0,0,0,0,0,0,0,0,0,0,0,0,0,0,0,0,0,0,0,0,0,0,0,0,0,0,0,1,1,0,0,"	,	,"
IN-TN-09,Gulf of Mannar,Tamilnadu,"Ramanathapuram, Tuticorin",623,National Park,NA,NA,NA,NA,,1,0,0,0,0,1,0,0,"Globally threatened species, Congregations: Site known or thought to hold, on a regular basis, > 20,000 water birds or > 10,000 pairs of seabirds of one or more species (A1, A4iii)",0,0,1,0,0,0,0,1,0,0,0,0,0,0,0,0,0,0,0,0,0,0,0,0,0,0,0,0,0,0,0,0,0,0,0,0,0,0,0,0,0,0,0,0,0,0,0,0,0,0,0,0,0,0,0,0,0,0,0,0,0,0,0,0,0,0,0,0,0,0,0,0,0,0,0,0,0,0,0,0,0,0,0,0,0,0,0,0,"	,	,	,"
IN-TN-10,Indira Gandhi,Tamilnadu,Coimbatore,98700,National Park,13.0539628,80.2011489,NA,NA,,1,1,1,0,0,0,0,0,"Globally threatened species, Restricted range species, Biome-restricted assemblage (A1, A2, A3)",0,0,0,1,0,0,0,1,0,0,0,0,0,1,0,0,0,0,0,0,0,0,0,0,0,0,0,0,0,0,0,0,0,0,0,0,0,0,0,0,0,0,0,0,0,1,0,0,0,0,0,0,0,0,0,0,0,0,0,0,0,0,0,0,0,0,0,0,0,0,0,0,0,0,0,0,0,0,0,0,0,0,0,0,0,0,0,0,"	,	,	,	,"
IN-TN-11,Kalakad - Mundanthurai,Tamilnadu,Tirunelveli,81800,Tiger Reserve,NA,NA,NA,NA,,1,1,0,0,0,0,0,0,"Globally threatened species, Restricted range species (A1, A2)",1,1,0,1,0,0,0,0,0,0,0,0,0,0,0,0,0,0,0,0,0,0,1,0,0,0,0,0,0,0,0,0,0,0,0,0,0,0,0,0,0,0,0,0,0,0,0,0,0,0,0,0,0,0,0,0,0,0,0,0,0,0,0,0,0,0,0,0,0,0,0,0,0,0,0,0,0,0,0,0,0,0,0,0,0,0,0,0,"	,	,	,"
IN-TN-12,Kaliveli Tank and Yeduyanthittu Es,Tamilnadu,Cuddalore,7500,Non Officially Protected,NA,NA,NA,NA,,1,0,0,1,0,1,0,0,"Globally threatened species, Congregations: Site known or thought to hold, on a regular basis, > 1% of a bio-geographic population of a congregatory waterbird species, Congregations: Site known or thought to hold, on a regular basis, > 20,000 water birds or > 10,000 pairs of seabirds of one or more species (A1, A4i, A4iii)",0,0,0,0,0,0,0,0,1,0,0,0,0,0,0,0,0,0,0,0,0,0,0,0,0,0,0,0,0,0,0,0,0,0,0,0,0,0,0,0,0,0,1,0,0,0,0,0,0,0,0,0,0,0,0,0,0,0,0,0,0,0,0,0,0,0,0,0,0,0,0,0,0,0,0,0,0,0,0,0,0,0,0,0,0,0,0,0,"	,	,"
IN-TN-13,Karaivetti,Tamilnadu,Tiruchchirappalli,454,Wildlife Sanctuary,NA,NA,NA,NA,,1,0,0,1,0,1,0,0,"Globally threatened species, Congregations: Site known or thought to hold, on a regular basis, > 1% of a bio-geographic population of a congregatory waterbird species, Congregations: Site known or thought to hold, on a regular basis, > 20,000 water birds or > 10,000 pairs of seabirds of one or more species (A1, A4i, A4iii)",0,0,0,0,0,0,0,0,1,0,0,0,0,0,0,0,0,0,0,0,0,0,0,0,0,0,0,0,0,0,0,0,0,0,0,0,0,0,0,0,0,0,0,0,0,0,0,0,0,0,0,0,0,0,0,0,0,0,0,0,0,0,0,0,0,0,0,0,0,0,0,0,0,0,0,0,0,0,0,0,0,0,0,0,0,0,0,0,"	,	,"
IN-TN-14,Koonthangulam,Tamilnadu,Tirunelveli,129,Wildlife Sanctuary,NA,NA,NA,NA,,1,0,0,1,0,0,0,0,"Globally threatened species, Congregations: Site known or thought to hold, on a regular basis, > 1% of a bio-geographic population of a congregatory waterbird species (A1, A4i)",0,0,0,0,0,0,0,0,1,0,0,0,0,0,0,0,0,0,0,0,0,0,0,0,0,0,0,0,0,0,0,0,0,0,0,0,0,0,0,0,0,0,0,0,0,0,0,0,0,0,0,0,0,0,0,0,0,1,0,0,0,0,0,0,0,0,0,0,0,0,0,0,0,0,0,0,0,0,0,0,0,0,0,0,0,0,0,0,"	,	,	,"
IN-TN-15,"Kothagiri, Longwood Shola",Tamilnadu,Nilgiris (North Division ),116,Non Officially Protected,NA,NA,NA,NA,,1,1,0,0,0,0,0,0,"Globally threatened species, Restricted range species (A1, A2)",0,0,0,0,0,0,0,0,0,0,0,0,0,0,0,0,0,0,0,0,0,0,0,0,0,0,0,0,0,0,0,0,0,0,0,0,0,0,0,0,0,0,0,0,0,0,0,0,0,0,0,0,0,0,0,0,0,0,0,0,0,0,0,0,0,0,0,0,0,0,0,0,0,0,0,0,0,0,0,0,0,0,0,0,0,0,0,0,"	,	,"
IN-TN-16,Kullur Santhai Dam,Tamilnadu,Virudunagar,1362,Non Officially Protected,NA,NA,NA,NA,,1,0,0,0,0,0,0,0,Globally threatened species (A1),0,0,0,0,0,0,0,0,1,0,0,0,0,0,0,0,0,0,0,0,0,0,0,0,0,0,0,0,0,0,0,0,0,0,0,0,0,0,0,0,0,0,0,0,0,0,0,0,0,0,0,0,0,0,0,0,0,0,0,0,0,0,0,0,0,0,0,0,0,0,0,0,0,0,0,0,0,0,0,0,0,0,0,0,0,0,0,0,"	,	,"
IN-TN-17,Mudumalai,Tamilnadu,Nilgiris,32100,National Park,11.5415923,76.6537093,NA,NA,,1,1,1,0,0,0,0,0,"Globally threatened species, Restricted range species, Biome-restricted assemblage (A1, A2, A3)",0,1,0,0,0,0,0,0,0,0,0,0,0,0,0,1,0,0,0,0,0,1,0,0,0,0,0,0,0,0,0,0,0,0,0,0,0,0,0,0,0,0,0,0,0,0,0,0,0,0,0,0,0,0,0,0,0,0,0,0,0,0,0,0,0,0,0,0,0,0,0,0,0,0,0,0,0,0,0,0,0,0,0,0,0,0,0,0,
IN-TN-18,Mukurthi,Tamilnadu,Nilgiris,7846,National Park,11.25554815,76.52214907,NA,NA,,1,1,0,0,0,0,0,0,"Globally threatened species, Restricted range species (A1, A2)",0,0,0,1,0,0,0,0,0,0,0,0,0,0,0,0,0,1,0,0,0,0,0,0,0,0,0,0,0,0,0,0,0,0,0,0,0,0,0,0,0,0,0,0,0,0,0,0,0,0,0,0,0,0,0,0,0,0,0,0,0,0,0,0,0,0,0,0,0,0,0,0,0,0,0,0,0,0,0,0,0,0,0,0,0,0,0,0,"	,	,	,"
IN-TN-19,Naduvattam,Tamilnadu,Nilgiris,3538,Non Officially Protected,11.4798876,76.5443764,11.32,76.57,,1,1,0,0,0,0,0,0,"Globally threatened species, Restricted range species (A1, A2)",0,0,0,0,0,0,0,1,0,0,0,0,0,0,0,0,0,1,0,0,0,0,0,0,0,0,0,0,0,0,0,0,0,0,0,0,0,0,0,0,0,0,0,0,0,0,0,0,0,0,0,0,0,0,0,0,0,0,0,0,0,0,0,0,0,0,0,0,0,0,0,0,0,0,0,0,0,0,0,0,0,0,0,0,0,0,0,0,"	,	,	,"
IN-TN-20,Point Calimere,Tamilnadu,Nagapattinam,37733,Wildlife Sanctuary,10.2938023,79.8688962,NA,NA,,1,0,0,1,0,1,0,0,"Globally threatened species, Congregations: Site known or thought to hold, on a regular basis, > 1% of a bio-geographic population of a congregatory waterbird species, Congregations: Site known or thought to hold, on a regular basis, > 20,000 water birds or > 10,000 pairs of seabirds of one or more species (A1, A4i, A4iii)",0,0,1,0,0,0,0,0,0,0,0,0,0,1,0,0,0,0,0,0,0,0,0,0,0,0,0,0,0,0,0,0,0,0,0,0,0,0,0,0,0,0,0,0,0,0,0,0,0,0,0,0,0,0,0,0,0,0,0,0,0,0,0,0,0,0,0,0,0,0,0,0,0,0,0,0,0,0,0,0,0,0,0,0,0,0,0,0,"	,	,	,"
IN-TN-21,Poomparai and Kukkal,Tamilnadu,Dindigul,6450,Non Officially Protected,NA,NA,10.37,77.35,,1,1,0,0,0,0,0,0,"Globally threatened species, Restricted range species (A1, A2)",0,0,0,0,0,0,0,0,0,0,0,0,0,0,0,0,0,0,0,0,0,0,0,0,0,0,0,0,0,0,0,0,0,0,0,0,0,0,0,0,0,0,0,0,0,0,0,0,0,0,0,0,0,0,0,0,0,0,0,0,0,0,0,0,0,0,0,0,0,0,0,0,0,0,0,0,0,0,0,0,0,0,0,0,0,0,1,1,"	,	,"
IN-TN-22,Shola  around Kodaikanal,Tamilnadu,Dindigul,1600,Non Officially Protected,NA,NA,NA,NA,,1,1,0,0,0,0,0,0,"Globally threatened species, Restricted range species (A1, A2)",0,0,0,1,0,0,0,0,0,0,0,0,0,1,0,0,0,0,0,0,0,0,0,0,0,0,0,0,0,0,0,0,0,0,0,0,0,0,0,0,0,0,0,0,0,0,0,0,0,0,0,0,0,0,0,0,0,0,0,0,0,0,0,0,0,0,0,0,0,0,0,0,0,0,0,0,0,0,0,0,0,0,0,0,0,0,0,0,"	,	,	,"
IN-TN-23,Srivilliputhur,Tamilnadu,Virudunagar,48520,Wildlife Sanctuary,9.5834976,77.9370963,NA,NA,,1,1,0,0,0,0,0,0,"Globally threatened species, Restricted range species (A1, A2)",0,1,0,0,0,0,1,0,0,0,0,0,0,0,0,1,0,0,0,0,0,0,0,0,0,0,0,0,0,0,0,0,0,0,0,0,0,0,0,0,0,0,0,0,0,0,0,0,0,0,0,0,0,0,0,0,0,0,0,0,0,0,0,0,0,0,0,0,0,0,0,0,0,0,0,0,0,0,0,0,0,0,0,0,0,0,0,0,"	,	,"
IN-TN-24,Suchindram Therur,Tamilnadu,Kanyakumari,Not Defined,Non Officially Protected,NA,NA,NA,NA,,1,0,0,1,0,0,0,0,"Globally threatened species, Congregations: Site known or thought to hold, on a regular basis, > 1% of a bio-geographic population of a congregatory waterbird species (A1, A4i)",0,0,0,0,0,0,0,0,1,0,0,0,0,0,0,0,0,0,0,0,0,0,0,0,0,0,0,0,0,0,0,0,0,0,0,0,0,0,0,0,0,0,0,0,0,0,0,0,0,0,0,0,0,0,0,0,0,0,0,0,0,0,0,0,0,0,0,0,0,0,0,0,0,0,0,0,0,0,0,0,0,0,0,0,0,0,0,0,"	,	,"
IN-TN-25,Thaishola,Tamilnadu,Nilgiri,603,Non Officially Protected,NA,NA,11.51,76.48,,1,1,1,0,0,0,0,0,"Globally threatened species, Restricted range species, Biome-restricted assemblage (A1, A2, A3)",0,0,0,0,0,0,0,1,0,0,0,0,0,0,0,0,0,1,0,0,0,0,0,0,0,0,0,0,0,0,0,0,0,0,0,0,0,0,0,0,0,0,0,0,0,0,0,0,0,0,0,0,0,0,0,0,0,0,0,0,0,0,0,0,0,0,0,0,0,0,0,0,0,0,0,0,0,0,0,0,0,0,0,0,0,0,0,0,"	,	,	,"
IN-TN-26,Tirunelveli,Tamilnadu,Kanyankumari and Tirunelveli,220,Non Officially Protected,8.7295261,77.6852354,NA,NA,,1,1,1,0,0,0,0,0,"Globally threatened species, Restricted range species, Biome-restricted assemblage (A1, A2, A3)",0,0,0,0,0,0,0,0,0,0,0,0,0,1,0,1,0,1,0,0,0,0,0,0,0,0,0,0,0,0,0,0,0,0,0,0,0,0,0,0,0,0,0,0,0,0,0,0,0,0,0,0,0,0,0,0,0,0,0,0,0,0,0,0,0,0,0,0,0,0,0,0,0,0,0,0,0,0,0,0,0,0,0,0,0,0,0,0,"	,	,"
IN-TN-27,Vadidoor and Kunnathur Tanks,Tamilnadu,Madurai,278,Non Officially Protected,NA,NA,NA,NA,,1,0,0,0,0,0,0,0,Globally threatened species (A1),0,0,0,0,0,0,0,0,1,0,0,0,0,0,0,0,0,0,0,0,0,0,0,0,0,0,0,0,0,0,0,0,0,0,0,0,0,0,0,0,0,0,0,0,0,0,0,0,0,0,0,0,0,0,0,0,0,0,0,0,0,0,0,0,0,0,0,0,0,0,0,0,0,0,0,0,0,0,0,0,0,0,0,0,0,0,0,0,"	,	,	,"
IN-TN-28,Vaduvoor,Tamilnadu,Tiruvarur,128,Wildlife Sanctuary,NA,NA,NA,NA,,1,0,0,0,0,0,0,0,Globally threatened species (A1),0,0,0,0,0,0,0,0,1,0,0,0,0,0,0,0,0,0,0,0,0,0,0,0,0,0,0,0,0,0,0,0,0,0,0,0,0,0,0,0,0,0,0,0,0,0,0,0,0,0,0,0,0,0,0,0,0,0,0,0,0,0,0,0,0,0,0,0,0,0,0,0,0,0,0,0,0,0,0,0,0,0,0,0,0,0,0,0,"	,	,"
IN-TN-29,Vedanthangal and Karikili,Tamilnadu,Chengalpet,80,Wildlife Sanctuary,NA,NA,NA,NA,,1,0,0,0,0,1,0,0,"Globally threatened species, Congregations: Site known or thought to hold, on a regular basis, > 20,000 water birds or > 10,000 pairs of seabirds of one or more species (A1, A4iii)",0,0,0,0,0,0,0,0,1,0,0,0,0,0,0,0,0,0,0,0,0,0,0,0,0,0,0,0,0,0,0,0,0,0,0,0,0,0,0,0,0,0,0,0,0,0,0,0,0,0,0,0,0,0,0,0,0,0,0,0,0,0,0,0,0,0,0,0,0,0,0,0,0,0,0,0,0,0,0,0,0,0,0,0,0,0,0,0,
IN-TN-30,Veeeranam Lake,Tamilnadu,Cuddalore,3885,Non Officially Protected,NA,NA,NA,NA,,1,0,0,1,0,1,0,0,"Globally threatened species, Congregations: Site known or thought to hold, on a regular basis, > 1% of a bio-geographic population of a congregatory waterbird species, Congregations: Site known or thought to hold, on a regular basis, > 20,000 water birds or > 10,000 pairs of seabirds of one or more species (A1, A4i, A4iii)",0,0,0,0,0,0,0,0,1,0,0,0,0,0,0,0,0,0,0,0,0,0,0,0,0,0,0,0,0,0,0,0,0,0,0,0,0,0,0,0,0,0,0,0,0,0,0,0,0,0,0,0,0,0,0,0,0,0,0,0,0,0,0,0,0,0,0,0,0,0,0,0,0,0,0,0,0,0,0,0,0,0,0,0,0,0,0,0,"	,	,"
IN-TN-31,Vettangudi,Tamilnadu,Sivagangai,38,Wildlife Sanctuary,NA,NA,NA,NA,,1,0,0,1,0,0,0,0,"Globally threatened species, Congregations: Site known or thought to hold, on a regular basis, > 1% of a bio-geographic population of a congregatory waterbird species (A1, A4i)",0,0,0,0,0,0,0,0,1,0,0,0,0,0,0,0,0,0,0,0,0,0,0,0,0,0,0,0,0,0,0,0,0,0,0,0,0,0,0,0,0,0,0,0,0,0,0,0,0,0,0,0,0,0,0,0,0,0,0,0,0,0,0,0,0,0,0,0,0,0,0,0,0,0,0,0,0,0,0,0,0,0,0,0,0,0,0,0,"	,	,"
IN-TN-32,Watrap Periakulam and Virakasamuth,Tamilnadu,Virudhunagar,251,Non Officially Protected,NA,NA,NA,NA,,1,0,0,1,0,1,0,0,"Globally threatened species, Congregations: Site known or thought to hold, on a regular basis, > 1% of a bio-geographic population of a congregatory waterbird species, Congregations: Site known or thought to hold, on a regular basis, > 20,000 water birds or > 10,000 pairs of seabirds of one or more species (A1, A4i, A4iii)",0,0,0,0,0,0,0,0,1,0,0,0,0,0,0,0,0,0,0,0,0,0,0,0,0,0,0,0,0,0,0,0,0,0,0,0,0,0,0,0,0,0,0,0,0,0,0,0,0,0,0,0,0,0,0,0,0,0,0,0,0,0,0,0,0,0,0,0,0,0,0,0,0,0,0,0,0,0,0,0,0,0,0,0,0,0,0,0,"	,	,"
IN-TN-33,Wellington Lake,Tamilnadu,Cuddalore,650,Non Officially Protected,11.3547575,76.7845914,NA,NA,,1,0,0,0,0,1,0,0,"Globally threatened species, Congregations: Site known or thought to hold, on a regular basis, > 20,000 water birds or > 10,000 pairs of seabirds of one or more species (A1, A4iii)",0,0,0,0,0,0,0,0,1,0,0,0,0,0,0,0,0,0,0,0,0,0,0,0,0,0,0,0,0,0,0,0,0,0,0,0,0,0,0,0,0,0,0,0,0,0,0,0,0,0,0,0,0,0,0,0,0,0,0,0,0,0,0,0,0,0,0,0,0,0,0,0,0,0,0,0,0,0,0,0,0,0,0,0,0,0,0,0,"	,	,	,"
IN-TN-34,Muthukuzhi,Tamilnadu,Nagercoil,Not Defined,Non Officially Protected,NA,NA,8.5,77.38,,1,1,0,0,0,0,0,1,"Globally threatened species, Restricted range species, Data deficient (A1, A2, DD)",0,0,0,0,0,0,0,0,0,0,0,0,0,0,0,0,0,1,0,0,0,0,0,0,0,0,0,0,0,0,0,0,0,0,0,0,0,0,0,0,0,0,0,0,0,0,0,0,0,0,0,0,0,0,0,0,0,0,0,0,0,0,0,0,0,0,0,0,0,0,0,0,0,0,0,0,0,0,0,0,0,0,0,0,0,0,0,0,"	,	,	,"
IN-TR-01,Gumti WLS,Tripura,Dhalai and South TR,38954,Wildlife Sanctuary,NA,NA,NA,NA,,1,0,0,1,0,0,0,0,"Globally threatened species, Congregations: Site known or thought to hold, on a regular basis, > 1% of a bio-geographic population of a congregatory waterbird species (A1, A4i)",0,1,0,0,0,0,0,0,1,0,0,0,0,0,0,0,0,0,0,0,0,0,0,0,0,0,0,0,0,0,0,0,0,0,0,0,0,0,0,0,0,0,0,0,0,0,0,0,0,0,0,0,0,0,0,0,0,0,0,0,0,0,0,0,0,0,0,0,0,0,0,0,0,0,0,0,0,0,0,0,0,0,0,0,0,0,0,0,"	,	,"
IN-TR-02,Trishna,Tripura,South TR,19470,Wildlife Sanctuary,NA,NA,NA,NA,,0,0,0,0,0,0,0,1,Data deficient (DD),0,1,0,0,0,0,0,0,0,0,0,0,0,0,0,0,0,0,0,0,0,0,0,0,0,0,0,0,0,0,0,0,0,0,0,0,0,0,0,0,0,0,0,0,0,0,0,0,0,0,0,0,0,0,0,0,0,0,0,0,0,0,0,0,0,0,0,0,0,0,0,0,0,0,0,0,0,0,0,0,0,0,0,0,0,0,0,0,"	,	,	,"
IN-UP-01,Bakhira,Uttar Pradesh,Sant Kabir Nagar,2894,Wildlife Sanctuary,NA,NA,NA,NA,,1,0,0,0,0,1,0,0,"Globally threatened species, Congregations: Site known or thought to hold, on a regular basis, > 20,000 water birds or > 10,000 pairs of seabirds of one or more species (A1, A4iii)",0,0,0,0,0,0,0,0,1,0,0,0,0,0,0,0,0,0,0,0,0,0,0,0,0,0,0,0,0,0,0,0,0,0,0,0,0,0,0,0,0,0,0,0,0,0,0,0,0,0,0,0,0,0,0,0,0,0,0,0,0,0,0,0,0,0,0,0,0,0,0,0,0,0,0,0,0,0,0,0,0,0,0,0,0,0,0,0,"	,	,"
IN-UP-02,Dudwa,Uttar Pradesh,Lakhimpur Kheri  (Palia tehsil),49000,National Park,28.508987,80.6730127,NA,NA,,1,0,1,1,0,0,0,0,"Globally threatened species, Biome-restricted assemblage, Congregations: Site known or thought to hold, on a regular basis, > 1% of a bio-geographic population of a congregatory waterbird species (A1, A3, A4i)",0,0,0,1,0,0,0,0,0,0,0,0,0,0,0,0,0,0,0,0,0,0,0,0,0,0,0,0,0,0,0,0,0,0,0,0,0,0,0,0,0,0,0,0,0,0,0,0,0,0,0,0,0,0,0,0,0,0,0,0,0,0,0,0,0,0,0,0,0,0,0,0,0,0,0,0,0,0,0,0,0,0,0,0,0,0,0,0,"	,	,	,"
IN-UP-03,Hastinapur,Uttar Pradesh,"Muzaffarnagar, Meerut, Ghaziabad, Bijnor",207300,Wildlife Sanctuary,29.1539372,77.9898759,NA,NA,,1,0,0,0,0,0,0,1,"Globally threatened species, Data deficient (A1, DD)",0,0,0,1,0,0,1,1,0,0,0,0,0,0,0,0,0,0,0,0,0,0,0,0,0,0,0,0,0,0,0,0,0,0,0,0,0,0,0,0,0,0,0,0,0,0,0,0,0,0,0,0,0,0,0,0,0,0,0,0,0,0,0,0,0,0,0,0,0,0,0,0,0,0,0,0,0,0,0,0,0,0,0,0,0,0,0,0,"	,	,"
IN-UP-04,Katernia - Ghat,Uttar Pradesh,Behraich,40069,Wildlife Sanctuary,NA,NA,NA,NA,,1,0,0,0,0,0,0,0,Globally threatened species (A1),0,0,0,0,0,0,0,0,1,0,0,0,0,0,0,1,0,0,0,0,0,0,1,0,0,0,0,0,0,0,0,0,0,0,0,0,0,0,0,0,0,0,0,0,0,0,0,0,0,0,0,0,0,0,0,0,0,0,0,0,0,0,0,0,0,0,0,0,0,0,0,0,0,0,0,0,0,0,0,0,0,0,0,0,0,0,0,0,"	,	,"
IN-UP-05,Kishanpur,Uttar Pradesh,Lakhimpur Kheri,22700,Wildlife Sanctuary,29.1936089,77.2834131,NA,NA,,1,0,0,0,0,0,0,0,Globally threatened species (A1),0,0,0,1,0,0,0,0,1,0,0,0,0,1,0,0,0,0,0,0,0,0,0,0,0,0,0,0,0,0,0,0,0,0,0,0,0,0,0,0,0,0,0,0,0,0,0,0,0,0,0,0,0,0,0,0,0,0,0,0,0,0,0,0,0,0,0,0,0,0,0,0,0,0,0,0,0,0,0,0,0,0,0,0,0,0,0,0,"	,	,"
IN-UP-06,Kudaiyya Marshland,Uttar Pradesh,Mainpuri,300,Non Officially Protected,NA,NA,27,78.98,,1,0,0,0,0,1,0,0,"Globally threatened species, Congregations: Site known or thought to hold, on a regular basis, > 20,000 water birds or > 10,000 pairs of seabirds of one or more species (A1, A4iii)",0,0,0,0,0,0,0,0,1,0,0,0,0,0,0,0,0,0,0,0,0,0,0,0,0,0,0,0,0,0,0,0,0,0,0,0,0,0,0,0,0,0,1,0,0,0,0,0,0,0,0,0,0,0,0,0,0,0,0,0,0,0,0,0,0,0,0,0,0,0,0,0,0,0,0,0,0,0,0,0,0,0,0,0,0,0,0,0,"	,	,	,"
IN-UP-07,Kurra Jheel,Uttar Pradesh,"Etawah, Mainpuri",200,Non Officially Protected,NA,NA,27.02,79.1,,1,0,0,0,0,1,0,0,"Globally threatened species, Congregations: Site known or thought to hold, on a regular basis, > 20,000 water birds or > 10,000 pairs of seabirds of one or more species (A1, A4iii)",0,0,0,0,0,0,0,0,1,0,0,0,0,0,0,0,0,0,0,0,0,0,0,0,0,0,0,0,0,0,0,0,0,0,0,0,0,0,0,0,0,0,0,0,0,0,0,0,0,0,0,0,0,0,0,0,0,0,0,0,0,0,0,0,0,0,0,0,0,0,0,0,0,0,0,0,0,0,0,0,0,0,0,0,0,0,0,0,"	,	,"
IN-UP-08,Lagga - Bagga,Uttar Pradesh,Pilibhit,1160,Non Officially Protected,NA,NA,NA,NA,,1,0,0,0,0,0,0,0,Globally threatened species (A1),0,0,0,1,0,0,0,0,0,0,0,0,0,1,0,0,0,0,0,0,0,0,0,0,0,0,0,0,0,0,0,0,0,0,0,0,0,0,0,0,0,0,0,0,0,0,0,0,0,0,0,0,0,0,0,0,0,0,0,0,0,0,0,0,0,0,0,0,0,0,0,0,0,0,0,0,0,0,0,0,0,0,0,0,0,0,0,0,"	,	,"
IN-UP-09,Lakhbahosi,Uttar Pradesh,Farrukkhabad,8024,Wildlife Sanctuary,NA,NA,NA,NA,,1,0,0,0,0,1,0,0,"Globally threatened species, Congregations: Site known or thought to hold, on a regular basis, > 20,000 water birds or > 10,000 pairs of seabirds of one or more species (A1, A4iii)",0,0,0,0,0,0,0,0,1,0,0,0,0,0,0,0,0,0,0,0,0,0,0,0,0,0,0,0,0,0,0,0,0,0,0,0,0,0,0,0,0,0,0,0,0,0,0,0,0,0,0,0,0,0,0,0,0,0,0,0,0,0,0,0,0,0,0,0,0,0,0,0,0,0,0,0,0,0,0,0,0,0,0,0,0,0,0,0,"	,	,	,	,"
IN-UP-10,Narora,Uttar Pradesh,Bulandshahr  & Badaun,12700,Non Officially Protected,28.19595,78.3859544,28.21,78.55,,1,0,0,0,0,1,0,0,"Globally threatened species, Congregations: Site known or thought to hold, on a regular basis, > 20,000 water birds or > 10,000 pairs of seabirds of one or more species (A1, A4iii)",0,0,0,0,0,0,0,0,1,0,0,0,0,0,0,0,0,0,0,0,0,0,1,0,0,0,0,0,0,0,0,0,0,0,0,0,0,0,0,0,0,0,0,0,0,0,0,0,0,0,0,0,0,0,0,0,0,0,0,0,0,0,0,0,0,0,0,0,0,0,0,0,0,0,0,0,0,0,0,0,0,0,0,0,0,0,0,0,"	,	,	,"
IN-RJ-11,National Chambal,Rajasthan,"Kota, Bundi",5200,Wildlife Sanctuary,NA,NA,NA,NA,,1,0,0,0,0,0,0,0,Globally threatened species (A1),0,0,0,0,0,0,0,0,1,0,0,0,0,0,0,0,0,0,0,0,0,0,1,0,0,0,0,0,0,0,0,0,0,0,0,0,0,0,0,0,0,0,0,0,0,0,0,0,0,0,0,0,0,0,0,0,0,0,0,0,0,0,0,0,0,0,0,0,0,0,0,0,0,0,0,0,0,0,0,0,0,0,0,0,0,0,0,0,"	,	,	,	,"
IN-UP-12,Nawabganj,Uttar Pradesh,Unnao,225,Wildlife Sanctuary,26.8584162,82.1433479,NA,NA,,1,0,0,0,0,1,0,0,"Globally threatened species, Congregations: Site known or thought to hold, on a regular basis, > 20,000 water birds or > 10,000 pairs of seabirds of one or more species (A1, A4iii)",0,0,0,0,0,0,0,0,1,0,0,0,0,0,0,0,0,0,0,0,0,0,0,0,0,0,0,0,0,0,0,0,0,0,0,0,0,0,0,0,0,0,0,0,0,0,0,0,0,0,0,0,0,0,0,0,0,0,0,0,0,0,0,0,0,0,0,0,0,0,0,0,0,0,0,0,0,0,0,0,0,0,0,0,0,0,0,0,"	,	,"
IN-UP-13,Parvati Aranga,Uttar Pradesh,Gonda,1084,Wildlife Sanctuary,NA,NA,NA,NA,,1,0,0,0,0,1,0,0,"Globally threatened species, Congregations: Site known or thought to hold, on a regular basis, > 20,000 water birds or > 10,000 pairs of seabirds of one or more species (A1, A4iii)",0,0,0,0,0,0,0,0,1,0,0,0,0,0,0,0,0,0,0,0,0,0,0,0,0,0,0,0,0,0,0,0,0,0,0,0,0,0,0,0,0,0,0,0,0,0,0,0,0,0,0,0,0,0,0,0,0,0,0,0,0,0,0,0,0,0,0,0,0,0,0,0,0,0,0,0,0,0,0,0,0,0,0,0,0,0,0,0,
IN-UP-14,Patna,Uttar Pradesh,Etah,109,Wildlife Sanctuary,28.7330571,77.8227763,NA,NA,,1,0,0,1,0,1,0,0,"Globally threatened species, Congregations: Site known or thought to hold, on a regular basis, > 1% of a bio-geographic population of a congregatory waterbird species, Congregations: Site known or thought to hold, on a regular basis, > 20,000 water birds or > 10,000 pairs of seabirds of one or more species (A1, A4i, A4iii)",0,0,0,0,0,0,0,0,1,0,0,0,0,0,0,0,0,0,0,0,0,0,0,0,0,0,0,0,0,0,0,0,0,0,0,0,0,0,0,0,0,0,0,0,0,0,0,0,0,0,0,0,0,0,0,0,0,0,0,0,0,0,0,0,0,0,0,0,0,0,0,0,0,0,0,0,0,0,0,0,0,0,0,0,0,0,0,0,
IN-UP-15,Pyagpur and Sitadwar Complex,Uttar Pradesh,Bahraich,2950,Non Officially Protected,NA,NA,NA,NA,,1,0,0,0,0,1,0,0,"Globally threatened species, Congregations: Site known or thought to hold, on a regular basis, > 20,000 water birds or > 10,000 pairs of seabirds of one or more species (A1, A4iii)",0,0,0,0,0,0,0,0,1,0,0,0,0,0,0,0,0,0,0,0,0,0,0,0,0,0,0,0,0,0,0,0,0,0,0,0,0,0,0,0,0,0,0,0,0,0,0,0,0,0,0,0,0,0,0,0,0,0,0,0,0,0,0,0,0,0,0,0,0,0,0,0,0,0,0,0,0,0,0,0,0,0,0,0,0,0,0,0,"	,	,	,"
IN-UP-16,Saman,Uttar Pradesh,Mainpuri,525,Wildlife Sanctuary,NA,NA,NA,NA,,1,0,0,1,0,1,0,0,"Globally threatened species, Congregations: Site known or thought to hold, on a regular basis, > 1% of a bio-geographic population of a congregatory waterbird species, Congregations: Site known or thought to hold, on a regular basis, > 20,000 water birds or > 10,000 pairs of seabirds of one or more species (A1, A4i, A4iii)",0,0,0,0,0,0,0,0,1,0,0,0,0,0,0,0,0,0,0,0,0,0,0,0,0,0,0,0,0,0,0,0,0,0,0,0,0,0,0,0,0,0,0,0,0,0,0,0,0,0,0,0,0,0,0,0,0,0,0,0,0,0,0,0,0,0,0,0,0,0,0,0,0,0,0,0,0,0,0,0,0,0,0,0,0,0,0,0,"	,	,	,"
IN-UP-17,Samaspur,Uttar Pradesh,Raebareilli,799,Wildlife Sanctuary,NA,NA,NA,NA,,1,0,0,1,0,1,0,0,"Globally threatened species, Congregations: Site known or thought to hold, on a regular basis, > 1% of a bio-geographic population of a congregatory waterbird species, Congregations: Site known or thought to hold, on a regular basis, > 20,000 water birds or > 10,000 pairs of seabirds of one or more species (A1, A4i, A4iii)",0,0,0,0,0,0,0,0,1,0,0,0,0,0,0,0,0,0,0,0,0,0,0,0,0,0,0,0,0,0,0,0,0,0,0,0,0,0,0,0,0,0,0,0,0,0,0,0,0,0,0,0,0,0,0,0,0,0,0,0,0,0,0,0,0,0,0,0,0,0,0,0,0,0,0,0,0,0,0,0,0,0,0,0,0,0,0,0,"	,	,"
IN-UP-18,Sandi,Uttar Pradesh,Hardoi,309,Wildlife Sanctuary,27.2894559,79.9529044,NA,NA,,1,0,0,1,0,1,0,0,"Globally threatened species, Congregations: Site known or thought to hold, on a regular basis, > 1% of a bio-geographic population of a congregatory waterbird species, Congregations: Site known or thought to hold, on a regular basis, > 20,000 water birds or > 10,000 pairs of seabirds of one or more species (A1, A4i, A4iii)",0,0,0,0,0,0,0,0,1,0,0,0,0,0,0,0,0,0,0,0,0,0,0,0,0,0,0,0,0,0,0,0,0,0,0,0,0,0,0,0,0,0,0,0,0,0,0,0,0,0,0,0,0,0,0,0,0,0,0,0,0,0,0,0,0,0,0,0,0,0,0,0,0,0,0,0,0,0,0,0,0,0,0,0,0,0,0,0,"	,	,"
IN-UP-19,Sarsai Nawar Lake,Uttar Pradesh,Etawah,690,Non Officially Protected,NA,NA,26.97,79.25,,1,0,0,1,0,1,0,0,"Globally threatened species, Congregations: Site known or thought to hold, on a regular basis, > 1% of a bio-geographic population of a congregatory waterbird species, Congregations: Site known or thought to hold, on a regular basis, > 20,000 water birds or > 10,000 pairs of seabirds of one or more species (A1, A4i, A4iii)",0,0,0,0,0,0,0,0,1,0,0,0,0,0,0,0,0,0,0,0,0,0,0,0,0,0,0,0,0,0,0,0,0,0,0,0,0,0,0,0,0,0,0,0,0,0,0,0,0,0,0,0,0,0,0,0,0,1,0,0,0,0,0,0,0,0,0,0,0,0,0,0,0,0,0,0,0,0,0,0,0,0,0,0,0,0,0,0,"	,	,	,	,"
IN-UP-20,Sauj Lake,Uttar Pradesh,Mainpuri,400,Non Officially Protected,NA,NA,27.02,79.18,,1,0,0,1,0,1,0,0,"Globally threatened species, Congregations: Site known or thought to hold, on a regular basis, > 1% of a bio-geographic population of a congregatory waterbird species, Congregations: Site known or thought to hold, on a regular basis, > 20,000 water birds or > 10,000 pairs of seabirds of one or more species (A1, A4i, A4iii)",0,0,0,0,0,0,0,0,1,0,0,0,0,0,0,0,0,0,0,0,0,0,0,0,0,0,0,0,0,0,0,0,0,0,0,0,0,0,0,0,0,0,0,0,0,0,0,0,0,0,0,0,0,0,0,0,0,0,0,0,0,0,0,0,0,0,0,0,0,0,0,0,0,0,0,0,0,0,0,0,0,0,0,0,0,0,0,0,"	,	,"
IN-UP-21,Sheikha Jheel,Uttar Pradesh,Aligarh,250,Non Officially Protected,NA,NA,27.82,78.17,,1,0,0,1,0,1,0,0,"Globally threatened species, Congregations: Site known or thought to hold, on a regular basis, > 1% of a bio-geographic population of a congregatory waterbird species, Congregations: Site known or thought to hold, on a regular basis, > 20,000 water birds or > 10,000 pairs of seabirds of one or more species (A1, A4i, A4iii)",0,0,0,0,0,0,0,0,1,0,0,0,0,0,0,0,0,0,0,0,0,0,0,0,0,0,0,0,0,0,0,0,0,0,0,0,0,0,0,0,0,0,0,0,0,0,0,0,0,0,0,0,0,0,0,0,0,0,0,0,0,0,0,0,0,0,0,0,0,0,0,0,0,0,0,0,0,0,0,0,0,0,0,0,0,0,0,0,"	,	,"
IN-UP-22,Sohagibarwa,Uttar Pradesh,Maharajganj,42820,Wildlife Sanctuary,NA,NA,NA,NA,,1,0,0,0,0,0,0,0,Globally threatened species (A1),0,0,0,0,0,0,0,0,1,0,0,0,0,0,0,1,0,0,0,0,0,0,0,0,0,0,0,0,0,0,0,0,0,0,0,0,0,0,0,0,0,0,0,0,0,0,0,0,0,0,0,0,0,0,0,0,0,0,0,0,0,0,0,0,0,0,0,0,0,0,0,0,0,0,0,0,0,0,0,0,0,0,0,0,0,0,0,0,"	,	,"
IN-UP-23,Soheldev,Uttar Pradesh,"Balrampur, Saravasti",45247,Wildlife Sanctuary,NA,NA,NA,NA,,1,0,0,0,0,0,0,0,Globally threatened species (A1),0,0,0,0,0,0,0,0,0,0,0,0,0,0,0,1,0,0,0,0,0,0,0,0,0,0,0,0,0,0,0,0,0,0,0,0,0,0,0,0,0,0,0,0,0,0,0,0,0,0,0,0,0,0,0,0,0,0,0,0,0,0,0,0,0,0,0,0,0,0,0,0,0,0,0,0,0,0,0,0,0,0,0,0,0,0,0,0,"	,	,	,	,"
IN-UP-24,Sur Sarovar,Uttar Pradesh,Agra,403,Wildlife Sanctuary,NA,NA,NA,NA,,1,0,0,0,0,1,0,0,"Globally threatened species, Congregations: Site known or thought to hold, on a regular basis, > 20,000 water birds or > 10,000 pairs of seabirds of one or more species (A1, A4iii)",0,0,0,0,0,0,0,0,1,0,0,0,0,0,0,0,0,0,0,0,0,0,0,0,0,0,0,0,0,0,0,0,0,0,0,0,0,0,0,0,0,0,0,0,0,0,0,0,0,0,0,0,0,0,0,0,0,0,0,0,0,0,0,0,0,0,0,0,0,0,0,0,0,0,0,0,0,0,0,0,0,0,0,0,0,0,0,0,"	,	,	,"
IN-UP-25,Surha Tal,Uttar Pradesh,Ballia,3432,Wildlife Sanctuary,NA,NA,NA,NA,,1,0,0,1,0,1,0,0,"Globally threatened species, Congregations: Site known or thought to hold, on a regular basis, > 1% of a bio-geographic population of a congregatory waterbird species, Congregations: Site known or thought to hold, on a regular basis, > 20,000 water birds or > 10,000 pairs of seabirds of one or more species (A1, A4i, A4iii)",0,0,0,0,0,0,0,0,1,0,0,0,0,0,0,0,0,0,0,0,0,0,0,0,0,0,0,0,0,0,0,0,0,0,0,0,0,0,0,0,0,0,0,0,0,0,0,0,0,0,0,0,0,0,0,0,0,0,0,0,0,0,0,0,0,0,0,0,0,0,0,0,0,0,0,0,0,0,0,0,0,0,0,0,0,0,0,0,
IN-UT-01,Asan Barage,Uttarakhand,Dehra Dun,250,Non Officially Protected,NA,NA,NA,NA,,1,0,0,1,0,0,0,0,"Globally threatened species, Congregations: Site known or thought to hold, on a regular basis, > 1% of a bio-geographic population of a congregatory waterbird species (A1, A4i)",0,0,0,0,0,0,0,0,1,0,0,0,0,0,0,0,0,0,0,0,0,0,0,0,0,0,0,0,0,0,0,0,0,0,0,0,0,0,0,0,0,0,0,0,0,0,0,0,0,0,0,0,0,0,0,0,0,0,0,0,0,0,0,0,0,0,0,0,0,0,0,0,0,0,0,0,0,0,0,0,0,0,0,0,0,0,0,0,"	,	,	,	,"
IN-UT-02,Askot and Surrounding Hills,Uttarakhand,Pithoragarh,209993,Wildlife Sanctuary,NA,NA,NA,NA,,1,1,0,0,0,0,0,0,"Globally threatened species, Restricted range species (A1, A2)",0,0,0,0,0,0,0,0,0,0,0,0,0,0,0,0,0,1,0,0,0,0,0,0,0,0,1,0,0,0,0,0,0,0,0,0,0,0,0,0,0,0,0,0,0,0,0,0,0,0,0,0,1,0,0,0,0,0,0,0,0,0,0,0,0,0,0,0,0,0,0,0,0,0,0,0,0,0,0,0,0,0,0,0,0,0,0,0,"	,	,	,"
IN-UT-03,Binog - Bhadraj - Jharipani,Uttarakhand,Dehradun,1082,Wildlife Sanctuary,NA,NA,NA,NA,,1,1,0,0,0,0,0,0,"Globally threatened species, Restricted range species (A1, A2)",0,0,0,0,0,0,0,0,0,0,0,0,0,0,0,0,0,0,0,0,0,0,0,0,0,0,1,0,0,0,0,0,0,0,0,0,0,0,0,0,0,0,0,0,0,0,0,0,0,0,0,0,0,0,1,0,0,0,0,0,0,0,0,0,0,0,0,0,0,0,0,0,0,0,0,0,0,0,0,0,0,0,0,0,0,0,0,0,"	,	,	,"
IN-UT-04,Binsar,Uttarakhand,Almora,4559,Wildlife Sanctuary,29.66995,79.70993,NA,NA,,0,0,1,0,0,0,0,0,Biome-restricted assemblage (A3),0,0,0,0,0,0,0,0,0,0,0,0,0,0,0,0,0,0,0,0,0,0,0,0,1,0,0,0,0,0,0,0,0,0,0,0,0,0,0,0,0,0,0,0,0,0,0,0,0,0,0,0,0,0,1,0,0,0,0,0,0,0,0,0,0,0,0,0,0,0,0,0,0,0,0,0,0,0,0,0,0,0,0,0,0,0,0,0,"	,	,"
IN-UT-05,Corbett,Uttarakhand,Pauri Garhwal and Nainital,131854,Tiger Reserve,29.57092305,78.84323777,NA,NA,,1,0,0,0,0,0,0,0,Globally threatened species (A1),0,0,0,0,0,0,1,0,0,0,0,0,0,0,0,1,0,0,0,0,0,0,0,0,0,0,1,0,0,0,0,0,0,0,0,0,0,0,0,0,0,0,0,0,0,0,0,0,0,0,0,0,0,0,0,0,0,0,0,0,0,0,0,0,0,0,0,0,0,0,0,0,0,0,0,0,0,0,0,0,0,0,0,0,0,0,0,0,"	,	,"
IN-HP-07,Govind Sagar and Naina,Himachal Pradesh,"Bilaspur, Mandi",15786,Wildlife Sanctuary,NA,NA,NA,NA,,1,0,0,0,0,0,0,1,"Globally threatened species, Data deficient (A1, DD)",0,0,0,0,0,0,0,0,0,0,0,0,0,0,0,0,0,0,0,0,0,0,0,0,0,0,0,0,0,0,0,0,0,0,0,0,0,0,0,0,0,0,0,0,0,0,0,0,0,0,0,0,0,0,0,0,0,0,1,0,0,0,0,0,0,0,0,0,0,0,0,0,0,0,0,0,0,0,0,0,0,0,0,0,0,0,0,0,"	,	,"
IN-UT-07,Kedarnath,Uttarakhand,Chamoli,98524,Wildlife Sanctuary,30.7828215,79.0792132,NA,NA,,1,1,1,0,0,0,0,0,"Globally threatened species, Restricted range species, Biome-restricted assemblage (A1, A2, A3)",0,0,0,0,0,0,0,0,0,0,0,0,0,0,0,0,0,1,0,0,0,0,0,0,0,0,1,0,0,0,0,0,0,0,0,0,0,0,0,0,0,0,0,0,0,0,0,0,0,0,0,0,0,0,0,0,0,0,0,0,0,0,0,0,0,0,0,0,0,0,0,0,0,0,0,0,0,0,0,0,0,0,0,0,0,0,0,0,"	,	,	,	,"
IN-UT-08,Nanda Devi,Uttarakhand,Chamoli and Bageshwar,62462,National Park,30.3760768,79.9701154,NA,NA,,1,1,0,0,0,0,0,0,"Globally threatened species, Restricted range species (A1, A2)",0,0,0,0,0,0,0,0,0,0,0,0,0,0,0,0,0,1,1,0,0,0,0,0,1,0,0,0,0,0,0,0,0,0,0,0,0,0,0,0,0,0,0,0,0,0,0,0,0,0,0,0,0,0,0,0,0,0,0,0,0,0,0,0,0,0,0,0,0,0,0,0,0,0,0,0,0,0,0,0,0,0,0,0,0,0,0,0,"	,	,	,	,"
IN-UT-09,New  Campus,Uttarakhand,Dehradun,450,Non Officially Protected,NA,NA,NA,NA,,0,0,1,0,0,0,0,0,Biome-restricted assemblage (A3),0,0,0,0,0,0,0,1,0,0,0,0,0,0,0,1,0,0,0,0,0,0,0,0,0,0,0,0,0,0,0,0,0,0,0,0,0,0,0,0,0,0,0,0,0,0,0,0,0,0,0,0,0,0,0,0,0,0,0,0,0,0,0,0,0,0,0,0,0,0,0,0,0,0,0,0,0,0,0,0,0,0,0,0,0,0,0,0,"	,	,	,"
IN-UT-10,Rajaji,Uttarakhand,"Dehradun,Haridwar and Garwal",82000,National Park,29.9556,78.10044,NA,NA,,1,0,0,0,0,0,0,0,Globally threatened species (A1),0,0,0,0,0,0,1,0,0,0,0,0,0,0,0,1,0,0,0,0,0,0,0,0,1,0,0,0,0,0,0,0,0,0,0,0,0,0,0,0,0,0,0,0,0,0,0,0,0,0,0,0,0,0,0,0,0,0,0,0,0,0,0,0,0,0,0,0,0,0,0,0,0,0,0,0,0,0,0,0,0,0,0,0,0,0,0,0,"	,	,	,"
IN-UT-11,Sonanadi,Uttarakhand,"Garhwal , Bijnor",30118,Wildlife Sanctuary,NA,NA,NA,NA,,1,0,0,0,0,0,0,0,Globally threatened species (A1),0,0,0,0,0,0,1,0,0,0,0,0,0,0,0,1,0,0,0,0,0,0,0,0,1,0,0,0,0,0,0,0,0,0,0,0,0,0,0,0,0,0,0,0,0,0,0,0,0,0,0,0,0,0,0,0,0,0,0,0,0,0,0,0,0,0,0,0,0,0,0,0,0,0,0,0,0,0,0,0,0,0,0,0,0,0,0,0,"	,	,"
IN-UT-12,Upper Pindar Catchment In East Almora,Uttarakhand,Almora,20000,Non Officially Protected,NA,NA,NA,NA,,1,1,1,0,0,0,0,0,"Globally threatened species, Restricted range species, Biome-restricted assemblage (A1, A2, A3)",0,0,0,0,0,0,0,0,0,0,0,0,0,0,0,0,0,0,0,0,0,0,0,0,1,0,0,0,0,0,0,0,0,0,0,0,0,0,0,0,0,0,0,0,0,0,0,0,0,0,0,1,0,1,0,0,0,0,0,0,0,0,0,0,0,0,0,0,0,0,0,0,0,0,0,0,0,0,0,0,0,0,0,0,0,0,0,0,
IN-UT-13,Valley of Flowers,Uttarakhand,Chamoli,8750,National Park,NA,NA,NA,NA,,1,0,0,0,0,0,0,1,"Globally threatened species, Data deficient (A1, DD)",0,0,0,0,0,0,0,0,0,0,0,0,0,0,0,0,0,0,0,0,0,0,0,0,0,0,1,0,0,0,0,0,0,0,0,0,0,0,0,0,0,0,0,0,0,0,0,0,0,0,0,1,1,0,0,0,0,0,0,0,0,0,0,0,0,0,0,0,0,0,0,0,0,0,0,0,0,0,0,0,0,0,0,0,0,0,0,0,"	,	,	,"
IN-UT-14,Gangotri,Uttarakhand,Uttarkashi,155200,National Park,30.9943684,78.9398699,NA,NA,,1,1,0,0,0,0,0,0,"Globally threatened species, Restricted range species (A1, A2)",0,0,0,0,0,0,0,0,0,0,0,0,0,0,0,0,0,0,0,0,0,0,0,0,0,0,1,0,0,0,0,0,0,0,0,0,0,0,0,0,0,0,0,0,0,0,0,0,0,0,0,0,0,0,1,0,0,0,0,0,0,0,0,0,0,0,0,0,0,0,0,0,0,0,0,0,0,0,0,0,0,0,0,0,0,0,0,0,"	,	,	,	,"
IN-WB-01,Buxa,West Bengal,Jalpaiguri,76087,Tiger Reserve,26.66335115,89.6080809,NA,NA,,1,0,0,0,0,0,0,0,Globally threatened species (A1),0,0,0,1,0,0,1,0,0,0,0,0,0,1,0,0,0,0,0,0,0,0,1,0,0,0,0,0,0,0,0,0,0,0,0,0,0,0,0,0,0,0,0,0,0,0,0,0,0,0,0,0,0,0,0,0,0,0,0,0,0,0,0,0,0,0,0,0,0,0,0,0,0,0,0,0,0,0,0,0,0,0,0,0,0,0,0,0,"	,	,	,	,"
IN-WB-02,Farakka Barrage,West Bengal,Malda,2000,Non Officially Protected,24.8078008,87.9432696,NA,NA,,1,0,0,1,0,1,0,0,"Globally threatened species, Congregations: Site known or thought to hold, on a regular basis, > 1% of a bio-geographic population of a congregatory waterbird species, Congregations: Site known or thought to hold, on a regular basis, > 20,000 water birds or > 10,000 pairs of seabirds of one or more species (A1, A4i, A4iii)",0,0,0,0,0,0,0,0,0,0,0,0,0,0,0,0,0,0,0,0,0,0,1,0,0,0,0,0,0,0,0,0,0,0,0,0,0,0,0,0,0,0,0,0,0,0,0,0,0,0,0,0,0,0,0,0,0,0,0,0,0,0,0,0,0,0,0,0,0,0,0,0,0,0,0,0,0,0,0,0,0,0,0,0,0,0,0,0,"	,	,	,"
IN-WB-03,Gorumara,West Bengal,Jalpaiguri,7995,National Park,26.8713364,88.8704143,NA,NA,,1,1,0,0,0,0,0,0,"Globally threatened species, Restricted range species (A1, A2)",0,1,0,0,0,0,1,0,0,0,0,0,0,0,0,1,0,0,0,0,0,0,0,0,0,0,0,0,0,0,0,0,0,0,0,0,0,0,0,0,0,0,0,0,0,0,0,0,0,0,0,0,0,0,0,0,0,0,0,0,0,0,0,0,0,0,0,0,0,0,0,0,0,0,0,0,0,0,0,0,0,0,0,0,0,0,0,0,"	,	,	,"
IN-WB-04,Jaldapara,West Bengal,Jalpaiguri,21651,Wildlife Sanctuary,26.6058791,89.37882822,NA,NA,,1,1,0,0,0,0,0,0,"Globally threatened species, Restricted range species (A1, A2)",0,0,0,0,0,0,1,0,0,0,0,0,0,1,0,1,0,0,0,0,0,0,0,0,0,0,0,0,0,0,0,0,0,0,0,0,0,0,0,0,0,0,0,0,0,0,0,0,0,0,0,0,0,0,0,0,0,0,0,0,0,0,0,0,0,0,0,0,0,0,0,0,0,0,0,0,0,0,0,0,0,0,0,0,0,0,0,0,
IN-WB-05,Kulik,West Bengal,Uttar Dinajpur,130,Wildlife Sanctuary,NA,NA,NA,NA,,1,0,0,1,0,1,0,0,"Globally threatened species, Congregations: Site known or thought to hold, on a regular basis, > 1% of a bio-geographic population of a congregatory waterbird species, Congregations: Site known or thought to hold, on a regular basis, > 20,000 water birds or > 10,000 pairs of seabirds of one or more species (A1, A4i, A4iii)",0,0,0,0,0,0,1,0,1,0,0,0,0,0,0,0,0,0,0,0,0,0,1,0,0,0,0,0,0,0,0,0,0,0,0,0,0,0,0,0,0,0,0,0,0,0,0,0,0,0,0,0,0,0,0,0,0,0,0,0,0,0,0,0,0,0,0,0,0,0,0,0,0,0,0,0,0,0,0,0,0,0,0,0,0,0,0,0,"	,	,	,"
IN-WB-06,Lava - Neora Valley,West Bengal,Darjeeling,8800,National Park,NA,NA,NA,NA,,1,1,1,0,0,0,0,0,"Globally threatened species, Restricted range species, Biome-restricted assemblage (A1, A2, A3)",0,0,0,0,0,0,0,0,0,0,0,0,0,0,0,0,0,1,0,0,0,1,0,0,1,0,0,0,0,0,0,0,0,0,0,0,0,0,0,0,0,0,0,0,0,0,0,0,0,0,0,0,0,0,0,0,0,0,0,0,0,0,0,0,0,0,0,0,0,0,0,0,0,0,0,0,0,0,0,0,0,0,0,0,0,0,0,0,"	,	,	,	,"
IN-WB-07,Mahananda,West Bengal,Darjeeling,12772,Wildlife Sanctuary,25.0877438,88.0880491,NA,NA,,1,1,1,0,0,0,0,0,"Globally threatened species, Restricted range species, Biome-restricted assemblage (A1, A2, A3)",0,1,0,0,0,0,1,0,0,0,0,0,0,0,0,0,0,1,0,0,0,0,0,0,0,0,0,0,0,0,0,0,0,0,0,0,0,0,0,0,0,0,0,0,0,0,0,0,0,0,0,0,0,0,0,0,0,0,0,0,0,0,0,0,0,0,0,0,0,0,0,0,0,0,0,0,0,0,0,0,0,0,0,0,0,0,0,0,"	,	,"
IN-WB-08,Naya Bandh Wetland Complex,West Bengal,Malda,Not Defined,Non Officially Protected,NA,NA,24.92,88.33,,1,0,0,0,0,0,0,0,Globally threatened species (A1),0,0,0,0,0,0,0,1,1,0,0,0,0,0,0,0,0,0,0,0,0,0,0,0,0,0,0,0,0,0,0,0,0,0,0,0,0,0,0,0,0,0,0,0,0,0,0,0,0,0,0,0,0,0,0,0,0,0,0,0,0,0,0,0,0,0,0,0,0,0,0,0,0,0,0,0,0,0,0,0,0,0,0,0,0,0,0,0,"	,	,"
IN-WB-09,Singhalila,West Bengal,Darjeeling,7860,National Park,NA,NA,NA,NA,,1,1,0,0,0,0,0,0,"Globally threatened species, Restricted range species (A1, A2)",0,0,0,0,0,0,0,0,0,0,0,0,0,0,0,0,0,1,1,0,0,1,0,0,0,0,1,0,0,0,0,0,0,0,0,0,0,0,0,0,0,0,0,0,0,0,0,0,0,0,0,0,0,0,0,0,0,0,0,0,0,0,0,0,0,0,0,0,0,0,0,0,0,0,0,0,0,0,0,0,0,0,0,0,0,0,0,0,"	,	,	,"
IN-WB-10,Sundarban,West Bengal,North & South 24-Paragnas,133010,Tiger Reserve,21.8744273,88.1863844,NA,NA,,1,0,0,0,0,0,0,0,Globally threatened species (A1),0,0,1,0,0,0,0,0,0,0,0,0,0,0,0,1,0,0,0,0,0,0,0,0,0,0,0,0,0,0,0,0,0,0,0,0,0,0,0,0,0,0,0,0,0,0,0,0,0,0,0,0,0,0,0,0,0,0,0,0,0,0,0,0,0,0,0,0,0,0,0,0,0,0,0,0,0,0,0,0,0,0,0,0,0,0,0,0,"	,	,	,"
